{"type": "FeatureCollection", "features": [{"type": "Feature", "id": 36, "geometry": {"type": "Point", "coordinates": [-97.5982235730911, 35.542620726165076]}, "properties": {"ObjectID": 36, "Address": "4343 S LAKE HEFNER DR", "FacilityType": "Fire", "FacilityName": "Firest Station 30", "FacilityInfo": ""}}, {"type": "Feature", "id": 37, "geometry": {"type": "Point", "coordinates": [-97.54898444080244, 35.64237759196016]}, "properties": {"ObjectID": 37, "Address": "16820 N PENNSYLVANIA AVE", "FacilityType": "Fire", "FacilityName": "Firest Station 37", "FacilityInfo": ""}}, {"type": "Feature", "id": 38, "geometry": {"type": "Point", "coordinates": [-97.62108462449002, 35.58761233649552]}, "properties": {"ObjectID": 38, "Address": "11601 N MACARTHUR BLVD", "FacilityType": "Fire", "FacilityName": "Firest Station 3", "FacilityInfo": ""}}, {"type": "Feature", "id": 39, "geometry": {"type": "Point", "coordinates": [-97.56527798528131, 35.59502554944626]}, "properties": {"ObjectID": 39, "Address": "2817 NW 122ND ST", "FacilityType": "Fire", "FacilityName": "Firest Station 15", "FacilityInfo": ""}}, {"type": "Feature", "id": 40, "geometry": {"type": "Point", "coordinates": [-97.72953727347603, 35.449569545278266]}, "properties": {"ObjectID": 40, "Address": "11630 SW 15TH ST", "FacilityType": "Fire", "FacilityName": "Firest Station 33", "FacilityInfo": ""}}, {"type": "Feature", "id": 41, "geometry": {"type": "Point", "coordinates": [-97.65357846102516, 35.435588700113044]}, "properties": {"ObjectID": 41, "Address": "7929 SW 29TH ST", "FacilityType": "Fire", "FacilityName": "Firest Station 20", "FacilityInfo": ""}}, {"type": "Feature", "id": 42, "geometry": {"type": "Point", "coordinates": [-97.21745156000247, 35.36237234048235]}, "properties": {"ObjectID": 42, "Address": "17700 SE 104TH ST", "FacilityType": "Fire", "FacilityName": "Firest Station 36", "FacilityInfo": ""}}, {"type": "Feature", "id": 43, "geometry": {"type": "Point", "coordinates": [-97.56572082023926, 35.338088479834724]}, "properties": {"ObjectID": 43, "Address": "13017 S MAY AVE", "FacilityType": "Fire", "FacilityName": "Firest Station 35", "FacilityInfo": ""}}, {"type": "Feature", "id": 44, "geometry": {"type": "Point", "coordinates": [-97.31827042926005, 35.39578419634817]}, "properties": {"ObjectID": 44, "Address": "7101 S ANDERSON RD", "FacilityType": "Fire", "FacilityName": "Firest Station 28", "FacilityInfo": ""}}, {"type": "Feature", "id": 45, "geometry": {"type": "Point", "coordinates": [-97.405397129922, 35.391549660824616]}, "properties": {"ObjectID": 45, "Address": "7000 SE 74TH ST", "FacilityType": "Fire", "FacilityName": "Firest Station 13", "FacilityInfo": ""}}, {"type": "Feature", "id": 46, "geometry": {"type": "Point", "coordinates": [-97.63621632720516, 35.47376832803887]}, "properties": {"ObjectID": 46, "Address": "618 N ROCKWELL AVE", "FacilityType": "Fire", "FacilityName": "Firest Station 31", "FacilityInfo": ""}}, {"type": "Feature", "id": 47, "geometry": {"type": "Point", "coordinates": [-97.54259334715078, 35.37748403171523]}, "properties": {"ObjectID": 47, "Address": "1415 SW 89TH ST", "FacilityType": "Fire", "FacilityName": "Firest Station 9", "FacilityInfo": ""}}, {"type": "Feature", "id": 48, "geometry": {"type": "Point", "coordinates": [-97.48484877585676, 35.51247793673733]}, "properties": {"ObjectID": 48, "Address": "4116 N PROSPECT AVE", "FacilityType": "Fire", "FacilityName": "Firest Station 18", "FacilityInfo": ""}}, {"type": "Feature", "id": 49, "geometry": {"type": "Point", "coordinates": [-97.47707599509657, 35.49061772909289]}, "properties": {"ObjectID": 49, "Address": "2121 N MARTIN LUTHER KING AVE", "FacilityType": "Fire", "FacilityName": "Firest Station 12", "FacilityInfo": ""}}, {"type": "Feature", "id": 50, "geometry": {"type": "Point", "coordinates": [-97.51368501726358, 35.491927171715766]}, "properties": {"ObjectID": 50, "Address": "24 NW 22ND ST", "FacilityType": "Fire", "FacilityName": "Firest Station 5", "FacilityInfo": ""}}, {"type": "Feature", "id": 51, "geometry": {"type": "Point", "coordinates": [-97.54738206370769, 35.486292709593016]}, "properties": {"ObjectID": 51, "Address": "2039 NW 16TH ST", "FacilityType": "Fire", "FacilityName": "Firest Station 10", "FacilityInfo": ""}}, {"type": "Feature", "id": 52, "geometry": {"type": "Point", "coordinates": [-97.57118297958606, 35.49350095880294]}, "properties": {"ObjectID": 52, "Address": "3129 NW 23RD ST", "FacilityType": "Fire", "FacilityName": "Firest Station 14", "FacilityInfo": ""}}, {"type": "Feature", "id": 53, "geometry": {"type": "Point", "coordinates": [-97.60075934911917, 35.48462219715798]}, "properties": {"ObjectID": 53, "Address": "1500 N MERIDIAN AVE", "FacilityType": "Fire", "FacilityName": "Firest Station 24", "FacilityInfo": ""}}, {"type": "Feature", "id": 54, "geometry": {"type": "Point", "coordinates": [-97.52631502508562, 35.47293333710136]}, "properties": {"ObjectID": 54, "Address": "820 NW 5TH ST", "FacilityType": "Fire", "FacilityName": "Firest Station 1", "FacilityInfo": ""}}, {"type": "Feature", "id": 55, "geometry": {"type": "Point", "coordinates": [-97.47638893293833, 35.43588624689429]}, "properties": {"ObjectID": 55, "Address": "2812 S EASTERN AVE", "FacilityType": "Fire", "FacilityName": "Firest Station 23", "FacilityInfo": ""}}, {"type": "Feature", "id": 56, "geometry": {"type": "Point", "coordinates": [-97.50336161604943, 35.39926541343656]}, "properties": {"ObjectID": 56, "Address": "405 SE 66TH ST", "FacilityType": "Fire", "FacilityName": "Firest Station 16", "FacilityInfo": ""}}, {"type": "Feature", "id": 57, "geometry": {"type": "Point", "coordinates": [-97.56795588969862, 35.43460822340161]}, "properties": {"ObjectID": 57, "Address": "3000 SW 29TH ST", "FacilityType": "Fire", "FacilityName": "Firest Station 21", "FacilityInfo": ""}}, {"type": "Feature", "id": 58, "geometry": {"type": "Point", "coordinates": [-97.51717372676292, 35.44122607910617]}, "properties": {"ObjectID": 58, "Address": "218 SW 23RD ST", "FacilityType": "Fire", "FacilityName": "Firest Station 7", "FacilityInfo": ""}}, {"type": "Feature", "id": 59, "geometry": {"type": "Point", "coordinates": [-97.50262926766044, 35.46751540112247]}, "properties": {"ObjectID": 59, "Address": "21 N LINCOLN BLVD", "FacilityType": "Fire", "FacilityName": "Firest Station 6", "FacilityInfo": ""}}, {"type": "Feature", "id": 60, "geometry": {"type": "Point", "coordinates": [-97.56244795529727, 35.52181925020272]}, "properties": {"ObjectID": 60, "Address": "2716 NW 50TH ST", "FacilityType": "Fire", "FacilityName": "Firest Station 17", "FacilityInfo": ""}}, {"type": "Feature", "id": 61, "geometry": {"type": "Point", "coordinates": [-97.65667523945933, 35.55929070665257]}, "properties": {"ObjectID": 61, "Address": "8617 N COUNCIL RD", "FacilityType": "Fire", "FacilityName": "Firest Station 34", "FacilityInfo": ""}}, {"type": "Feature", "id": 62, "geometry": {"type": "Point", "coordinates": [-97.54952252309553, 35.452510733645234]}, "properties": {"ObjectID": 62, "Address": "1934 EXCHANGE AVE", "FacilityType": "Fire", "FacilityName": "Firest Station 8", "FacilityInfo": ""}}, {"type": "Feature", "id": 63, "geometry": {"type": "Point", "coordinates": [-97.53226203201132, 35.42050792972936]}, "properties": {"ObjectID": 63, "Address": "940 SW 44TH ST", "FacilityType": "Fire", "FacilityName": "Firest Station 19", "FacilityInfo": ""}}, {"type": "Feature", "id": 64, "geometry": {"type": "Point", "coordinates": [-97.72759723123737, 35.594341361910494]}, "properties": {"ObjectID": 64, "Address": "12233 N MUSTANG RD", "FacilityType": "Fire", "FacilityName": "Firest Station 32", "FacilityInfo": ""}}, {"type": "Feature", "id": 65, "geometry": {"type": "Point", "coordinates": [-97.5279114336808, 35.5219938408121]}, "properties": {"ObjectID": 65, "Address": "900 NW 50TH ST", "FacilityType": "Fire", "FacilityName": "Firest Station 11", "FacilityInfo": ""}}, {"type": "Feature", "id": 66, "geometry": {"type": "Point", "coordinates": [-97.33539610477752, 35.53696711880446]}, "properties": {"ObjectID": 66, "Address": "6400 N WESTMINSTER RD", "FacilityType": "Fire", "FacilityName": "Firest Station 27", "FacilityInfo": ""}}, {"type": "Feature", "id": 67, "geometry": {"type": "Point", "coordinates": [-97.25094782474447, 35.614803418968634]}, "properties": {"ObjectID": 67, "Address": "14200 HOGBACK RD", "FacilityType": "Fire", "FacilityName": "Firest Station 4", "FacilityInfo": ""}}, {"type": "Feature", "id": 68, "geometry": {"type": "Point", "coordinates": [-97.46161620140661, 35.565977522126474]}, "properties": {"ObjectID": 68, "Address": "2917 E BRITTON RD", "FacilityType": "Fire", "FacilityName": "Firest Station 2", "FacilityInfo": ""}}, {"type": "Feature", "id": 69, "geometry": {"type": "Point", "coordinates": [-97.51986834658877, 35.56488298077285]}, "properties": {"ObjectID": 69, "Address": "333 NW 92ND ST", "FacilityType": "Fire", "FacilityName": "Firest Station 22", "FacilityInfo": ""}}, {"type": "Feature", "id": 70, "geometry": {"type": "Point", "coordinates": [-97.5615496288361, 35.40650207298218]}, "properties": {"ObjectID": 70, "Address": "2701 SW 59TH ST", "FacilityType": "Fire", "FacilityName": "Firest Station 25", "FacilityInfo": ""}}, {"type": "Feature", "id": 71, "geometry": {"type": "Point", "coordinates": [-97.63523369810851, 35.348792912412854]}, "properties": {"ObjectID": 71, "Address": "7025 SW 119TH ST", "FacilityType": "Fire", "FacilityName": "Firest Station 26", "FacilityInfo": ""}}, {"type": "Feature", "id": 72, "geometry": {"type": "Point", "coordinates": [-97.38095940599185, 35.30504957910649]}, "properties": {"ObjectID": 72, "Address": "8400 SE 164TH ST", "FacilityType": "Fire", "FacilityName": "Firest Station 29", "FacilityInfo": ""}}, {"type": "Feature", "id": 472, "geometry": {"type": "Point", "coordinates": [-97.7946712711741, 35.40563798579227]}, "properties": {"ObjectID": 472, "Address": "14500 SW 59TH ST ", "FacilityType": "Fire", "FacilityName": "Firest Station 38", "FacilityInfo": ""}}, {"type": "Feature", "id": 1001, "geometry": {"type": "Point", "coordinates": [-97.52531139263507, 35.46827553733078]}, "properties": {"ObjectID": 1001, "Address": "700 Colcord Dr", "FacilityType": "Police", "FacilityName": "Police Headquarters", "FacilityInfo": ""}}, {"type": "Feature", "id": 1002, "geometry": {"type": "Point", "coordinates": [-97.59033243960043, 35.59421844007368]}, "properties": {"ObjectID": 1002, "Address": "3924 NW 122nd St", "FacilityType": "Police", "FacilityName": "Hefner Briefing Station", "FacilityInfo": ""}}, {"type": "Feature", "id": 1003, "geometry": {"type": "Point", "coordinates": [-97.5113308630019, 35.37665218855443]}, "properties": {"ObjectID": 1003, "Address": "9000 S Santa Fe Ave", "FacilityType": "Police", "FacilityName": "Santa Fe Briefing Station", "FacilityInfo": ""}}, {"type": "Feature", "id": 1004, "geometry": {"type": "Point", "coordinates": [-97.48481677298017, 35.51278441833997]}, "properties": {"ObjectID": 1004, "Address": "4116 N Prospect Ave", "FacilityType": "Police", "FacilityName": "Springlake Briefing Station", "FacilityInfo": ""}}, {"type": "Feature", "id": 1005, "geometry": {"type": "Point", "coordinates": [-97.57917743950847, 35.501150843860316]}, "properties": {"ObjectID": 1005, "Address": "3112 N Grand Blvd", "FacilityType": "Police", "FacilityName": "Will Rogers Briefing Station", "FacilityInfo": ""}}, {"type": "Feature", "id": 1006, "geometry": {"type": "Point", "coordinates": [-97.524424165385, 35.468058612465605]}, "properties": {"ObjectID": 1006, "Address": "701 W Main St", "FacilityType": "Police", "FacilityName": "Property Management", "FacilityInfo": ""}}, {"type": "Feature", "id": 1007, "geometry": {"type": "Point", "coordinates": [-97.52379104277354, 35.46835881369808]}, "properties": {"ObjectID": 1007, "Address": "616 Colcord Dr", "FacilityType": "Police", "FacilityName": "616 Building", "FacilityInfo": ""}}, {"type": "Feature", "id": 1008, "geometry": {"type": "Point", "coordinates": [-97.47609805887595, 35.51744755692978]}, "properties": {"ObjectID": 1008, "Address": "4600 N Martin Luther King Ave", "FacilityType": "Police", "FacilityName": "Regional Multiagency Coordination Center (Emergency Management)", "FacilityInfo": ""}}, {"type": "Feature", "id": 1009, "geometry": {"type": "Point", "coordinates": [-97.52531133496616, 35.46983973132954]}, "properties": {"ObjectID": 1009, "Address": "701 Couch Dr", "FacilityType": "Police", "FacilityName": "Municipal Court", "FacilityInfo": ""}}, {"type": "Feature", "id": 1010, "geometry": {"type": "Point", "coordinates": [-97.58249915576941, 35.47370803449108]}, "properties": {"ObjectID": 1010, "Address": "800 N Portland Ave", "FacilityType": "Police", "FacilityName": "Training Center", "FacilityInfo": ""}}, {"type": "Feature", "id": 1011, "geometry": {"type": "Point", "coordinates": [-97.40536823335204, 35.381852498775906]}, "properties": {"ObjectID": 1011, "Address": "8500 S Air Depot Blvd", "FacilityType": "Police", "FacilityName": "Pistol Range", "FacilityInfo": ""}}, {"type": "Feature", "id": 1013, "geometry": {"type": "Point", "coordinates": [-97.58234522826982, 35.45131549251938]}, "properties": {"ObjectID": 1013, "Address": "1400 S Portland Ave", "FacilityType": "Police", "FacilityName": "K-9/Equine Unit", "FacilityInfo": ""}}, {"type": "Feature", "id": 1014, "geometry": {"type": "Point", "coordinates": [-97.5075646166873, 35.46755387371052]}, "properties": {"ObjectID": 1014, "Address": "219 E Main St", "FacilityType": "Police", "FacilityName": "Bricktown Briefing Station", "FacilityInfo": ""}}, {"type": "Feature", "id": 1015, "geometry": {"type": "Point", "coordinates": [-97.38412800925211, 35.365136427887926]}, "properties": {"ObjectID": 1015, "Address": "10401 W Stanley Draper Dr", "FacilityType": "Police", "FacilityName": "Draper Lake Station", "FacilityInfo": ""}}, {"type": "Feature", "id": 1016, "geometry": {"type": "Point", "coordinates": [-97.59808885067376, 35.549554204465224]}, "properties": {"ObjectID": 1016, "Address": "4407 S Lake Hefner Dr", "FacilityType": "Police", "FacilityName": "Hefner Lake Station", "FacilityInfo": ""}}, {"type": "Feature", "id": 1017, "geometry": {"type": "Point", "coordinates": [-97.66568453756638, 35.5024660337972]}, "properties": {"ObjectID": 1017, "Address": "3201 E Overholse Dr", "FacilityType": "Police", "FacilityName": "Overholser Lake Station", "FacilityInfo": ""}}, {"type": "Feature", "id": 1018, "geometry": {"type": "Point", "coordinates": [-97.46067081246221, 35.437916005703855]}, "properties": {"ObjectID": 1018, "Address": "2800 E Grand Blvd", "FacilityType": "Police", "FacilityName": "Fleet Barn", "FacilityInfo": ""}}, {"type": "Feature", "id": 1019, "geometry": {"type": "Point", "coordinates": [-97.52511925879622, 35.47047892347254]}, "properties": {"ObjectID": 1019, "Address": "715 Robert S Kerr Ave", "FacilityType": "Police", "FacilityName": "9-1-1 Communications", "FacilityInfo": ""}}, {"type": "Feature", "id": 1020, "geometry": {"type": "Point", "coordinates": [-97.52686717289201, 35.46964230283456]}, "properties": {"ObjectID": 1020, "Address": "201 N Shartel Ave", "FacilityType": "Police", "FacilityName": "OK County Jail", "FacilityInfo": ""}}, {"type": "Feature", "id": 1021, "geometry": {"type": "Point", "coordinates": [-97.5187516451315, 35.46918758712272]}, "properties": {"ObjectID": 1021, "Address": "320 Robert S Kerr Ave", "FacilityType": "Police", "FacilityName": "OK County Courthouse", "FacilityInfo": ""}}, {"type": "Feature", "id": 1022, "geometry": {"type": "Point", "coordinates": [-97.58429694179256, 35.41074800862261]}, "properties": {"ObjectID": 1022, "Address": "5501 S Portland Ave", "FacilityType": "Police", "FacilityName": "Southwest Briefing Station", "FacilityInfo": ""}}, {"type": "Feature", "id": 10263, "geometry": {"type": "Point", "coordinates": [-97.51524780120884, 35.42702678413668]}, "properties": {"ObjectID": 10263, "Address": "3816 S ROBINSON AVE", "FacilityType": "Parks - Recreation", "FacilityName": "Capitol Hill Recreation Center - Draper Park", "FacilityInfo": "Lions Club"}}, {"type": "Feature", "id": 10264, "geometry": {"type": "Point", "coordinates": [-97.4423210648072, 35.49192788002355]}, "properties": {"ObjectID": 10264, "Address": "2201 N COLTRANE RD", "FacilityType": "Parks - Recreation", "FacilityName": "Daniel J. Diggs Center (Community Action Agency)", "FacilityInfo": "Community Action Agency"}}, {"type": "Feature", "id": 10265, "geometry": {"type": "Point", "coordinates": [-97.47086350691937, 35.4772290187259]}, "properties": {"ObjectID": 10265, "Address": "900 FREDERICK DOUGLASS AVE", "FacilityType": "Parks - Recreation", "FacilityName": "Douglass Park Community Center", "FacilityInfo": " "}}, {"type": "Feature", "id": 10266, "geometry": {"type": "Point", "coordinates": [-97.50125081413195, 35.47122603809824]}, "properties": {"ObjectID": 10266, "Address": "614 NE 4TH ST", "FacilityType": "Parks - Recreation", "FacilityName": "Henrietta B. Foster Center", "FacilityInfo": " "}}, {"type": "Feature", "id": 10267, "geometry": {"type": "Point", "coordinates": [-97.49873114523035, 35.42582815183857]}, "properties": {"ObjectID": 10267, "Address": "3730 S LINDSAY AVE", "FacilityType": "Parks - Recreation", "FacilityName": "Frank Hathaway Park Center", "FacilityInfo": "OCPD"}}, {"type": "Feature", "id": 10268, "geometry": {"type": "Point", "coordinates": [-97.47608905281994, 35.51847630078668]}, "properties": {"ObjectID": 10268, "Address": "4712 N MARTIN LUTHER KING AVE", "FacilityType": "Parks - Recreation", "FacilityName": "Lincoln Center (Y.M.C.A)", "FacilityInfo": "Y.M.C.A"}}, {"type": "Feature", "id": 10269, "geometry": {"type": "Point", "coordinates": [-97.55259458326631, 35.58862222720507]}, "properties": {"ObjectID": 10269, "Address": "2234 NW 117TH ST", "FacilityType": "Parks - Recreation", "FacilityName": "Louis A. Macklanburg Center", "FacilityInfo": " "}}, {"type": "Feature", "id": 10270, "geometry": {"type": "Point", "coordinates": [-97.5357775658483, 35.48232264406406]}, "properties": {"ObjectID": 10270, "Address": "1300 N MCKINLEY AVE", "FacilityType": "Parks - Recreation", "FacilityName": "McKinley Park Center (Community Action Ag , B & G Club)", "FacilityInfo": "Boys and Girls Club"}}, {"type": "Feature", "id": 10271, "geometry": {"type": "Point", "coordinates": [-97.65098184978585, 35.470840846040836]}, "properties": {"ObjectID": 10271, "Address": "7800 MELROSE LN", "FacilityType": "Parks - Recreation", "FacilityName": "Melrose Park Recreation Center", "FacilityInfo": " "}}, {"type": "Feature", "id": 10272, "geometry": {"type": "Point", "coordinates": [-97.30853167306256, 35.50652344148442]}, "properties": {"ObjectID": 10272, "Address": "12520 NE 36TH ST", "FacilityType": "Parks - Recreation", "FacilityName": "Minnis Lakeview Park Recreation Center (Community Action Agency)", "FacilityInfo": "Community Action Agency"}}, {"type": "Feature", "id": 10273, "geometry": {"type": "Point", "coordinates": [-97.4894082364277, 35.5036887630017]}, "properties": {"ObjectID": 10273, "Address": "1220 NE 33RD ST", "FacilityType": "Parks - Recreation", "FacilityName": "Northeast Center Park", "FacilityInfo": "OCPD"}}, {"type": "Feature", "id": 10274, "geometry": {"type": "Point", "coordinates": [-97.57260160918021, 35.54564861944559]}, "properties": {"ObjectID": 10274, "Address": "3301 NW GRAND BLVD", "FacilityType": "Parks - Recreation", "FacilityName": "Hefner Park Northwest Optimist Center", "FacilityInfo": " "}}, {"type": "Feature", "id": 10275, "geometry": {"type": "Point", "coordinates": [-97.53856688198141, 35.47062831940756]}, "properties": {"ObjectID": 10275, "Address": "1435 NW 2ND ST", "FacilityType": "Parks - Recreation", "FacilityName": "Pilot Center Park Recreation Center", "FacilityInfo": " "}}, {"type": "Feature", "id": 10276, "geometry": {"type": "Point", "coordinates": [-97.48671889259269, 35.488349700686236]}, "properties": {"ObjectID": 10276, "Address": "1920 N KATE AVE", "FacilityType": "Parks - Recreation", "FacilityName": "Riley Leroy Pitts Park Recreation Center", "FacilityInfo": " "}}, {"type": "Feature", "id": 10277, "geometry": {"type": "Point", "coordinates": [-97.50163239302671, 35.43999358785861]}, "properties": {"ObjectID": 10277, "Address": "539 SE 25TH ST", "FacilityType": "Parks - Recreation", "FacilityName": "H.C. Schilling Park Recreation Center", "FacilityInfo": " "}}, {"type": "Feature", "id": 10278, "geometry": {"type": "Point", "coordinates": [-97.5577032047901, 35.383663429112616]}, "properties": {"ObjectID": 10278, "Address": "8301 S VILLA AVE", "FacilityType": "Parks - Recreation", "FacilityName": "E.M. Sellers Park Center", "FacilityInfo": " "}}, {"type": "Feature", "id": 10279, "geometry": {"type": "Point", "coordinates": [-97.51950476206126, 35.39787374845149]}, "properties": {"ObjectID": 10279, "Address": "400 SW 66TH ST", "FacilityType": "Parks - Recreation", "FacilityName": "Southern Oaks Park Center", "FacilityInfo": "City / County Health"}}, {"type": "Feature", "id": 10280, "geometry": {"type": "Point", "coordinates": [-97.53595515979258, 35.39658203239306]}, "properties": {"ObjectID": 10280, "Address": "1115 SW 70TH ST", "FacilityType": "Parks - Recreation", "FacilityName": "Taylor Park Recreation Center  ", "FacilityInfo": "Pre-School"}}, {"type": "Feature", "id": 10290, "geometry": {"type": "Point", "coordinates": [-97.58142122960903, 35.35173302571446]}, "properties": {"ObjectID": 10290, "Address": "11600 S PORTLAND AVE", "FacilityType": "Parks - Golf Course", "FacilityName": "Earlywine Park Golf Course", "FacilityInfo": "36 Holes"}}, {"type": "Feature", "id": 10291, "geometry": {"type": "Point", "coordinates": [-97.60061975745725, 35.55315853434452]}, "properties": {"ObjectID": 10291, "Address": "4491 S LAKE HEFNER DR", "FacilityType": "Parks - Golf Course", "FacilityName": "Hefner Golf Course", "FacilityInfo": "36 Holes"}}, {"type": "Feature", "id": 10292, "geometry": {"type": "Point", "coordinates": [-97.46981510340186, 35.51087153068386]}, "properties": {"ObjectID": 10292, "Address": "4712 N MARTIN LUTHER KING AVE", "FacilityType": "Parks - Golf Course", "FacilityName": "Lincoln Park Golf Course", "FacilityInfo": "36 Holes"}}, {"type": "Feature", "id": 10293, "geometry": {"type": "Point", "coordinates": [-97.47089972572877, 35.476885441255924]}, "properties": {"ObjectID": 10293, "Address": "820 FREDERICK DOUGLASS AVE", "FacilityType": "Parks - Golf Course", "FacilityName": "James E. Stewart Golf Course", "FacilityInfo": "9 Holes"}}, {"type": "Feature", "id": 10294, "geometry": {"type": "Point", "coordinates": [-97.4707247131785, 35.43622423661874]}, "properties": {"ObjectID": 10294, "Address": "2301 SE 29TH ST", "FacilityType": "Parks - Golf Course", "FacilityName": "Trosper Park Golf Course", "FacilityInfo": "18 Holes"}}, {"type": "Feature", "id": 10369, "geometry": {"type": "Point", "coordinates": [-97.52349279217262, 35.46904762760504]}, "properties": {"ObjectID": 10369, "Address": "201 N WALKER AVE", "FacilityType": "Parks - Performing Arts Venue", "FacilityName": "Civic Center Music Hall", "FacilityInfo": "Music Hall"}}, {"type": "Feature", "id": 10370, "geometry": {"type": "Point", "coordinates": [-97.58235455436433, 35.50369866830354]}, "properties": {"ObjectID": 10370, "Address": "3312 N PORTLAND AVE", "FacilityType": "Parks - Performing Arts Venue", "FacilityName": "Will Rogers Amphitheater", "FacilityInfo": "Amphitheater"}}, {"type": "Feature", "id": 14159, "geometry": {"type": "Point", "coordinates": [-97.6392172411427, 35.58680910690528]}, "properties": {"ObjectID": 14159, "Address": "11501 N ROCKWELL AVE", "FacilityType": "Parks - Health and Wellness Center", "FacilityName": "Healthy Living and Fitness Center ", "FacilityInfo": " "}}, {"type": "Feature", "id": 14160, "geometry": {"type": "Point", "coordinates": [-97.52215998228901, 35.42482562661991]}, "properties": {"ObjectID": 14160, "Address": "4021 S WALKER AVE", "FacilityType": "Parks - Health and Wellness Center", "FacilityName": "Pete White Health and Wellness Center", "FacilityInfo": " "}}, {"type": "Feature", "id": 20429, "geometry": {"type": "Point", "coordinates": [-97.49835593253722, 35.45882378345902]}, "properties": {"ObjectID": 20429, "Address": "701 S LINCOLN BLVD", "FacilityType": "Parks - Whitewater Center", "FacilityName": "Regatta Park McClendon Whitewater Center", "FacilityInfo": " "}}, {"type": "Feature", "id": 27797, "geometry": {"type": "Point", "coordinates": [-97.47097467381059, 35.47723286534601]}, "properties": {"ObjectID": 27797, "Address": "900 FREDERICK DOUGLASS AVE", "FacilityType": "Parks - Recreation", "FacilityName": "Willa D. Johnson Recreation Center", "FacilityInfo": ""}}, {"type": "Feature", "id": 100001, "geometry": {"type": "Point", "coordinates": [-97.52064998685975, 35.46759942684968]}, "properties": {"ObjectID": 100001, "Address": "420 W MAIN ST", "FacilityType": "Government", "FacilityName": "Jim Couch Building", "FacilityInfo": "Permits and Licenseing"}}, {"type": "Feature", "id": 100002, "geometry": {"type": "Point", "coordinates": [-97.52071883245485, 35.46898978399748]}, "properties": {"ObjectID": 100002, "Address": "200 N WALKER AVE", "FacilityType": "Government", "FacilityName": "City Hall", "FacilityInfo": "Mayor and Council"}}, {"type": "Feature", "id": 100003, "geometry": {"type": "Point", "coordinates": [-97.46154569300127, 35.43620375186989]}, "properties": {"ObjectID": 100003, "Address": "2811 SE 29TH ST", "FacilityType": "Government", "FacilityName": "Animal Welfare", "FacilityInfo": "Adoption Center"}}, {"type": "Feature", "id": 100004, "geometry": {"type": "Point", "coordinates": [-97.5208087006829, 35.46800939923598]}, "properties": {"ObjectID": 100004, "Address": "431 W MAIN ST", "FacilityType": "Parking", "FacilityName": "Arts Garage", "FacilityInfo": "Entrances on Main & Colcord"}}, {"type": "Feature", "id": 100005, "geometry": {"type": "Point", "coordinates": [-97.52167568112738, 35.46679589224892]}, "properties": {"ObjectID": 100005, "Address": "501 W SHERIDIAN AVE", "FacilityType": "Parking", "FacilityName": "Sheridan / Walker Garage", "FacilityInfo": "Entrance on Walker & Sheridan"}}, {"type": "Feature", "id": 100006, "geometry": {"type": "Point", "coordinates": [-97.51547288308984, 35.46742730744129]}, "properties": {"ObjectID": 100006, "Address": "100 W MAIN ST", "FacilityType": "Parking", "FacilityName": "Century Center Garage", "FacilityInfo": "Entrance on Sheridan"}}, {"type": "Feature", "id": 100007, "geometry": {"type": "Point", "coordinates": [-97.51380466177507, 35.46127227151955]}, "properties": {"ObjectID": 100007, "Address": "15 MICK CORNETT DR (formally SW 4TH ST)", "FacilityType": "Parking", "FacilityName": "Convention Center Garage", "FacilityInfo": "Entrances on Broadway & Mick Cornett"}}, {"type": "Feature", "id": 100008, "geometry": {"type": "Point", "coordinates": [-97.47211272612891, 35.52462862234513]}, "properties": {"ObjectID": 100008, "Address": "2000 REMINGTON PL", "FacilityType": "Zoo", "FacilityName": "Oklahoma City Zoo", "FacilityInfo": ""}}, {"type": "Feature", "id": 100009, "geometry": {"type": "Point", "coordinates": [-97.59621123096, 35.39534141449282]}, "properties": {"ObjectID": 100009, "Address": "7100 TERMINAL DR", "FacilityType": "Airport", "FacilityName": "Will Rogers International Airport", "FacilityInfo": ""}}, {"type": "Feature", "id": 100010, "geometry": {"type": "Point", "coordinates": [-97.64265827812555, 35.531112986253994]}, "properties": {"ObjectID": 100010, "Address": "5915 PHILIP J RHOADS AVE", "FacilityType": "Airport", "FacilityName": "Wiley Post Airport", "FacilityInfo": ""}}, {"type": "Feature", "id": 100011, "geometry": {"type": "Point", "coordinates": [-97.81834197905322, 35.48798553143805]}, "properties": {"ObjectID": 100011, "Address": "2301 N CIMARRON RD", "FacilityType": "Airport", "FacilityName": "Clarence E. Page Airport", "FacilityInfo": ""}}, {"type": "Feature", "id": 100012, "geometry": {"type": "Point", "coordinates": [-97.57856584811493, 35.56520976589198]}, "properties": {"ObjectID": 100012, "Address": "9331 LAKE HEFNER PKWY", "FacilityType": "Landmark", "FacilityName": "Lake Hefner Lighthouse", "FacilityInfo": ""}}, {"type": "Feature", "id": 100013, "geometry": {"type": "Point", "coordinates": [-97.51863317471076, 35.457396442651834]}, "properties": {"ObjectID": 100013, "Address": "300 SW 7TH ST", "FacilityType": "Landmark", "FacilityName": "Union Station", "FacilityInfo": ""}}, {"type": "Feature", "id": 100014, "geometry": {"type": "Point", "coordinates": [-97.51539138024688, 35.46372376185121]}, "properties": {"ObjectID": 100014, "Address": "100 W MAIN ST", "FacilityType": "Arena", "FacilityName": "Paycom Center", "FacilityInfo": ""}}, {"type": "Feature", "id": 100015, "geometry": {"type": "Point", "coordinates": [-97.50826160434396, 35.46495814009314]}, "properties": {"ObjectID": 100015, "Address": "2 S MICKEY MANTLE DR", "FacilityType": "Arena", "FacilityName": "Chickasaw Bricktown Ballpark", "FacilityInfo": ""}}, {"type": "Feature", "id": 100016, "geometry": {"type": "Point", "coordinates": [-97.57213311489345, 35.474356484575026]}, "properties": {"ObjectID": 100016, "Address": "3001 GENERAL PERSHING BLVD", "FacilityType": "Fair", "FacilityName": "OKC Fair Park", "FacilityInfo": ""}}, {"type": "Feature", "id": 100016, "geometry": {"type": "Point", "coordinates": [-97.51995520003247, 35.472544308672376]}, "properties": {"ObjectID": 100016, "Address": "420 NW 5TH ST", "FacilityType": "Transit", "FacilityName": "EMBARK Bus Terminal", "FacilityInfo": ""}}]}