{"type": "FeatureCollection", "features": [{"type": "Feature", "id": 1, "geometry": {"type": "Point", "coordinates": [-89.94530214, 35.11872985]}, "properties": {"CompanyName": "UNDC-Highland Strip Revitalization", "Address": "480 South Highland Street", "City": "Memphis", "County": "Shelby", "State": "TN", "ZIP_Code": 38111, "Latitude": 35.11872985, "Longitude": -89.94530214, "TIFAmount": 21100000, "TotalInvestment": 21100000, "ProjectedMWBESpending": 2500000, "ProjectedTotalJobs": 235, "Approved_Date": 1474434000000, "ObjectId": 1}}, {"type": "Feature", "id": 2, "geometry": {"type": "Point", "coordinates": [-89.77894203, 35.19672877]}, "properties": {"CompanyName": "Legacy at Countrywood", "Address": "2736 Countrywood Parkway", "City": "Memphis", "County": "Shelby", "State": "TN", "ZIP_Code": 38016, "Latitude": 35.19672877, "Longitude": -89.77894203, "TIFAmount": 23000000, "TotalInvestment": 400000000, "ProjectedMWBESpending": 6440000, "ProjectedTotalJobs": 0, "Approved_Date": 1656565200000, "ObjectId": 2}}, {"type": "Feature", "id": 3, "geometry": {"type": "Point", "coordinates": [-90.02420723, 35.04703466]}, "properties": {"CompanyName": "Elvis Presley Enterprises, Inc.", "Address": "3734 Elvis Presley Blvd", "City": "Memphis", "County": "Shelby", "State": "TN", "ZIP_Code": 38116, "Latitude": 35.04703466, "Longitude": -90.02420723, "TIFAmount": 21293860, "TotalInvestment": 137000000, "ProjectedMWBESpending": 23792500, "ProjectedTotalJobs": 280, "Approved_Date": 1416895200000, "ObjectId": 3}}, {"type": "Feature", "id": 4, "geometry": {"type": "Point", "coordinates": [-89.84021107, 35.15331792]}, "properties": {"CompanyName": "Parkside at Shelby Farms Development Area", "Address": "6678 Mullins Station Road", "City": "Memphis", "County": "Shelby", "State": "TN", "ZIP_Code": 38134, "Latitude": 35.15331792, "Longitude": -89.84021107, "TIFAmount": 96400000, "TotalInvestment": 375000000, "ProjectedMWBESpending": 105000000, "ProjectedTotalJobs": 146, "Approved_Date": 1529470800000, "ObjectId": 4}}, {"type": "Feature", "id": 5, "geometry": {"type": "Point", "coordinates": [-89.86415785, 35.10340971]}, "properties": {"CompanyName": "Poplar Corridor Business District Association of Owners", "Address": "5900 Poplar Avenue, Ste 100", "City": "Memphis", "County": "Shelby", "State": "TN", "ZIP_Code": 38119, "Latitude": 35.10340971, "Longitude": -89.86415785, "TIFAmount": 91200000, "TotalInvestment": 499500000, "ProjectedMWBESpending": 25536000, "ProjectedTotalJobs": 7000, "Approved_Date": 1532494800000, "ObjectId": 5}}, {"type": "Feature", "id": 6, "geometry": {"type": "Point", "coordinates": [-89.91151145, 35.21934451]}, "properties": {"CompanyName": "Raleigh Town Center", "Address": "3427 Austin Peay Hwy", "City": "Memphis", "County": "Shelby", "State": "TN", "ZIP_Code": 38128, "Latitude": 35.21934451, "Longitude": -89.91151145, "TIFAmount": 29000000, "TotalInvestment": 91000000, "ProjectedMWBESpending": 8120000, "ProjectedTotalJobs": 0, "Approved_Date": 1571202000000, "ObjectId": 6}}]}