{"type": "FeatureCollection", "features": [{"type": "Feature", "id": 1, "geometry": {"type": "Point", "coordinates": [-90.02420723, 35.04703466]}, "properties": {"CompanyName": "Elvis Presley Enterprises, Inc. Series 2015A", "Address": "3734 Elvis Presley Blvd", "City": "Memphis", "State": "TN", "ZIP_Code": 38116, "Latitude": 35.04703466, "Longitude": -90.02420723, "BondAmount": 84000000, "TotalInvestment": 137000000, "ProjectedTotalJobs": 280, "Approved_Date": 1432098000000, "ObjectId": 1}}, {"type": "Feature", "id": 2, "geometry": {"type": "Point", "coordinates": [-90.02420723, 35.04703466]}, "properties": {"CompanyName": "Elvis Presley Enterprises Inc. Series 2016A B", "Address": "3734 Elvis Presley Blvd", "City": "Memphis", "State": "TN", "ZIP_Code": 38116, "Latitude": 35.04703466, "Longitude": -90.02420723, "BondAmount": 40000000, "TotalInvestment": 137000000, "ProjectedTotalJobs": 280, "Approved_Date": 1481349600000, "ObjectId": 2}}, {"type": "Feature", "id": 3, "geometry": {"type": "Point", "coordinates": [-89.84031836, 35.15336178]}, "properties": {"CompanyName": "Parkside at Shelby Farms", "Address": "150 Timber Creek Drive", "City": "Cordova", "State": "TN", "ZIP_Code": 38018, "Latitude": 35.15336178, "Longitude": -89.84031836, "BondAmount": 28000000, "TotalInvestment": 165550000, "ProjectedTotalJobs": 0, "Approved_Date": 1637128800000, "ObjectId": 3}}, {"type": "Feature", "id": 4, "geometry": {"type": "Point", "coordinates": [-90.0228448, 35.02146525]}, "properties": {"CompanyName": "Southbrook Towne Center", "Address": "1212 East Shelby Drive", "City": "Memphis", "State": "TN", "ZIP_Code": 38116, "Latitude": 35.02146525, "Longitude": -90.0228448, "BondAmount": 2142850, "TotalInvestment": 7700000, "ProjectedTotalJobs": 379, "Approved_Date": 1498021200000, "ObjectId": 4}}, {"type": "Feature", "id": 5, "geometry": {"type": "Point", "coordinates": [-89.85080834, 35.10432967]}, "properties": {"CompanyName": "Young Mens Christian Association", "Address": "6375 North Quail Hollow Road", "City": "Memphis", "State": "TN", "ZIP_Code": 38120, "Latitude": 35.10432967, "Longitude": -89.85080834, "BondAmount": 7500000, "TotalInvestment": 7500000, "ProjectedTotalJobs": 606, "Approved_Date": 1545199200000, "ObjectId": 5}}, {"type": "Feature", "id": 6, "geometry": {"type": "Point", "coordinates": [-89.98359142, 35.12529102]}, "properties": {"CompanyName": "Liberty Park TDZ Bond", "Address": "Central Ave @ East Parkway Blvd", "City": "Memphis", "State": "TN", "ZIP_Code": 38104, "Latitude": 35.12529102, "Longitude": -89.98359142, "BondAmount": 75000000, "TotalInvestment": 75000000, "ProjectedTotalJobs": 0, "Approved_Date": 1618981200000, "ObjectId": 6}}, {"type": "Feature", "id": 7, "geometry": {"type": "Point", "coordinates": [-90.02381721, 35.14521105]}, "properties": {"CompanyName": "Serenity Recovery Centers, Inc.", "Address": "1094 Poplar Avenue", "City": "Memphis", "State": "TN", "ZIP_Code": 38105, "Latitude": 35.14521105, "Longitude": -90.02381721, "BondAmount": 2300000, "TotalInvestment": 2300000, "ProjectedTotalJobs": 60, "Approved_Date": 1416376800000, "ObjectId": 7}}, {"type": "Feature", "id": 8, "geometry": {"type": "Point", "coordinates": [-90.03029052, 35.1826475]}, "properties": {"CompanyName": "Distilled Spirits Inc.", "Address": "802 N. Royal Ave.", "City": "Memphis", "State": "TN", "ZIP_Code": 38107, "Latitude": 35.1826475, "Longitude": -90.03029052, "BondAmount": 15000000, "TotalInvestment": 17900000, "ProjectedTotalJobs": 15, "Approved_Date": 1613541600000, "ObjectId": 8}}, {"type": "Feature", "id": 9, "geometry": {"type": "Point", "coordinates": [-90.05210564, 35.14911609]}, "properties": {"CompanyName": "City of Memphis - TDZ Revenue Refunding Bonds", "Address": "125 North Main", "City": "Memphis", "State": "TN", "ZIP_Code": 38103, "Latitude": 35.14911609, "Longitude": -90.05210564, "BondAmount": 158240000, "TotalInvestment": 200758000, "ProjectedTotalJobs": 0, "Approved_Date": 1489554000000, "ObjectId": 9}}, {"type": "Feature", "id": 10, "geometry": {"type": "Point", "coordinates": [-90.15696887, 35.06004169]}, "properties": {"CompanyName": "Port Commission Bond Refunding Request", "Address": "3231 Riverport Road", "City": "Memphis", "State": "TN", "ZIP_Code": 38109, "Latitude": 35.06004169, "Longitude": -90.15696887, "BondAmount": 29000000, "TotalInvestment": 0, "ProjectedTotalJobs": 0, "Approved_Date": 1652850000000, "ObjectId": 10}}, {"type": "Feature", "id": 11, "geometry": {"type": "Point", "coordinates": [-90.05210564, 35.14911609]}, "properties": {"CompanyName": "City of Memphis Accelerate", "Address": "Multiple Neighborhoods", "City": "Memphis", "State": "TN", "ZIP_Code": null, "Latitude": 35.14911609, "Longitude": -90.05210564, "BondAmount": 24255000, "TotalInvestment": 200000000, "ProjectedTotalJobs": 0, "Approved_Date": 1618981200000, "ObjectId": 11}}, {"type": "Feature", "id": 12, "geometry": {"type": "Point", "coordinates": [-90.02420723, 35.04703466]}, "properties": {"CompanyName": "Elvis Presley Enterprises, Inc. Series 2017", "Address": "3734 Elvis Presley Blvd", "City": "Memphis", "State": "TN", "ZIP_Code": 38116, "Latitude": 35.04703466, "Longitude": -90.02420723, "BondAmount": 104300000, "TotalInvestment": 20000000, "ProjectedTotalJobs": 280, "Approved_Date": 1505883600000, "ObjectId": 12}}]}