{"type": "FeatureCollection", "features": [{"type": "Feature", "id": 1001, "geometry": {"type": "Point", "coordinates": [-97.4769710113987, 35.42323868605735]}, "properties": {"ObjectID": 1001, "InfoTitle": "Non-Injury Accident", "Call_Type": "Non-Injury Accident", "Address": "4235 S EASTERN AVE", "Reported_Time": "Aug  1 2026 11:46AM"}}, {"type": "Feature", "id": 1002, "geometry": {"type": "Point", "coordinates": [-97.44132404572296, 35.407693707788816]}, "properties": {"ObjectID": 1002, "InfoTitle": "Non-Injury Accident", "Call_Type": "Non-Injury Accident", "Address": "5924 S SUNNYLANE RD", "Reported_Time": "Aug  1 2026 12:00PM"}}, {"type": "Feature", "id": 1003, "geometry": {"type": "Point", "coordinates": [-97.66137985893913, 35.625918438797704]}, "properties": {"ObjectID": 1003, "InfoTitle": "Fire Response", "Call_Type": "Fire:  CO Detector", "Address": "8216 NW 152ND TER", "Reported_Time": "Aug  1 2026 12:06PM"}}, {"type": "Feature", "id": 1004, "geometry": {"type": "Point", "coordinates": [-97.54960797252404, 35.61163946949271]}, "properties": {"ObjectID": 1004, "InfoTitle": "Non-Injury Accident", "Call_Type": "Non-Injury Accident", "Address": "N PENNSYLVANIA AVE MEDIAN / NW 138TH ST EB", "Reported_Time": ""}}]}