{"type": "FeatureCollection", "features": [{"type": "Feature", "id": 36, "geometry": {"type": "Point", "coordinates": [-97.59822357309095, 35.542620726165204]}, "properties": {"OBJECTID": 36, "STATION_NO": 30, "STATION_ADDR": "4343 S LAKE HEFNER DR", "GlobalID": "{9D175EBA-55DA-4F2C-969D-2E62CC95F3D3}"}}, {"type": "Feature", "id": 37, "geometry": {"type": "Point", "coordinates": [-97.54898444080223, 35.6423775919603]}, "properties": {"OBJECTID": 37, "STATION_NO": 37, "STATION_ADDR": "16820 N PENNSYLVANIA AVE", "GlobalID": "{0F919BCC-DA56-4B18-8D6F-9D17530048DA}"}}, {"type": "Feature", "id": 38, "geometry": {"type": "Point", "coordinates": [-97.62108462448985, 35.58761233649561]}, "properties": {"OBJECTID": 38, "STATION_NO": 3, "STATION_ADDR": "11601 N MACARTHUR BLVD", "GlobalID": "{142BF2E4-22AC-4205-BD71-1EBD3FA8F333}"}}, {"type": "Feature", "id": 39, "geometry": {"type": "Point", "coordinates": [-97.56527798528114, 35.59502554944633]}, "properties": {"OBJECTID": 39, "STATION_NO": 15, "STATION_ADDR": "2817 NW 122ND ST", "GlobalID": "{327B6913-88AC-41F7-AA32-0821AADF186F}"}}, {"type": "Feature", "id": 40, "geometry": {"type": "Point", "coordinates": [-97.72953727347587, 35.449569545278365]}, "properties": {"OBJECTID": 40, "STATION_NO": 33, "STATION_ADDR": "11630 SW 15TH ST", "GlobalID": "{6F05DD2A-64E0-4BAE-B654-4CD578312FF4}"}}, {"type": "Feature", "id": 41, "geometry": {"type": "Point", "coordinates": [-97.65357846102495, 35.43558870011316]}, "properties": {"OBJECTID": 41, "STATION_NO": 20, "STATION_ADDR": "7929 SW 29TH ST", "GlobalID": "{B3953D48-4041-4C86-8705-3434AA22FEEC}"}}, {"type": "Feature", "id": 42, "geometry": {"type": "Point", "coordinates": [-97.21745156000225, 35.36237234048248]}, "properties": {"OBJECTID": 42, "STATION_NO": 36, "STATION_ADDR": "17700 SE 104TH ST", "GlobalID": "{A8D1E0F3-15AE-4026-B948-06588116562F}"}}, {"type": "Feature", "id": 43, "geometry": {"type": "Point", "coordinates": [-97.56572082023905, 35.33808847983485]}, "properties": {"OBJECTID": 43, "STATION_NO": 35, "STATION_ADDR": "13017 S MAY AVE", "GlobalID": "{A9BDB193-DBD4-4267-AFD9-37BFE3376662}"}}, {"type": "Feature", "id": 44, "geometry": {"type": "Point", "coordinates": [-97.3182704292599, 35.395784196348224]}, "properties": {"OBJECTID": 44, "STATION_NO": 28, "STATION_ADDR": "7101 S ANDERSON RD", "GlobalID": "{3E678664-5D41-43D9-A7AD-F22D63637C82}"}}, {"type": "Feature", "id": 45, "geometry": {"type": "Point", "coordinates": [-97.40539712992181, 35.39154966082472]}, "properties": {"OBJECTID": 45, "STATION_NO": 13, "STATION_ADDR": "7000 SE 74TH ST", "GlobalID": "{68C83EA3-F2A2-40B9-8BA1-5B1D76F8B971}"}}, {"type": "Feature", "id": 46, "geometry": {"type": "Point", "coordinates": [-97.636216327205, 35.473768328038986]}, "properties": {"OBJECTID": 46, "STATION_NO": 31, "STATION_ADDR": "618 N ROCKWELL AVE", "GlobalID": "{7522D9FF-4C46-4429-94DC-763B7E44A107}"}}, {"type": "Feature", "id": 47, "geometry": {"type": "Point", "coordinates": [-97.54259334715059, 35.3774840317153]}, "properties": {"OBJECTID": 47, "STATION_NO": 9, "STATION_ADDR": "1415 SW 89TH ST", "GlobalID": "{E2BE1777-A70F-4164-9BAD-E63A64A7A224}"}}, {"type": "Feature", "id": 48, "geometry": {"type": "Point", "coordinates": [-97.48484877585662, 35.51247793673746]}, "properties": {"OBJECTID": 48, "STATION_NO": 18, "STATION_ADDR": "4116 N PROSPECT AVE", "GlobalID": "{8C00842C-0508-4C6A-941F-9EDEA1E52108}"}}, {"type": "Feature", "id": 49, "geometry": {"type": "Point", "coordinates": [-97.47707599509641, 35.49061772909303]}, "properties": {"OBJECTID": 49, "STATION_NO": 12, "STATION_ADDR": "2121 N MARTIN LUTHER KING AVE", "GlobalID": "{2380CE50-ABC4-41A8-8949-2E0A21AFEE2E}"}}, {"type": "Feature", "id": 50, "geometry": {"type": "Point", "coordinates": [-97.51368501726338, 35.49192717171588]}, "properties": {"OBJECTID": 50, "STATION_NO": 5, "STATION_ADDR": "24 NW 22ND ST", "GlobalID": "{402D57F4-C2F6-4036-8B16-233F73FEFC84}"}}, {"type": "Feature", "id": 51, "geometry": {"type": "Point", "coordinates": [-97.54738206370747, 35.48629270959307]}, "properties": {"OBJECTID": 51, "STATION_NO": 10, "STATION_ADDR": "2039 NW 16TH ST", "GlobalID": "{295F49C0-DF4C-44D4-834D-F0DDE4589FEE}"}}, {"type": "Feature", "id": 52, "geometry": {"type": "Point", "coordinates": [-97.57118297958586, 35.49350095880309]}, "properties": {"OBJECTID": 52, "STATION_NO": 14, "STATION_ADDR": "3129 NW 23RD ST", "GlobalID": "{93533519-42C4-475F-8872-82450D8FE889}"}}, {"type": "Feature", "id": 53, "geometry": {"type": "Point", "coordinates": [-97.60075934911899, 35.48462219715808]}, "properties": {"OBJECTID": 53, "STATION_NO": 24, "STATION_ADDR": "1500 N MERIDIAN AVE", "GlobalID": "{F76F08CA-90C9-475F-92AE-8F806A665F57}"}}, {"type": "Feature", "id": 54, "geometry": {"type": "Point", "coordinates": [-97.52631502508542, 35.47293333710148]}, "properties": {"OBJECTID": 54, "STATION_NO": 1, "STATION_ADDR": "820 NW 5TH ST", "GlobalID": "{FA97AD9E-9AC7-4570-9F8D-ECC4BF79AD47}"}}, {"type": "Feature", "id": 55, "geometry": {"type": "Point", "coordinates": [-97.47638893293814, 35.43588624689442]}, "properties": {"OBJECTID": 55, "STATION_NO": 23, "STATION_ADDR": "2812 S EASTERN AVE", "GlobalID": "{E52B9E3B-B927-4779-89C1-456EF42A01A6}"}}, {"type": "Feature", "id": 56, "geometry": {"type": "Point", "coordinates": [-97.50336161604925, 35.39926541343664]}, "properties": {"OBJECTID": 56, "STATION_NO": 16, "STATION_ADDR": "405 SE 66TH ST", "GlobalID": "{3232289B-69AA-4AC3-A677-D7F96C4457AE}"}}, {"type": "Feature", "id": 57, "geometry": {"type": "Point", "coordinates": [-97.56795588969847, 35.43460822340175]}, "properties": {"OBJECTID": 57, "STATION_NO": 21, "STATION_ADDR": "3000 SW 29TH ST", "GlobalID": "{ED0012BF-609F-45AA-A481-A8E4AA33EBBB}"}}, {"type": "Feature", "id": 58, "geometry": {"type": "Point", "coordinates": [-97.51717372676272, 35.44122607910629]}, "properties": {"OBJECTID": 58, "STATION_NO": 7, "STATION_ADDR": "218 SW 23RD ST", "GlobalID": "{712D531F-7564-40F2-B607-C99B050B0FDD}"}}, {"type": "Feature", "id": 59, "geometry": {"type": "Point", "coordinates": [-97.50262926766027, 35.467515401122604]}, "properties": {"OBJECTID": 59, "STATION_NO": 6, "STATION_ADDR": "21 N LINCOLN BLVD", "GlobalID": "{E3858557-F8C0-48B1-881C-B260370E31EB}"}}, {"type": "Feature", "id": 60, "geometry": {"type": "Point", "coordinates": [-97.56244795529709, 35.5218192502028]}, "properties": {"OBJECTID": 60, "STATION_NO": 17, "STATION_ADDR": "2716 NW 50TH ST", "GlobalID": "{9A1DBBFA-27B6-42E2-B2D7-32152DC395CF}"}}, {"type": "Feature", "id": 61, "geometry": {"type": "Point", "coordinates": [-97.65667523945913, 35.559290706652696]}, "properties": {"OBJECTID": 61, "STATION_NO": 34, "STATION_ADDR": "8617 N COUNCIL RD", "GlobalID": "{0F83AE42-4463-4081-B47C-66E5B3F22B1E}"}}, {"type": "Feature", "id": 62, "geometry": {"type": "Point", "coordinates": [-97.54952252309532, 35.452510733645305]}, "properties": {"OBJECTID": 62, "STATION_NO": 8, "STATION_ADDR": "1934 EXCHANGE AVE", "GlobalID": "{D6A01F81-D34B-46B7-934A-63CAAF0DD9F5}"}}, {"type": "Feature", "id": 63, "geometry": {"type": "Point", "coordinates": [-97.5322620320111, 35.420507929729474]}, "properties": {"OBJECTID": 63, "STATION_NO": 19, "STATION_ADDR": "940 SW 44TH ST", "GlobalID": "{81E5295D-75B7-4414-B7A1-D9CC48A60A5F}"}}, {"type": "Feature", "id": 64, "geometry": {"type": "Point", "coordinates": [-97.7275972312372, 35.594341361910615]}, "properties": {"OBJECTID": 64, "STATION_NO": 32, "STATION_ADDR": "12233 N MUSTANG RD", "GlobalID": "{48B0CB7D-1483-4F5C-9E80-0ECE327565A6}"}}, {"type": "Feature", "id": 65, "geometry": {"type": "Point", "coordinates": [-97.52791143368066, 35.5219938408122]}, "properties": {"OBJECTID": 65, "STATION_NO": 11, "STATION_ADDR": "900 NW 50TH ST", "GlobalID": "{57C98A9C-B9D3-4E33-9010-C88EF9544EB8}"}}, {"type": "Feature", "id": 66, "geometry": {"type": "Point", "coordinates": [-97.33539610477737, 35.5369671188046]}, "properties": {"OBJECTID": 66, "STATION_NO": 27, "STATION_ADDR": "6400 N WESTMINSTER RD", "GlobalID": "{BF834E0F-B2B3-411E-8721-B98AC064B073}"}}, {"type": "Feature", "id": 67, "geometry": {"type": "Point", "coordinates": [-97.25094782474429, 35.614803418968755]}, "properties": {"OBJECTID": 67, "STATION_NO": 4, "STATION_ADDR": "14200 HOGBACK RD", "GlobalID": "{AF802D93-B0F5-4589-8818-FBCE3A5CDCF8}"}}, {"type": "Feature", "id": 68, "geometry": {"type": "Point", "coordinates": [-97.4616162014064, 35.56597752212659]}, "properties": {"OBJECTID": 68, "STATION_NO": 2, "STATION_ADDR": "2917 E BRITTON RD", "GlobalID": "{08D4B941-8F75-482E-B87F-9F29C29D2667}"}}, {"type": "Feature", "id": 69, "geometry": {"type": "Point", "coordinates": [-97.51986834658862, 35.564882980772964]}, "properties": {"OBJECTID": 69, "STATION_NO": 22, "STATION_ADDR": "333 NW 92ND ST", "GlobalID": "{63A0C3BE-8B11-4549-BD16-A8DF190F102E}"}}, {"type": "Feature", "id": 70, "geometry": {"type": "Point", "coordinates": [-97.5615496288359, 35.406502072982335]}, "properties": {"OBJECTID": 70, "STATION_NO": 25, "STATION_ADDR": "2701 SW 59TH ST", "GlobalID": "{2473D656-0BB6-4ECB-A568-166E8223A6C2}"}}, {"type": "Feature", "id": 71, "geometry": {"type": "Point", "coordinates": [-97.63523369810831, 35.34879291241295]}, "properties": {"OBJECTID": 71, "STATION_NO": 26, "STATION_ADDR": "7025 SW 119TH ST", "GlobalID": "{F62AFE55-130B-4B62-87D9-2BB924D2E336}"}}, {"type": "Feature", "id": 72, "geometry": {"type": "Point", "coordinates": [-97.38095940599165, 35.30504957910659]}, "properties": {"OBJECTID": 72, "STATION_NO": 29, "STATION_ADDR": "8400 SE 164TH ST", "GlobalID": "{55B660B4-7F43-4FA3-9CE7-1D856390A0A6}"}}, {"type": "Feature", "id": 472, "geometry": {"type": "Point", "coordinates": [-97.79467127117391, 35.40563798579241]}, "properties": {"OBJECTID": 472, "STATION_NO": 38, "STATION_ADDR": "14500 SW 59TH ST ", "GlobalID": "{5F8EC5C9-3592-4AC1-98E5-37F379257C3F}"}}]}