{"type": "FeatureCollection", "features": [{"type": "Feature", "id": 1, "geometry": {"type": "Point", "coordinates": [-97.73740122225648, 35.44775516055537]}, "properties": {"ObjectID": 1, "Address": "11932 SW 17TH ST, Oklahoma City, OK  73099", "Permit_Date": "2026-08-01", "Appliances": "No", "Baby_Kid_Items": "Yes", "Clothing": "Yes", "Electronics": "Yes", "Entertainment": "No", "Fitness_Equipment": "No", "Furniture": "Yes", "Hobbies": "Yes", "Kitchen_Items": "No", "Lawn_Tools": "No", "Household_Items": "Yes", "Sporting_Goods": "No", "All_Categories": "Baby/Kids Items, Clothing, Electronics, Furniture, Hobbies, Misc. Household Items, "}}, {"type": "Feature", "id": 2, "geometry": {"type": "Point", "coordinates": [-97.54976153901512, 35.479095094175015]}, "properties": {"ObjectID": 2, "Address": "1100 N BARNES AVE, Oklahoma City, OK  73107", "Permit_Date": "2026-07-31", "Appliances": "No", "Baby_Kid_Items": "No", "Clothing": "Yes", "Electronics": "No", "Entertainment": "No", "Fitness_Equipment": "No", "Furniture": "Yes", "Hobbies": "No", "Kitchen_Items": "No", "Lawn_Tools": "No", "Household_Items": "Yes", "Sporting_Goods": "No", "All_Categories": "Clothing, Furniture, Misc. Household Items, "}}, {"type": "Feature", "id": 3, "geometry": {"type": "Point", "coordinates": [-97.51146616874965, 35.41004279530117]}, "properties": {"ObjectID": 3, "Address": "17 SE 55TH ST, Oklahoma City, OK  73129", "Permit_Date": "2026-07-31", "Appliances": "No", "Baby_Kid_Items": "No", "Clothing": "Yes", "Electronics": "Yes", "Entertainment": "No", "Fitness_Equipment": "No", "Furniture": "No", "Hobbies": "Yes", "Kitchen_Items": "No", "Lawn_Tools": "Yes", "Household_Items": "Yes", "Sporting_Goods": "No", "All_Categories": "Clothing, Electronics, Hobbies, Lawn Equipment/Tools, Misc. Household Items, "}}, {"type": "Feature", "id": 4, "geometry": {"type": "Point", "coordinates": [-97.51957084984636, 35.300156662802635]}, "properties": {"ObjectID": 4, "Address": "405 SW 170TH TER, Oklahoma City, OK  73170", "Permit_Date": "2026-08-07", "Appliances": "No", "Baby_Kid_Items": "No", "Clothing": "Yes", "Electronics": "No", "Entertainment": "Yes", "Fitness_Equipment": "No", "Furniture": "Yes", "Hobbies": "No", "Kitchen_Items": "Yes", "Lawn_Tools": "Yes", "Household_Items": "Yes", "Sporting_Goods": "No", "All_Categories": "Clothing, Entertainment, Furniture, Kitchen Items, Lawn Equipment/Tools, Misc. Household Items, "}}, {"type": "Feature", "id": 5, "geometry": {"type": "Point", "coordinates": [-97.7392366020238, 35.419919619452024]}, "properties": {"ObjectID": 5, "Address": "4516 KENTUCKY RIDGE DR, Oklahoma City, OK  73064", "Permit_Date": "2026-08-01", "Appliances": "Yes", "Baby_Kid_Items": "Yes", "Clothing": "Yes", "Electronics": "Yes", "Entertainment": "Yes", "Fitness_Equipment": "Yes", "Furniture": "Yes", "Hobbies": "Yes", "Kitchen_Items": "Yes", "Lawn_Tools": "Yes", "Household_Items": "Yes", "Sporting_Goods": "Yes", "All_Categories": "Appliances, Baby/Kids Items, Clothing, Electronics, Entertainment, Fitness/Exercise Equipment, Furniture, Hobbies, Kitchen Items, Lawn Equipment/Tools, Misc. Household Items, Sporting Goods/Equipment, "}}, {"type": "Feature", "id": 6, "geometry": {"type": "Point", "coordinates": [-97.7049794075259, 35.49434963385297]}, "properties": {"ObjectID": 6, "Address": "2413 IRIS CT, Oklahoma City, OK  73099", "Permit_Date": "2026-08-07", "Appliances": "No", "Baby_Kid_Items": "No", "Clothing": "Yes", "Electronics": "No", "Entertainment": "No", "Fitness_Equipment": "No", "Furniture": "No", "Hobbies": "No", "Kitchen_Items": "No", "Lawn_Tools": "No", "Household_Items": "Yes", "Sporting_Goods": "No", "All_Categories": "Clothing, Misc. Household Items, "}}, {"type": "Feature", "id": 7, "geometry": {"type": "Point", "coordinates": [-97.45283758955038, 35.37262284828567]}, "properties": {"ObjectID": 7, "Address": "9508 LINUS DR, Oklahoma City, OK  73160", "Permit_Date": "2026-07-31", "Appliances": "Yes", "Baby_Kid_Items": "No", "Clothing": "Yes", "Electronics": "Yes", "Entertainment": "Yes", "Fitness_Equipment": "Yes", "Furniture": "Yes", "Hobbies": "Yes", "Kitchen_Items": "Yes", "Lawn_Tools": "Yes", "Household_Items": "Yes", "Sporting_Goods": "Yes", "All_Categories": "Appliances, Clothing, Electronics, Entertainment, Fitness/Exercise Equipment, Furniture, Hobbies, Kitchen Items, Lawn Equipment/Tools, Misc. Household Items, Sporting Goods/Equipment, "}}, {"type": "Feature", "id": 8, "geometry": {"type": "Point", "coordinates": [-97.55329382561743, 35.67336493415832]}, "properties": {"ObjectID": 8, "Address": "19813 ALLERGANDO LN, Oklahoma City, OK  73012", "Permit_Date": "2026-07-31", "Appliances": "No", "Baby_Kid_Items": "No", "Clothing": "Yes", "Electronics": "Yes", "Entertainment": "No", "Fitness_Equipment": "No", "Furniture": "No", "Hobbies": "Yes", "Kitchen_Items": "No", "Lawn_Tools": "Yes", "Household_Items": "Yes", "Sporting_Goods": "No", "All_Categories": "Clothing, Electronics, Hobbies, Lawn Equipment/Tools, Misc. Household Items, "}}, {"type": "Feature", "id": 9, "geometry": {"type": "Point", "coordinates": [-97.66531708338009, 35.56221614631673]}, "properties": {"ObjectID": 9, "Address": "8900 RAVEN AVE, Oklahoma City, OK  73132", "Permit_Date": "2026-07-31", "Appliances": "No", "Baby_Kid_Items": "No", "Clothing": "Yes", "Electronics": "No", "Entertainment": "No", "Fitness_Equipment": "No", "Furniture": "No", "Hobbies": "No", "Kitchen_Items": "Yes", "Lawn_Tools": "No", "Household_Items": "Yes", "Sporting_Goods": "No", "All_Categories": "Clothing, Kitchen Items, Misc. Household Items, "}}, {"type": "Feature", "id": 10, "geometry": {"type": "Point", "coordinates": [-97.65556250418093, 35.409337084196565]}, "properties": {"ObjectID": 10, "Address": "5606 MARBLEWOOD DR, Oklahoma City, OK  73179", "Permit_Date": "2026-07-31", "Appliances": "No", "Baby_Kid_Items": "No", "Clothing": "Yes", "Electronics": "No", "Entertainment": "No", "Fitness_Equipment": "No", "Furniture": "No", "Hobbies": "No", "Kitchen_Items": "Yes", "Lawn_Tools": "Yes", "Household_Items": "Yes", "Sporting_Goods": "No", "All_Categories": "Clothing, Kitchen Items, Lawn Equipment/Tools, Misc. Household Items, "}}, {"type": "Feature", "id": 11, "geometry": {"type": "Point", "coordinates": [-97.67827177008557, 35.62324719593167]}, "properties": {"ObjectID": 11, "Address": "9116 NW 149TH ST, Oklahoma City, OK  73099", "Permit_Date": "2026-07-31", "Appliances": "No", "Baby_Kid_Items": "No", "Clothing": "No", "Electronics": "No", "Entertainment": "No", "Fitness_Equipment": "No", "Furniture": "Yes", "Hobbies": "No", "Kitchen_Items": "No", "Lawn_Tools": "No", "Household_Items": "Yes", "Sporting_Goods": "No", "All_Categories": "Furniture, Misc. Household Items, "}}, {"type": "Feature", "id": 12, "geometry": {"type": "Point", "coordinates": [-97.705383896405, 35.447470917297046]}, "properties": {"ObjectID": 12, "Address": "1813 EDINBURG DR, Oklahoma City, OK  73099", "Permit_Date": "2026-08-01", "Appliances": "No", "Baby_Kid_Items": "No", "Clothing": "Yes", "Electronics": "No", "Entertainment": "No", "Fitness_Equipment": "No", "Furniture": "Yes", "Hobbies": "Yes", "Kitchen_Items": "Yes", "Lawn_Tools": "No", "Household_Items": "Yes", "Sporting_Goods": "No", "All_Categories": "Clothing, Furniture, Hobbies, Kitchen Items, Misc. Household Items, "}}, {"type": "Feature", "id": 13, "geometry": {"type": "Point", "coordinates": [-97.54290099930408, 35.50547156450165]}, "properties": {"ObjectID": 13, "Address": "1817 NW 34TH ST, Oklahoma City, OK  73118", "Permit_Date": "2026-07-31", "Appliances": "Yes", "Baby_Kid_Items": "No", "Clothing": "Yes", "Electronics": "No", "Entertainment": "No", "Fitness_Equipment": "No", "Furniture": "Yes", "Hobbies": "No", "Kitchen_Items": "No", "Lawn_Tools": "No", "Household_Items": "Yes", "Sporting_Goods": "No", "All_Categories": "Appliances, Clothing, Furniture, Misc. Household Items, "}}, {"type": "Feature", "id": 14, "geometry": {"type": "Point", "coordinates": [-97.60739506792554, 35.54796063904729]}, "properties": {"ObjectID": 14, "Address": "4717 NW 74TH ST, Oklahoma City, OK  73132", "Permit_Date": "2026-07-31", "Appliances": "No", "Baby_Kid_Items": "Yes", "Clothing": "Yes", "Electronics": "No", "Entertainment": "No", "Fitness_Equipment": "No", "Furniture": "Yes", "Hobbies": "No", "Kitchen_Items": "Yes", "Lawn_Tools": "Yes", "Household_Items": "Yes", "Sporting_Goods": "Yes", "All_Categories": "Baby/Kids Items, Clothing, Furniture, Kitchen Items, Lawn Equipment/Tools, Misc. Household Items, Sporting Goods/Equipment, "}}, {"type": "Feature", "id": 15, "geometry": {"type": "Point", "coordinates": [-97.53888284222909, 35.51761592421898]}, "properties": {"ObjectID": 15, "Address": "1600 NW 45TH ST, Oklahoma City, OK  73118", "Permit_Date": "2026-07-31", "Appliances": "Yes", "Baby_Kid_Items": "No", "Clothing": "Yes", "Electronics": "Yes", "Entertainment": "Yes", "Fitness_Equipment": "No", "Furniture": "Yes", "Hobbies": "Yes", "Kitchen_Items": "Yes", "Lawn_Tools": "No", "Household_Items": "Yes", "Sporting_Goods": "No", "All_Categories": "Appliances, Clothing, Electronics, Entertainment, Furniture, Hobbies, Kitchen Items, Misc. Household Items, "}}, {"type": "Feature", "id": 16, "geometry": {"type": "Point", "coordinates": [-97.53332079882135, 35.50434365964283]}, "properties": {"ObjectID": 16, "Address": "1225 NW 33RD ST, Oklahoma City, OK  73118", "Permit_Date": "2026-08-07", "Appliances": "Yes", "Baby_Kid_Items": "No", "Clothing": "Yes", "Electronics": "Yes", "Entertainment": "Yes", "Fitness_Equipment": "Yes", "Furniture": "Yes", "Hobbies": "Yes", "Kitchen_Items": "Yes", "Lawn_Tools": "Yes", "Household_Items": "Yes", "Sporting_Goods": "No", "All_Categories": "Appliances, Clothing, Electronics, Entertainment, Fitness/Exercise Equipment, Furniture, Hobbies, Kitchen Items, Lawn Equipment/Tools, Misc. Household Items, "}}, {"type": "Feature", "id": 17, "geometry": {"type": "Point", "coordinates": [-97.52030999200895, 35.34081602161947]}, "properties": {"ObjectID": 17, "Address": "12904 CLOVERLEAF LN, Oklahoma City, OK  73170", "Permit_Date": "2026-07-31", "Appliances": "Yes", "Baby_Kid_Items": "No", "Clothing": "Yes", "Electronics": "Yes", "Entertainment": "Yes", "Fitness_Equipment": "No", "Furniture": "Yes", "Hobbies": "Yes", "Kitchen_Items": "Yes", "Lawn_Tools": "Yes", "Household_Items": "Yes", "Sporting_Goods": "Yes", "All_Categories": "Appliances, Clothing, Electronics, Entertainment, Furniture, Hobbies, Kitchen Items, Lawn Equipment/Tools, Misc. Household Items, Sporting Goods/Equipment, "}}, {"type": "Feature", "id": 18, "geometry": {"type": "Point", "coordinates": [-97.53571474016279, 35.30657934882603]}, "properties": {"ObjectID": 18, "Address": "16404 DRYWATER DR, Oklahoma City, OK  73170", "Permit_Date": "2026-07-31", "Appliances": "No", "Baby_Kid_Items": "Yes", "Clothing": "Yes", "Electronics": "Yes", "Entertainment": "Yes", "Fitness_Equipment": "Yes", "Furniture": "Yes", "Hobbies": "Yes", "Kitchen_Items": "Yes", "Lawn_Tools": "No", "Household_Items": "Yes", "Sporting_Goods": "No", "All_Categories": "Baby/Kids Items, Clothing, Electronics, Entertainment, Fitness/Exercise Equipment, Furniture, Hobbies, Kitchen Items, Misc. Household Items, "}}, {"type": "Feature", "id": 19, "geometry": {"type": "Point", "coordinates": [-97.56039562004574, 35.67317485741439]}, "properties": {"ObjectID": 19, "Address": "19720 BARRISTER CIR, Oklahoma City, OK  73012", "Permit_Date": "2026-08-01", "Appliances": "No", "Baby_Kid_Items": "No", "Clothing": "Yes", "Electronics": "No", "Entertainment": "No", "Fitness_Equipment": "Yes", "Furniture": "Yes", "Hobbies": "No", "Kitchen_Items": "No", "Lawn_Tools": "No", "Household_Items": "Yes", "Sporting_Goods": "Yes", "All_Categories": "Clothing, Fitness/Exercise Equipment, Furniture, Misc. Household Items, Sporting Goods/Equipment, "}}, {"type": "Feature", "id": 20, "geometry": {"type": "Point", "coordinates": [-97.58722516431558, 35.502427967179926]}, "properties": {"ObjectID": 20, "Address": "3223 OTTERSON DR, Oklahoma City, OK  73112", "Permit_Date": "2026-07-31", "Appliances": "No", "Baby_Kid_Items": "No", "Clothing": "Yes", "Electronics": "No", "Entertainment": "No", "Fitness_Equipment": "No", "Furniture": "Yes", "Hobbies": "No", "Kitchen_Items": "No", "Lawn_Tools": "No", "Household_Items": "Yes", "Sporting_Goods": "Yes", "All_Categories": "Clothing, Furniture, Misc. Household Items, Sporting Goods/Equipment, "}}, {"type": "Feature", "id": 21, "geometry": {"type": "Point", "coordinates": [-97.66782141350131, 35.4218395365851]}, "properties": {"ObjectID": 21, "Address": "4404 WIND HAVEN DR, Oklahoma City, OK  73179", "Permit_Date": "2026-08-01", "Appliances": "No", "Baby_Kid_Items": "Yes", "Clothing": "Yes", "Electronics": "Yes", "Entertainment": "Yes", "Fitness_Equipment": "No", "Furniture": "Yes", "Hobbies": "Yes", "Kitchen_Items": "Yes", "Lawn_Tools": "No", "Household_Items": "Yes", "Sporting_Goods": "No", "All_Categories": "Baby/Kids Items, Clothing, Electronics, Entertainment, Furniture, Hobbies, Kitchen Items, Misc. Household Items, "}}, {"type": "Feature", "id": 22, "geometry": {"type": "Point", "coordinates": [-97.62419928675742, 35.49439053051455]}, "properties": {"ObjectID": 22, "Address": "6200 NW 24TH ST, Oklahoma City, OK  73127", "Permit_Date": "2026-07-31", "Appliances": "No", "Baby_Kid_Items": "Yes", "Clothing": "Yes", "Electronics": "No", "Entertainment": "No", "Fitness_Equipment": "No", "Furniture": "Yes", "Hobbies": "No", "Kitchen_Items": "Yes", "Lawn_Tools": "No", "Household_Items": "Yes", "Sporting_Goods": "No", "All_Categories": "Baby/Kids Items, Clothing, Furniture, Kitchen Items, Misc. Household Items, "}}, {"type": "Feature", "id": 23, "geometry": {"type": "Point", "coordinates": [-97.31162148435301, 35.38978600686321]}, "properties": {"ObjectID": 23, "Address": "7700 MAYWOOD LN, Oklahoma City, OK  73150", "Permit_Date": "2026-08-01", "Appliances": "No", "Baby_Kid_Items": "No", "Clothing": "Yes", "Electronics": "Yes", "Entertainment": "No", "Fitness_Equipment": "No", "Furniture": "No", "Hobbies": "Yes", "Kitchen_Items": "No", "Lawn_Tools": "No", "Household_Items": "Yes", "Sporting_Goods": "Yes", "All_Categories": "Clothing, Electronics, Hobbies, Misc. Household Items, Sporting Goods/Equipment, "}}, {"type": "Feature", "id": 24, "geometry": {"type": "Point", "coordinates": [-97.71931372198685, 35.57979724932607]}, "properties": {"ObjectID": 24, "Address": "11009 NW 108TH TER, Oklahoma City, OK  73099", "Permit_Date": "2026-07-31", "Appliances": "No", "Baby_Kid_Items": "Yes", "Clothing": "Yes", "Electronics": "Yes", "Entertainment": "Yes", "Fitness_Equipment": "Yes", "Furniture": "Yes", "Hobbies": "No", "Kitchen_Items": "Yes", "Lawn_Tools": "Yes", "Household_Items": "Yes", "Sporting_Goods": "Yes", "All_Categories": "Baby/Kids Items, Clothing, Electronics, Entertainment, Fitness/Exercise Equipment, Furniture, Kitchen Items, Lawn Equipment/Tools, Misc. Household Items, Sporting Goods/Equipment, "}}, {"type": "Feature", "id": 25, "geometry": {"type": "Point", "coordinates": [-97.5216854611239, 35.41232697785733]}, "properties": {"ObjectID": 25, "Address": "5301 S WALKER AVE, Oklahoma City, OK  73109", "Permit_Date": "2026-07-31", "Appliances": "No", "Baby_Kid_Items": "Yes", "Clothing": "Yes", "Electronics": "No", "Entertainment": "Yes", "Fitness_Equipment": "No", "Furniture": "No", "Hobbies": "No", "Kitchen_Items": "No", "Lawn_Tools": "No", "Household_Items": "Yes", "Sporting_Goods": "No", "All_Categories": "Baby/Kids Items, Clothing, Entertainment, Misc. Household Items, "}}, {"type": "Feature", "id": 26, "geometry": {"type": "Point", "coordinates": [-97.50350087561833, 35.558199115645905]}, "properties": {"ObjectID": 26, "Address": "617 NE 85TH ST, Oklahoma City, OK  73114", "Permit_Date": "2026-07-31", "Appliances": "Yes", "Baby_Kid_Items": "Yes", "Clothing": "Yes", "Electronics": "Yes", "Entertainment": "Yes", "Fitness_Equipment": "Yes", "Furniture": "Yes", "Hobbies": "Yes", "Kitchen_Items": "Yes", "Lawn_Tools": "Yes", "Household_Items": "Yes", "Sporting_Goods": "Yes", "All_Categories": "Appliances, Baby/Kids Items, Clothing, Electronics, Entertainment, Fitness/Exercise Equipment, Furniture, Hobbies, Kitchen Items, Lawn Equipment/Tools, Misc. Household Items, Sporting Goods/Equipment, "}}, {"type": "Feature", "id": 27, "geometry": {"type": "Point", "coordinates": [-97.52748996684068, 35.416433657072055]}, "properties": {"ObjectID": 27, "Address": "737 SW 49TH ST, Oklahoma City, OK  73109", "Permit_Date": "2026-08-01", "Appliances": "No", "Baby_Kid_Items": "No", "Clothing": "Yes", "Electronics": "No", "Entertainment": "No", "Fitness_Equipment": "No", "Furniture": "Yes", "Hobbies": "No", "Kitchen_Items": "Yes", "Lawn_Tools": "Yes", "Household_Items": "Yes", "Sporting_Goods": "No", "All_Categories": "Clothing, Furniture, Kitchen Items, Lawn Equipment/Tools, Misc. Household Items, "}}, {"type": "Feature", "id": 28, "geometry": {"type": "Point", "coordinates": [-97.47911523567235, 35.47161062487451]}, "properties": {"ObjectID": 28, "Address": "501 N NEBRASKA AVE, Oklahoma City, OK  73117", "Permit_Date": "2026-07-31", "Appliances": "No", "Baby_Kid_Items": "No", "Clothing": "Yes", "Electronics": "Yes", "Entertainment": "No", "Fitness_Equipment": "No", "Furniture": "No", "Hobbies": "No", "Kitchen_Items": "Yes", "Lawn_Tools": "No", "Household_Items": "Yes", "Sporting_Goods": "Yes", "All_Categories": "Clothing, Electronics, Kitchen Items, Misc. Household Items, Sporting Goods/Equipment, "}}, {"type": "Feature", "id": 29, "geometry": {"type": "Point", "coordinates": [-97.58153284204867, 35.34109778656368]}, "properties": {"ObjectID": 29, "Address": "3613 SW 127TH ST, Oklahoma City, OK  73170", "Permit_Date": "2026-07-31", "Appliances": "No", "Baby_Kid_Items": "No", "Clothing": "Yes", "Electronics": "No", "Entertainment": "No", "Fitness_Equipment": "No", "Furniture": "No", "Hobbies": "No", "Kitchen_Items": "Yes", "Lawn_Tools": "No", "Household_Items": "Yes", "Sporting_Goods": "No", "All_Categories": "Clothing, Kitchen Items, Misc. Household Items, "}}, {"type": "Feature", "id": 30, "geometry": {"type": "Point", "coordinates": [-97.58977290676062, 35.60556899948794]}, "properties": {"ObjectID": 30, "Address": "13004 BURLINGAME AVE, Oklahoma City, OK  73120", "Permit_Date": "2026-07-31", "Appliances": "Yes", "Baby_Kid_Items": "No", "Clothing": "No", "Electronics": "No", "Entertainment": "No", "Fitness_Equipment": "No", "Furniture": "Yes", "Hobbies": "No", "Kitchen_Items": "Yes", "Lawn_Tools": "No", "Household_Items": "Yes", "Sporting_Goods": "No", "All_Categories": "Appliances, Furniture, Kitchen Items, Misc. Household Items, "}}, {"type": "Feature", "id": 31, "geometry": {"type": "Point", "coordinates": [-97.75877723827303, 35.41060235590946]}, "properties": {"ObjectID": 31, "Address": "12916 SW 54TH ST, Oklahoma City, OK  73064", "Permit_Date": "2026-07-31", "Appliances": "No", "Baby_Kid_Items": "No", "Clothing": "Yes", "Electronics": "No", "Entertainment": "No", "Fitness_Equipment": "No", "Furniture": "Yes", "Hobbies": "Yes", "Kitchen_Items": "Yes", "Lawn_Tools": "No", "Household_Items": "Yes", "Sporting_Goods": "No", "All_Categories": "Clothing, Furniture, Hobbies, Kitchen Items, Misc. Household Items, "}}, {"type": "Feature", "id": 32, "geometry": {"type": "Point", "coordinates": [-97.58520542296586, 35.496252672084736]}, "properties": {"ObjectID": 32, "Address": "3737 NW 26TH ST, Oklahoma City, OK  73107", "Permit_Date": "2026-07-31", "Appliances": "No", "Baby_Kid_Items": "No", "Clothing": "Yes", "Electronics": "No", "Entertainment": "No", "Fitness_Equipment": "No", "Furniture": "No", "Hobbies": "No", "Kitchen_Items": "No", "Lawn_Tools": "Yes", "Household_Items": "Yes", "Sporting_Goods": "No", "All_Categories": "Clothing, Lawn Equipment/Tools, Misc. Household Items, "}}, {"type": "Feature", "id": 33, "geometry": {"type": "Point", "coordinates": [-97.59206935415426, 35.60532553433126]}, "properties": {"ObjectID": 33, "Address": "13304 INVERNESS AVE, Oklahoma City, OK  73120", "Permit_Date": "2026-07-31", "Appliances": "No", "Baby_Kid_Items": "Yes", "Clothing": "Yes", "Electronics": "No", "Entertainment": "No", "Fitness_Equipment": "No", "Furniture": "No", "Hobbies": "No", "Kitchen_Items": "No", "Lawn_Tools": "No", "Household_Items": "Yes", "Sporting_Goods": "Yes", "All_Categories": "Baby/Kids Items, Clothing, Misc. Household Items, Sporting Goods/Equipment, "}}, {"type": "Feature", "id": 34, "geometry": {"type": "Point", "coordinates": [-97.52659248700446, 35.48727014411391]}, "properties": {"ObjectID": 34, "Address": "823 NW 17TH ST, Oklahoma City, OK  73106", "Permit_Date": "2026-08-01", "Appliances": "Yes", "Baby_Kid_Items": "Yes", "Clothing": "Yes", "Electronics": "Yes", "Entertainment": "Yes", "Fitness_Equipment": "Yes", "Furniture": "Yes", "Hobbies": "Yes", "Kitchen_Items": "Yes", "Lawn_Tools": "Yes", "Household_Items": "Yes", "Sporting_Goods": "Yes", "All_Categories": "Appliances, Baby/Kids Items, Clothing, Electronics, Entertainment, Fitness/Exercise Equipment, Furniture, Hobbies, Kitchen Items, Lawn Equipment/Tools, Misc. Household Items, Sporting Goods/Equipment, "}}, {"type": "Feature", "id": 35, "geometry": {"type": "Point", "coordinates": [-97.52461678363159, 35.30879980625898]}, "properties": {"ObjectID": 35, "Address": "628 SW 160TH ST, Oklahoma City, OK  73170", "Permit_Date": "2026-07-31", "Appliances": "No", "Baby_Kid_Items": "Yes", "Clothing": "Yes", "Electronics": "No", "Entertainment": "No", "Fitness_Equipment": "No", "Furniture": "No", "Hobbies": "No", "Kitchen_Items": "No", "Lawn_Tools": "No", "Household_Items": "Yes", "Sporting_Goods": "No", "All_Categories": "Baby/Kids Items, Clothing, Misc. Household Items, "}}, {"type": "Feature", "id": 36, "geometry": {"type": "Point", "coordinates": [-97.56919882798167, 35.55661048399131]}, "properties": {"ObjectID": 36, "Address": "3000 WILTON LN, Oklahoma City, OK  73120", "Permit_Date": "2026-07-31", "Appliances": "No", "Baby_Kid_Items": "Yes", "Clothing": "Yes", "Electronics": "No", "Entertainment": "Yes", "Fitness_Equipment": "Yes", "Furniture": "Yes", "Hobbies": "No", "Kitchen_Items": "Yes", "Lawn_Tools": "No", "Household_Items": "Yes", "Sporting_Goods": "Yes", "All_Categories": "Baby/Kids Items, Clothing, Entertainment, Fitness/Exercise Equipment, Furniture, Kitchen Items, Misc. Household Items, Sporting Goods/Equipment, "}}, {"type": "Feature", "id": 37, "geometry": {"type": "Point", "coordinates": [-97.64269149287398, 35.36237554843756]}, "properties": {"ObjectID": 37, "Address": "7417 SW 105TH ST, Oklahoma City, OK  73173", "Permit_Date": "2026-07-31", "Appliances": "No", "Baby_Kid_Items": "No", "Clothing": "Yes", "Electronics": "No", "Entertainment": "Yes", "Fitness_Equipment": "No", "Furniture": "No", "Hobbies": "No", "Kitchen_Items": "Yes", "Lawn_Tools": "No", "Household_Items": "Yes", "Sporting_Goods": "No", "All_Categories": "Clothing, Entertainment, Kitchen Items, Misc. Household Items, "}}, {"type": "Feature", "id": 38, "geometry": {"type": "Point", "coordinates": [-97.53767557110348, 35.582439580179106]}, "properties": {"ObjectID": 38, "Address": "11203 HOWARD DR, Oklahoma City, OK  73114", "Permit_Date": "2026-08-01", "Appliances": "No", "Baby_Kid_Items": "No", "Clothing": "Yes", "Electronics": "No", "Entertainment": "No", "Fitness_Equipment": "No", "Furniture": "Yes", "Hobbies": "No", "Kitchen_Items": "Yes", "Lawn_Tools": "Yes", "Household_Items": "Yes", "Sporting_Goods": "No", "All_Categories": "Clothing, Furniture, Kitchen Items, Lawn Equipment/Tools, Misc. Household Items, "}}, {"type": "Feature", "id": 39, "geometry": {"type": "Point", "coordinates": [-97.53908709005567, 35.359475962544415]}, "properties": {"ObjectID": 39, "Address": "1304 SW 109TH PL, Oklahoma City, OK  73170", "Permit_Date": "2026-07-31", "Appliances": "No", "Baby_Kid_Items": "No", "Clothing": "Yes", "Electronics": "No", "Entertainment": "No", "Fitness_Equipment": "No", "Furniture": "No", "Hobbies": "No", "Kitchen_Items": "Yes", "Lawn_Tools": "Yes", "Household_Items": "Yes", "Sporting_Goods": "No", "All_Categories": "Clothing, Kitchen Items, Lawn Equipment/Tools, Misc. Household Items, "}}, {"type": "Feature", "id": 40, "geometry": {"type": "Point", "coordinates": [-97.59648021214643, 35.5203681329978]}, "properties": {"ObjectID": 40, "Address": "4904 N WARREN AVE, Oklahoma City, OK  73112", "Permit_Date": "2026-08-01", "Appliances": "Yes", "Baby_Kid_Items": "No", "Clothing": "Yes", "Electronics": "Yes", "Entertainment": "Yes", "Fitness_Equipment": "Yes", "Furniture": "Yes", "Hobbies": "Yes", "Kitchen_Items": "Yes", "Lawn_Tools": "Yes", "Household_Items": "Yes", "Sporting_Goods": "Yes", "All_Categories": "Appliances, Clothing, Electronics, Entertainment, Fitness/Exercise Equipment, Furniture, Hobbies, Kitchen Items, Lawn Equipment/Tools, Misc. Household Items, Sporting Goods/Equipment, "}}, {"type": "Feature", "id": 41, "geometry": {"type": "Point", "coordinates": [-97.50660248040526, 35.41188332647872]}, "properties": {"ObjectID": 41, "Address": "224 SE 53RD ST, Oklahoma City, OK  73129", "Permit_Date": "2026-07-31", "Appliances": "Yes", "Baby_Kid_Items": "Yes", "Clothing": "Yes", "Electronics": "No", "Entertainment": "No", "Fitness_Equipment": "No", "Furniture": "No", "Hobbies": "No", "Kitchen_Items": "No", "Lawn_Tools": "No", "Household_Items": "Yes", "Sporting_Goods": "No", "All_Categories": "Appliances, Baby/Kids Items, Clothing, Misc. Household Items, "}}, {"type": "Feature", "id": 42, "geometry": {"type": "Point", "coordinates": [-97.56046372356565, 35.417902715095046]}, "properties": {"ObjectID": 42, "Address": "2636 SW 46TH TER, Oklahoma City, OK  73119", "Permit_Date": "2026-08-01", "Appliances": "Yes", "Baby_Kid_Items": "Yes", "Clothing": "Yes", "Electronics": "No", "Entertainment": "No", "Fitness_Equipment": "No", "Furniture": "No", "Hobbies": "Yes", "Kitchen_Items": "Yes", "Lawn_Tools": "No", "Household_Items": "No", "Sporting_Goods": "No", "All_Categories": "Appliances, Baby/Kids Items, Clothing, Hobbies, Kitchen Items, "}}, {"type": "Feature", "id": 43, "geometry": {"type": "Point", "coordinates": [-97.52046697704452, 35.586085015448745]}, "properties": {"ObjectID": 43, "Address": "400 NW 114TH ST, Oklahoma City, OK  73114", "Permit_Date": "2026-07-31", "Appliances": "Yes", "Baby_Kid_Items": "Yes", "Clothing": "Yes", "Electronics": "Yes", "Entertainment": "Yes", "Fitness_Equipment": "No", "Furniture": "Yes", "Hobbies": "No", "Kitchen_Items": "Yes", "Lawn_Tools": "No", "Household_Items": "Yes", "Sporting_Goods": "No", "All_Categories": "Appliances, Baby/Kids Items, Clothing, Electronics, Entertainment, Furniture, Kitchen Items, Misc. Household Items, "}}, {"type": "Feature", "id": 44, "geometry": {"type": "Point", "coordinates": [-97.3292267651886, 35.42766302853309]}, "properties": {"ObjectID": 44, "Address": "11331 BURNING OAKS RD, Oklahoma City, OK  73150", "Permit_Date": "2026-07-31", "Appliances": "Yes", "Baby_Kid_Items": "Yes", "Clothing": "Yes", "Electronics": "Yes", "Entertainment": "Yes", "Fitness_Equipment": "Yes", "Furniture": "Yes", "Hobbies": "Yes", "Kitchen_Items": "Yes", "Lawn_Tools": "Yes", "Household_Items": "Yes", "Sporting_Goods": "No", "All_Categories": "Appliances, Baby/Kids Items, Clothing, Electronics, Entertainment, Fitness/Exercise Equipment, Furniture, Hobbies, Kitchen Items, Lawn Equipment/Tools, Misc. Household Items, "}}, {"type": "Feature", "id": 45, "geometry": {"type": "Point", "coordinates": [-97.65844815131345, 35.49246137098787]}, "properties": {"ObjectID": 45, "Address": "2301 N MARKWELL PL, Oklahoma City, OK  73127", "Permit_Date": "2026-07-31", "Appliances": "Yes", "Baby_Kid_Items": "Yes", "Clothing": "Yes", "Electronics": "Yes", "Entertainment": "Yes", "Fitness_Equipment": "No", "Furniture": "Yes", "Hobbies": "Yes", "Kitchen_Items": "Yes", "Lawn_Tools": "Yes", "Household_Items": "Yes", "Sporting_Goods": "Yes", "All_Categories": "Appliances, Baby/Kids Items, Clothing, Electronics, Entertainment, Furniture, Hobbies, Kitchen Items, Lawn Equipment/Tools, Misc. Household Items, Sporting Goods/Equipment, "}}, {"type": "Feature", "id": 46, "geometry": {"type": "Point", "coordinates": [-97.70286494514303, 35.508610335935515]}, "properties": {"ObjectID": 46, "Address": "3800 SEAWARD CIR, Oklahoma City, OK  73099", "Permit_Date": "2026-07-31", "Appliances": "No", "Baby_Kid_Items": "Yes", "Clothing": "Yes", "Electronics": "No", "Entertainment": "No", "Fitness_Equipment": "No", "Furniture": "No", "Hobbies": "No", "Kitchen_Items": "No", "Lawn_Tools": "No", "Household_Items": "Yes", "Sporting_Goods": "No", "All_Categories": "Baby/Kids Items, Clothing, Misc. Household Items, "}}, {"type": "Feature", "id": 47, "geometry": {"type": "Point", "coordinates": [-97.64958819657541, 35.58805503381505]}, "properties": {"ObjectID": 47, "Address": "7524 NW 113TH ST, Oklahoma City, OK  73162", "Permit_Date": "2026-08-07", "Appliances": "No", "Baby_Kid_Items": "No", "Clothing": "Yes", "Electronics": "No", "Entertainment": "No", "Fitness_Equipment": "No", "Furniture": "No", "Hobbies": "No", "Kitchen_Items": "No", "Lawn_Tools": "No", "Household_Items": "Yes", "Sporting_Goods": "No", "All_Categories": "Clothing, Misc. Household Items, "}}, {"type": "Feature", "id": 48, "geometry": {"type": "Point", "coordinates": [-97.52376871602287, 35.39692368088028]}, "properties": {"ObjectID": 48, "Address": "621 SW 69TH ST, Oklahoma City, OK  73139", "Permit_Date": "2026-07-31", "Appliances": "No", "Baby_Kid_Items": "No", "Clothing": "Yes", "Electronics": "No", "Entertainment": "No", "Fitness_Equipment": "No", "Furniture": "Yes", "Hobbies": "Yes", "Kitchen_Items": "Yes", "Lawn_Tools": "Yes", "Household_Items": "Yes", "Sporting_Goods": "No", "All_Categories": "Clothing, Furniture, Hobbies, Kitchen Items, Lawn Equipment/Tools, Misc. Household Items, "}}, {"type": "Feature", "id": 49, "geometry": {"type": "Point", "coordinates": [-97.73253026437035, 35.457921428319644]}, "properties": {"ObjectID": 49, "Address": "717 GREENFIELD DR, Oklahoma City, OK  73099", "Permit_Date": "2026-07-31", "Appliances": "No", "Baby_Kid_Items": "No", "Clothing": "Yes", "Electronics": "Yes", "Entertainment": "Yes", "Fitness_Equipment": "Yes", "Furniture": "No", "Hobbies": "Yes", "Kitchen_Items": "Yes", "Lawn_Tools": "No", "Household_Items": "Yes", "Sporting_Goods": "Yes", "All_Categories": "Clothing, Electronics, Entertainment, Fitness/Exercise Equipment, Hobbies, Kitchen Items, Misc. Household Items, Sporting Goods/Equipment, "}}, {"type": "Feature", "id": 50, "geometry": {"type": "Point", "coordinates": [-97.5406176674146, 35.42890826039802]}, "properties": {"ObjectID": 50, "Address": "1332 SW 35TH ST, Oklahoma City, OK  73119", "Permit_Date": "2026-07-31", "Appliances": "No", "Baby_Kid_Items": "Yes", "Clothing": "Yes", "Electronics": "Yes", "Entertainment": "Yes", "Fitness_Equipment": "Yes", "Furniture": "Yes", "Hobbies": "Yes", "Kitchen_Items": "Yes", "Lawn_Tools": "Yes", "Household_Items": "Yes", "Sporting_Goods": "Yes", "All_Categories": "Baby/Kids Items, Clothing, Electronics, Entertainment, Fitness/Exercise Equipment, Furniture, Hobbies, Kitchen Items, Lawn Equipment/Tools, Misc. Household Items, Sporting Goods/Equipment, "}}, {"type": "Feature", "id": 51, "geometry": {"type": "Point", "coordinates": [-97.59250027849862, 35.505772205667924]}, "properties": {"ObjectID": 51, "Address": "4101 MASON DR, Oklahoma City, OK  73112", "Permit_Date": "2026-08-01", "Appliances": "No", "Baby_Kid_Items": "Yes", "Clothing": "Yes", "Electronics": "No", "Entertainment": "No", "Fitness_Equipment": "No", "Furniture": "No", "Hobbies": "No", "Kitchen_Items": "No", "Lawn_Tools": "Yes", "Household_Items": "No", "Sporting_Goods": "No", "All_Categories": "Baby/Kids Items, Clothing, Lawn Equipment/Tools, "}}, {"type": "Feature", "id": 52, "geometry": {"type": "Point", "coordinates": [-97.5591022790141, 35.513590063722624]}, "properties": {"ObjectID": 52, "Address": "2520 NW 41ST ST, Oklahoma City, OK  73112", "Permit_Date": "2026-07-31", "Appliances": "No", "Baby_Kid_Items": "No", "Clothing": "Yes", "Electronics": "No", "Entertainment": "No", "Fitness_Equipment": "No", "Furniture": "No", "Hobbies": "No", "Kitchen_Items": "No", "Lawn_Tools": "No", "Household_Items": "Yes", "Sporting_Goods": "No", "All_Categories": "Clothing, Misc. Household Items, "}}, {"type": "Feature", "id": 53, "geometry": {"type": "Point", "coordinates": [-97.53245416956722, 35.37368335286368]}, "properties": {"ObjectID": 53, "Address": "941 SW 94TH ST, Oklahoma City, OK  73139", "Permit_Date": "2026-07-31", "Appliances": "No", "Baby_Kid_Items": "Yes", "Clothing": "Yes", "Electronics": "Yes", "Entertainment": "Yes", "Fitness_Equipment": "No", "Furniture": "Yes", "Hobbies": "Yes", "Kitchen_Items": "Yes", "Lawn_Tools": "Yes", "Household_Items": "Yes", "Sporting_Goods": "Yes", "All_Categories": "Baby/Kids Items, Clothing, Electronics, Entertainment, Furniture, Hobbies, Kitchen Items, Lawn Equipment/Tools, Misc. Household Items, Sporting Goods/Equipment, "}}, {"type": "Feature", "id": 54, "geometry": {"type": "Point", "coordinates": [-97.5638080740516, 35.58223997973403]}, "properties": {"ObjectID": 54, "Address": "2712 NW 109TH ST, Oklahoma City, OK  73120", "Permit_Date": "2026-07-31", "Appliances": "Yes", "Baby_Kid_Items": "Yes", "Clothing": "Yes", "Electronics": "No", "Entertainment": "No", "Fitness_Equipment": "No", "Furniture": "Yes", "Hobbies": "No", "Kitchen_Items": "Yes", "Lawn_Tools": "No", "Household_Items": "No", "Sporting_Goods": "Yes", "All_Categories": "Appliances, Baby/Kids Items, Clothing, Furniture, Kitchen Items, Sporting Goods/Equipment, "}}, {"type": "Feature", "id": 55, "geometry": {"type": "Point", "coordinates": [-97.5280966115724, 35.3393033815536]}, "properties": {"ObjectID": 55, "Address": "12925 HERON LN, Oklahoma City, OK  73170", "Permit_Date": "2026-07-31", "Appliances": "No", "Baby_Kid_Items": "Yes", "Clothing": "Yes", "Electronics": "Yes", "Entertainment": "Yes", "Fitness_Equipment": "Yes", "Furniture": "No", "Hobbies": "Yes", "Kitchen_Items": "Yes", "Lawn_Tools": "Yes", "Household_Items": "Yes", "Sporting_Goods": "Yes", "All_Categories": "Baby/Kids Items, Clothing, Electronics, Entertainment, Fitness/Exercise Equipment, Hobbies, Kitchen Items, Lawn Equipment/Tools, Misc. Household Items, Sporting Goods/Equipment, "}}, {"type": "Feature", "id": 56, "geometry": {"type": "Point", "coordinates": [-97.51322152202025, 35.32494942017707]}, "properties": {"ObjectID": 56, "Address": "20 SW 143RD ST, Oklahoma City, OK  73170", "Permit_Date": "2026-07-31", "Appliances": "Yes", "Baby_Kid_Items": "Yes", "Clothing": "Yes", "Electronics": "Yes", "Entertainment": "Yes", "Fitness_Equipment": "No", "Furniture": "Yes", "Hobbies": "Yes", "Kitchen_Items": "Yes", "Lawn_Tools": "Yes", "Household_Items": "Yes", "Sporting_Goods": "Yes", "All_Categories": "Appliances, Baby/Kids Items, Clothing, Electronics, Entertainment, Furniture, Hobbies, Kitchen Items, Lawn Equipment/Tools, Misc. Household Items, Sporting Goods/Equipment, "}}, {"type": "Feature", "id": 57, "geometry": {"type": "Point", "coordinates": [-97.76512615570779, 35.41717064059316]}, "properties": {"ObjectID": 57, "Address": "4800 HORIZON BLVD, Oklahoma City, OK  73064", "Permit_Date": "2026-08-01", "Appliances": "Yes", "Baby_Kid_Items": "No", "Clothing": "Yes", "Electronics": "Yes", "Entertainment": "Yes", "Fitness_Equipment": "No", "Furniture": "No", "Hobbies": "Yes", "Kitchen_Items": "No", "Lawn_Tools": "No", "Household_Items": "Yes", "Sporting_Goods": "No", "All_Categories": "Appliances, Clothing, Electronics, Entertainment, Hobbies, Misc. Household Items, "}}, {"type": "Feature", "id": 58, "geometry": {"type": "Point", "coordinates": [-97.54021343166188, 35.535432237294096]}, "properties": {"ObjectID": 58, "Address": "1433 GLENBROOK DR, Oklahoma City, OK  73118", "Permit_Date": "2026-07-31", "Appliances": "Yes", "Baby_Kid_Items": "Yes", "Clothing": "Yes", "Electronics": "Yes", "Entertainment": "Yes", "Fitness_Equipment": "Yes", "Furniture": "Yes", "Hobbies": "Yes", "Kitchen_Items": "Yes", "Lawn_Tools": "Yes", "Household_Items": "Yes", "Sporting_Goods": "Yes", "All_Categories": "Appliances, Baby/Kids Items, Clothing, Electronics, Entertainment, Fitness/Exercise Equipment, Furniture, Hobbies, Kitchen Items, Lawn Equipment/Tools, Misc. Household Items, Sporting Goods/Equipment, "}}, {"type": "Feature", "id": 59, "geometry": {"type": "Point", "coordinates": [-97.5164002931661, 35.63815380019949]}, "properties": {"ObjectID": 59, "Address": "109 TAOS, Oklahoma City, OK  73013", "Permit_Date": "2026-07-31", "Appliances": "No", "Baby_Kid_Items": "Yes", "Clothing": "No", "Electronics": "Yes", "Entertainment": "Yes", "Fitness_Equipment": "Yes", "Furniture": "Yes", "Hobbies": "Yes", "Kitchen_Items": "Yes", "Lawn_Tools": "Yes", "Household_Items": "Yes", "Sporting_Goods": "No", "All_Categories": "Baby/Kids Items, Electronics, Entertainment, Fitness/Exercise Equipment, Furniture, Hobbies, Kitchen Items, Lawn Equipment/Tools, Misc. Household Items, "}}, {"type": "Feature", "id": 60, "geometry": {"type": "Point", "coordinates": [-97.64267014709961, 35.57007417131863]}, "properties": {"ObjectID": 60, "Address": "9818 HUMMINGBIRD LN, Oklahoma City, OK  73162", "Permit_Date": "2026-07-31", "Appliances": "Yes", "Baby_Kid_Items": "Yes", "Clothing": "No", "Electronics": "No", "Entertainment": "No", "Fitness_Equipment": "No", "Furniture": "No", "Hobbies": "Yes", "Kitchen_Items": "Yes", "Lawn_Tools": "No", "Household_Items": "Yes", "Sporting_Goods": "No", "All_Categories": "Appliances, Baby/Kids Items, Hobbies, Kitchen Items, Misc. Household Items, "}}, {"type": "Feature", "id": 61, "geometry": {"type": "Point", "coordinates": [-97.55809174540077, 35.38458303010328]}, "properties": {"ObjectID": 61, "Address": "2512 SW 81ST ST, Oklahoma City, OK  73159", "Permit_Date": "2026-08-01", "Appliances": "No", "Baby_Kid_Items": "Yes", "Clothing": "Yes", "Electronics": "No", "Entertainment": "No", "Fitness_Equipment": "No", "Furniture": "No", "Hobbies": "No", "Kitchen_Items": "No", "Lawn_Tools": "No", "Household_Items": "Yes", "Sporting_Goods": "No", "All_Categories": "Baby/Kids Items, Clothing, Misc. Household Items, "}}, {"type": "Feature", "id": 62, "geometry": {"type": "Point", "coordinates": [-97.53234628626868, 35.43177888713321]}, "properties": {"ObjectID": 62, "Address": "3244 S KLEIN AVE, Oklahoma City, OK  73109", "Permit_Date": "2026-07-31", "Appliances": "Yes", "Baby_Kid_Items": "No", "Clothing": "Yes", "Electronics": "Yes", "Entertainment": "No", "Fitness_Equipment": "No", "Furniture": "Yes", "Hobbies": "No", "Kitchen_Items": "No", "Lawn_Tools": "No", "Household_Items": "No", "Sporting_Goods": "No", "All_Categories": "Appliances, Clothing, Electronics, Furniture, "}}, {"type": "Feature", "id": 63, "geometry": {"type": "Point", "coordinates": [-97.54306175525689, 35.39874323338475]}, "properties": {"ObjectID": 63, "Address": "1416 SW 66TH ST, Oklahoma City, OK  73159", "Permit_Date": "2026-07-31", "Appliances": "No", "Baby_Kid_Items": "No", "Clothing": "Yes", "Electronics": "No", "Entertainment": "No", "Fitness_Equipment": "No", "Furniture": "Yes", "Hobbies": "No", "Kitchen_Items": "No", "Lawn_Tools": "No", "Household_Items": "Yes", "Sporting_Goods": "No", "All_Categories": "Clothing, Furniture, Misc. Household Items, "}}, {"type": "Feature", "id": 64, "geometry": {"type": "Point", "coordinates": [-97.55215360568684, 35.42625189767622]}, "properties": {"ObjectID": 64, "Address": "3916 S YOUNGS BLVD, Oklahoma City, OK  73119", "Permit_Date": "2026-07-31", "Appliances": "Yes", "Baby_Kid_Items": "Yes", "Clothing": "Yes", "Electronics": "No", "Entertainment": "No", "Fitness_Equipment": "No", "Furniture": "No", "Hobbies": "No", "Kitchen_Items": "No", "Lawn_Tools": "No", "Household_Items": "Yes", "Sporting_Goods": "No", "All_Categories": "Appliances, Baby/Kids Items, Clothing, Misc. Household Items, "}}, {"type": "Feature", "id": 65, "geometry": {"type": "Point", "coordinates": [-97.52971678108975, 35.41600845332562]}, "properties": {"ObjectID": 65, "Address": "820 SW 49TH ST, Oklahoma City, OK  73109", "Permit_Date": "2026-07-31", "Appliances": "No", "Baby_Kid_Items": "Yes", "Clothing": "Yes", "Electronics": "No", "Entertainment": "No", "Fitness_Equipment": "No", "Furniture": "No", "Hobbies": "No", "Kitchen_Items": "No", "Lawn_Tools": "No", "Household_Items": "Yes", "Sporting_Goods": "No", "All_Categories": "Baby/Kids Items, Clothing, Misc. Household Items, "}}, {"type": "Feature", "id": 66, "geometry": {"type": "Point", "coordinates": [-97.56953411452368, 35.49382496221241]}, "properties": {"ObjectID": 66, "Address": "2420 N DREXEL BLVD, Oklahoma City, OK  73107", "Permit_Date": "2026-08-01", "Appliances": "Yes", "Baby_Kid_Items": "Yes", "Clothing": "Yes", "Electronics": "Yes", "Entertainment": "No", "Fitness_Equipment": "No", "Furniture": "Yes", "Hobbies": "No", "Kitchen_Items": "No", "Lawn_Tools": "Yes", "Household_Items": "Yes", "Sporting_Goods": "Yes", "All_Categories": "Appliances, Baby/Kids Items, Clothing, Electronics, Furniture, Lawn Equipment/Tools, Misc. Household Items, Sporting Goods/Equipment, "}}, {"type": "Feature", "id": 67, "geometry": {"type": "Point", "coordinates": [-97.55513645688026, 35.429174034041104]}, "properties": {"ObjectID": 67, "Address": "2409 SW 35TH ST, Oklahoma City, OK  73119", "Permit_Date": "2026-07-31", "Appliances": "No", "Baby_Kid_Items": "No", "Clothing": "No", "Electronics": "No", "Entertainment": "No", "Fitness_Equipment": "No", "Furniture": "No", "Hobbies": "No", "Kitchen_Items": "No", "Lawn_Tools": "No", "Household_Items": "Yes", "Sporting_Goods": "No", "All_Categories": "Misc. Household Items, "}}, {"type": "Feature", "id": 68, "geometry": {"type": "Point", "coordinates": [-97.49719972971087, 35.434057863630244]}, "properties": {"ObjectID": 68, "Address": "3107 S PHILLIPS AVE, Oklahoma City, OK  73129", "Permit_Date": "2026-07-31", "Appliances": "No", "Baby_Kid_Items": "Yes", "Clothing": "No", "Electronics": "No", "Entertainment": "No", "Fitness_Equipment": "No", "Furniture": "Yes", "Hobbies": "No", "Kitchen_Items": "No", "Lawn_Tools": "No", "Household_Items": "No", "Sporting_Goods": "No", "All_Categories": "Baby/Kids Items, Furniture, "}}, {"type": "Feature", "id": 69, "geometry": {"type": "Point", "coordinates": [-97.50653398811733, 35.447128898820196]}, "properties": {"ObjectID": 69, "Address": "1818 S CENTRAL AVE, Oklahoma City, OK  73129", "Permit_Date": "2026-08-01", "Appliances": "No", "Baby_Kid_Items": "Yes", "Clothing": "Yes", "Electronics": "Yes", "Entertainment": "Yes", "Fitness_Equipment": "No", "Furniture": "Yes", "Hobbies": "Yes", "Kitchen_Items": "Yes", "Lawn_Tools": "No", "Household_Items": "Yes", "Sporting_Goods": "No", "All_Categories": "Baby/Kids Items, Clothing, Electronics, Entertainment, Furniture, Hobbies, Kitchen Items, Misc. Household Items, "}}, {"type": "Feature", "id": 70, "geometry": {"type": "Point", "coordinates": [-97.60004565906598, 35.51533224118369]}, "properties": {"ObjectID": 70, "Address": "4416 NW 43RD ST, Oklahoma City, OK  73112", "Permit_Date": "2026-07-31", "Appliances": "Yes", "Baby_Kid_Items": "No", "Clothing": "Yes", "Electronics": "No", "Entertainment": "No", "Fitness_Equipment": "No", "Furniture": "Yes", "Hobbies": "No", "Kitchen_Items": "No", "Lawn_Tools": "No", "Household_Items": "No", "Sporting_Goods": "No", "All_Categories": "Appliances, Clothing, Furniture, "}}, {"type": "Feature", "id": 71, "geometry": {"type": "Point", "coordinates": [-97.5263383214664, 35.4334214908724]}, "properties": {"ObjectID": 71, "Address": "3121 S SHARTEL AVE, Oklahoma City, OK  73109", "Permit_Date": "2026-08-01", "Appliances": "No", "Baby_Kid_Items": "No", "Clothing": "Yes", "Electronics": "No", "Entertainment": "No", "Fitness_Equipment": "No", "Furniture": "No", "Hobbies": "No", "Kitchen_Items": "Yes", "Lawn_Tools": "No", "Household_Items": "Yes", "Sporting_Goods": "No", "All_Categories": "Clothing, Kitchen Items, Misc. Household Items, "}}, {"type": "Feature", "id": 72, "geometry": {"type": "Point", "coordinates": [-97.51279703586351, 35.37522282415703]}, "properties": {"ObjectID": 72, "Address": "9212 ROADRUNNER AVE, Oklahoma City, OK  73139", "Permit_Date": "2026-08-01", "Appliances": "No", "Baby_Kid_Items": "No", "Clothing": "No", "Electronics": "No", "Entertainment": "No", "Fitness_Equipment": "No", "Furniture": "No", "Hobbies": "No", "Kitchen_Items": "No", "Lawn_Tools": "No", "Household_Items": "Yes", "Sporting_Goods": "No", "All_Categories": "Misc. Household Items, "}}, {"type": "Feature", "id": 73, "geometry": {"type": "Point", "coordinates": [-97.5652801308862, 35.38865179516738]}, "properties": {"ObjectID": 73, "Address": "2844 MEADOW CLIFF DR, Oklahoma City, OK  73159", "Permit_Date": "2026-08-01", "Appliances": "No", "Baby_Kid_Items": "Yes", "Clothing": "Yes", "Electronics": "No", "Entertainment": "No", "Fitness_Equipment": "No", "Furniture": "Yes", "Hobbies": "No", "Kitchen_Items": "No", "Lawn_Tools": "No", "Household_Items": "No", "Sporting_Goods": "No", "All_Categories": "Baby/Kids Items, Clothing, Furniture, "}}, {"type": "Feature", "id": 74, "geometry": {"type": "Point", "coordinates": [-97.51710952174479, 35.29640255143972]}, "properties": {"ObjectID": 74, "Address": "216 SW 173RD ST, Oklahoma City, OK  73170", "Permit_Date": "2026-08-01", "Appliances": "No", "Baby_Kid_Items": "No", "Clothing": "Yes", "Electronics": "No", "Entertainment": "No", "Fitness_Equipment": "No", "Furniture": "No", "Hobbies": "No", "Kitchen_Items": "No", "Lawn_Tools": "No", "Household_Items": "No", "Sporting_Goods": "No", "All_Categories": "Clothing, "}}, {"type": "Feature", "id": 75, "geometry": {"type": "Point", "coordinates": [-97.51457854498018, 35.401249209728086]}, "properties": {"ObjectID": 75, "Address": "105 SW 65TH ST, Oklahoma City, OK  73139", "Permit_Date": "2026-08-01", "Appliances": "No", "Baby_Kid_Items": "No", "Clothing": "Yes", "Electronics": "Yes", "Entertainment": "No", "Fitness_Equipment": "No", "Furniture": "Yes", "Hobbies": "No", "Kitchen_Items": "No", "Lawn_Tools": "Yes", "Household_Items": "No", "Sporting_Goods": "No", "All_Categories": "Clothing, Electronics, Furniture, Lawn Equipment/Tools, "}}, {"type": "Feature", "id": 76, "geometry": {"type": "Point", "coordinates": [-97.57610355812014, 35.415067968499315]}, "properties": {"ObjectID": 76, "Address": "3333 SW 50TH ST, Oklahoma City, OK  73119", "Permit_Date": "2026-08-01", "Appliances": "No", "Baby_Kid_Items": "Yes", "Clothing": "Yes", "Electronics": "Yes", "Entertainment": "No", "Fitness_Equipment": "No", "Furniture": "No", "Hobbies": "Yes", "Kitchen_Items": "Yes", "Lawn_Tools": "No", "Household_Items": "Yes", "Sporting_Goods": "No", "All_Categories": "Baby/Kids Items, Clothing, Electronics, Hobbies, Kitchen Items, Misc. Household Items, "}}, {"type": "Feature", "id": 77, "geometry": {"type": "Point", "coordinates": [-97.51949536585897, 35.373717242410365]}, "properties": {"ObjectID": 77, "Address": "400 SW 93RD ST, Oklahoma City, OK  73139", "Permit_Date": "2026-08-01", "Appliances": "No", "Baby_Kid_Items": "No", "Clothing": "No", "Electronics": "No", "Entertainment": "No", "Fitness_Equipment": "No", "Furniture": "No", "Hobbies": "No", "Kitchen_Items": "No", "Lawn_Tools": "No", "Household_Items": "Yes", "Sporting_Goods": "No", "All_Categories": "Misc. Household Items, "}}, {"type": "Feature", "id": 78, "geometry": {"type": "Point", "coordinates": [-97.67318786883004, 35.55678023301209]}, "properties": {"ObjectID": 78, "Address": "8925 NW 84TH ST, Oklahoma City, OK  73132", "Permit_Date": "2026-08-01", "Appliances": "No", "Baby_Kid_Items": "No", "Clothing": "Yes", "Electronics": "Yes", "Entertainment": "No", "Fitness_Equipment": "No", "Furniture": "Yes", "Hobbies": "No", "Kitchen_Items": "Yes", "Lawn_Tools": "Yes", "Household_Items": "Yes", "Sporting_Goods": "No", "All_Categories": "Clothing, Electronics, Furniture, Kitchen Items, Lawn Equipment/Tools, Misc. Household Items, "}}, {"type": "Feature", "id": 79, "geometry": {"type": "Point", "coordinates": [-97.492793288296, 35.52184578086304]}, "properties": {"ObjectID": 79, "Address": "1104 NE 50TH ST, Oklahoma City, OK  73111", "Permit_Date": "2026-08-01", "Appliances": "Yes", "Baby_Kid_Items": "No", "Clothing": "Yes", "Electronics": "No", "Entertainment": "No", "Fitness_Equipment": "No", "Furniture": "Yes", "Hobbies": "No", "Kitchen_Items": "Yes", "Lawn_Tools": "No", "Household_Items": "Yes", "Sporting_Goods": "No", "All_Categories": "Appliances, Clothing, Furniture, Kitchen Items, Misc. Household Items, "}}, {"type": "Feature", "id": 80, "geometry": {"type": "Point", "coordinates": [-97.62855715842322, 35.55506752798602]}, "properties": {"ObjectID": 80, "Address": "6325 NW 82ND ST, Oklahoma City, OK  73132", "Permit_Date": "2026-08-01", "Appliances": "No", "Baby_Kid_Items": "No", "Clothing": "Yes", "Electronics": "No", "Entertainment": "No", "Fitness_Equipment": "No", "Furniture": "No", "Hobbies": "No", "Kitchen_Items": "No", "Lawn_Tools": "No", "Household_Items": "Yes", "Sporting_Goods": "No", "All_Categories": "Clothing, Misc. Household Items, "}}, {"type": "Feature", "id": 81, "geometry": {"type": "Point", "coordinates": [-97.62706868548584, 35.496469579678866]}, "properties": {"ObjectID": 81, "Address": "2617 N DONALD AVE, Oklahoma City, OK  73127", "Permit_Date": "2026-08-01", "Appliances": "No", "Baby_Kid_Items": "Yes", "Clothing": "Yes", "Electronics": "No", "Entertainment": "No", "Fitness_Equipment": "No", "Furniture": "No", "Hobbies": "No", "Kitchen_Items": "No", "Lawn_Tools": "No", "Household_Items": "Yes", "Sporting_Goods": "No", "All_Categories": "Baby/Kids Items, Clothing, Misc. Household Items, "}}, {"type": "Feature", "id": 82, "geometry": {"type": "Point", "coordinates": [-97.7059647256251, 35.50617350744445]}, "properties": {"ObjectID": 82, "Address": "3504 SLATE RIVER DR, Oklahoma City, OK  73099", "Permit_Date": "2026-08-01", "Appliances": "No", "Baby_Kid_Items": "Yes", "Clothing": "Yes", "Electronics": "No", "Entertainment": "No", "Fitness_Equipment": "No", "Furniture": "No", "Hobbies": "No", "Kitchen_Items": "No", "Lawn_Tools": "No", "Household_Items": "Yes", "Sporting_Goods": "No", "All_Categories": "Baby/Kids Items, Clothing, Misc. Household Items, "}}, {"type": "Feature", "id": 83, "geometry": {"type": "Point", "coordinates": [-97.65704136717777, 35.585936718183945]}, "properties": {"ObjectID": 83, "Address": "11313 CIMARRON DR, Oklahoma City, OK  73162", "Permit_Date": "2026-08-01", "Appliances": "No", "Baby_Kid_Items": "No", "Clothing": "Yes", "Electronics": "No", "Entertainment": "No", "Fitness_Equipment": "No", "Furniture": "Yes", "Hobbies": "No", "Kitchen_Items": "No", "Lawn_Tools": "No", "Household_Items": "Yes", "Sporting_Goods": "Yes", "All_Categories": "Clothing, Furniture, Misc. Household Items, Sporting Goods/Equipment, "}}, {"type": "Feature", "id": 84, "geometry": {"type": "Point", "coordinates": [-97.56138682933435, 35.40466831366207]}, "properties": {"ObjectID": 84, "Address": "2700 SW 60TH PL, Oklahoma City, OK  73159", "Permit_Date": "2026-08-01", "Appliances": "No", "Baby_Kid_Items": "Yes", "Clothing": "Yes", "Electronics": "No", "Entertainment": "No", "Fitness_Equipment": "No", "Furniture": "Yes", "Hobbies": "No", "Kitchen_Items": "Yes", "Lawn_Tools": "No", "Household_Items": "Yes", "Sporting_Goods": "No", "All_Categories": "Baby/Kids Items, Clothing, Furniture, Kitchen Items, Misc. Household Items, "}}]}