{"type": "FeatureCollection", "features": [{"type": "Feature", "geometry": {"type": "Point", "coordinates": [-97.56854040268931, 35.55138870635913]}, "properties": {"LegalName": "Buntz"}}, {"type": "Feature", "geometry": {"type": "Point", "coordinates": [-97.62809111596721, 35.55265102027471]}, "properties": {"LegalName": "Executive Inn  NW Expressway"}}, {"type": "Feature", "geometry": {"type": "Point", "coordinates": [-97.63207977321377, 35.554525205733626]}, "properties": {"LegalName": "Motel 6"}}, {"type": "Feature", "geometry": {"type": "Point", "coordinates": [-97.63207977321377, 35.554525205733626]}, "properties": {"LegalName": "Motel 6"}}, {"type": "Feature", "geometry": {"type": "Point", "coordinates": [-97.63207977321377, 35.554525205733626]}, "properties": {"LegalName": "Courtesy Inn"}}, {"type": "Feature", "geometry": {"type": "Point", "coordinates": [-97.45876275598953, 35.54687617356754]}, "properties": {"LegalName": "Executive Inn"}}, {"type": "Feature", "geometry": {"type": "Point", "coordinates": [-97.47914945923475, 35.53798038239597]}, "properties": {"LegalName": "Stephanie Anderson"}}, {"type": "Feature", "geometry": {"type": "Point", "coordinates": [-97.59315030419451, 35.537580808160214]}, "properties": {"LegalName": "Home2 Suites by Hilton"}}, {"type": "Feature", "geometry": {"type": "Point", "coordinates": [-97.60754705282334, 35.54516477971625]}, "properties": {"LegalName": "Studio Plus at Oklahoma City   #50"}}, {"type": "Feature", "geometry": {"type": "Point", "coordinates": [-97.60754705282334, 35.54516477971625]}, "properties": {"LegalName": "OKC NORTHWEST ES LLC"}}, {"type": "Feature", "geometry": {"type": "Point", "coordinates": [-97.60888579859333, 35.54572604980649]}, "properties": {"LegalName": "La Quinta Inn & Suites   #179"}}, {"type": "Feature", "geometry": {"type": "Point", "coordinates": [-97.60888579859333, 35.54572604980649]}, "properties": {"LegalName": "Haridarshan LLC"}}, {"type": "Feature", "geometry": {"type": "Point", "coordinates": [-97.60888579859333, 35.54572604980649]}, "properties": {"LegalName": "NW LODGING LLC"}}, {"type": "Feature", "geometry": {"type": "Point", "coordinates": [-97.62515074576764, 35.53726661254489]}, "properties": {"LegalName": "Isola Bella Apartments"}}, {"type": "Feature", "geometry": {"type": "Point", "coordinates": [-97.4586079308306, 35.53237214204129]}, "properties": {"LegalName": "Remington Inn"}}, {"type": "Feature", "geometry": {"type": "Point", "coordinates": [-97.4586079308306, 35.53237214204129]}, "properties": {"LegalName": "KUBER HOTELS LLC"}}, {"type": "Feature", "geometry": {"type": "Point", "coordinates": [-97.4586079308306, 35.53237214204129]}, "properties": {"LegalName": "LAXMI KRUPA LLC"}}, {"type": "Feature", "geometry": {"type": "Point", "coordinates": [-97.51290133014552, 35.534400861422675]}, "properties": {"LegalName": "Best Western Plus  Santa Fe"}}, {"type": "Feature", "geometry": {"type": "Point", "coordinates": [-97.51290133014552, 35.534400861422675]}, "properties": {"LegalName": "Best Western Broadway Inn & Suites"}}, {"type": "Feature", "geometry": {"type": "Point", "coordinates": [-97.51559810506966, 35.535284125600825]}, "properties": {"LegalName": "Wyndham Gardens OKC North"}}, {"type": "Feature", "geometry": {"type": "Point", "coordinates": [-97.5039860293831, 35.52480234014721]}, "properties": {"LegalName": "Lincoln Inn"}}, {"type": "Feature", "geometry": {"type": "Point", "coordinates": [-97.5039860293831, 35.52480234014721]}, "properties": {"LegalName": "OK Hotel LLC"}}, {"type": "Feature", "geometry": {"type": "Point", "coordinates": [-97.50361386518225, 35.524236236154536]}, "properties": {"LegalName": "Oxford Inn"}}, {"type": "Feature", "geometry": {"type": "Point", "coordinates": [-97.50361386518225, 35.524236236154536]}, "properties": {"LegalName": "CHIRAG PATEL"}}, {"type": "Feature", "geometry": {"type": "Point", "coordinates": [-97.54487825892356, 35.5348741168377]}, "properties": {"LegalName": "Renaissance Waterford Oklahoma City"}}, {"type": "Feature", "geometry": {"type": "Point", "coordinates": [-97.54487825892356, 35.5348741168377]}, "properties": {"LegalName": "Waterford Marriott Hotel"}}, {"type": "Feature", "geometry": {"type": "Point", "coordinates": [-97.53042717315299, 35.528763595527856]}, "properties": {"LegalName": "Foundation House"}}, {"type": "Feature", "geometry": {"type": "Point", "coordinates": [-97.56396022281474, 35.52673462352747]}, "properties": {"LegalName": "HILTON GARDEN INN OKC MIDTOWN"}}, {"type": "Feature", "geometry": {"type": "Point", "coordinates": [-97.56396022281474, 35.52673462352747]}, "properties": {"LegalName": "Sunshine Hospitality LLC"}}, {"type": "Feature", "geometry": {"type": "Point", "coordinates": [-97.5643444865016, 35.52682971291243]}, "properties": {"LegalName": "Holiday Inn Express Hotel and Suites"}}, {"type": "Feature", "geometry": {"type": "Point", "coordinates": [-97.5643444865016, 35.52682971291243]}, "properties": {"LegalName": "RSM HOSPITALITY LLC"}}, {"type": "Feature", "geometry": {"type": "Point", "coordinates": [-97.56291635743929, 35.52424595319266]}, "properties": {"LegalName": "Extended Stay Hotel   #6065"}}, {"type": "Feature", "geometry": {"type": "Point", "coordinates": [-97.56291635743929, 35.52424595319266]}, "properties": {"LegalName": "OKC NW EXPRESSWAY ES LLC"}}, {"type": "Feature", "geometry": {"type": "Point", "coordinates": [-97.5840606877722, 35.52431831967541]}, "properties": {"LegalName": "The Lodge OKC"}}, {"type": "Feature", "geometry": {"type": "Point", "coordinates": [-97.56858656368985, 35.52676333248688]}, "properties": {"LegalName": "Hampton Inn"}}, {"type": "Feature", "geometry": {"type": "Point", "coordinates": [-97.56858656368985, 35.52676333248688]}, "properties": {"LegalName": "Hampton Inn  NW"}}, {"type": "Feature", "geometry": {"type": "Point", "coordinates": [-97.56731007790701, 35.52789877206421]}, "properties": {"LegalName": "Crowne Plaza"}}, {"type": "Feature", "geometry": {"type": "Point", "coordinates": [-97.56731007790701, 35.52789877206421]}, "properties": {"LegalName": "IBORROW 2945 OKC OWNER LLC"}}, {"type": "Feature", "geometry": {"type": "Point", "coordinates": [-97.56845160748833, 35.522906062508696]}, "properties": {"LegalName": "Citadel Suites Apartments"}}, {"type": "Feature", "geometry": {"type": "Point", "coordinates": [-97.56986468962934, 35.52990718158492]}, "properties": {"LegalName": "Comfort Inn - Mosteller Dr"}}, {"type": "Feature", "geometry": {"type": "Point", "coordinates": [-97.56986468962934, 35.52990718158492]}, "properties": {"LegalName": "Sorath LLC"}}, {"type": "Feature", "geometry": {"type": "Point", "coordinates": [-97.57392888742449, 35.530890216123545]}, "properties": {"LegalName": "The Tower Hotel"}}, {"type": "Feature", "geometry": {"type": "Point", "coordinates": [-97.57392888742449, 35.530890216123545]}, "properties": {"LegalName": "Northwest Hospitality LLC"}}, {"type": "Feature", "geometry": {"type": "Point", "coordinates": [-97.54063769058463, 35.51758866057702]}, "properties": {"LegalName": "4521 N Georgia Ave"}}, {"type": "Feature", "geometry": {"type": "Point", "coordinates": [-97.54063769058463, 35.51758866057702]}, "properties": {"LegalName": "4521 N Georgia Ave"}}, {"type": "Feature", "geometry": {"type": "Point", "coordinates": [-97.55505859494781, 35.51746967237915]}, "properties": {"LegalName": "Kleiner RE LLC"}}, {"type": "Feature", "geometry": {"type": "Point", "coordinates": [-97.54948549000306, 35.51721707144119]}, "properties": {"LegalName": "Grant Secor"}}, {"type": "Feature", "geometry": {"type": "Point", "coordinates": [-97.54967712427654, 35.51719856801511]}, "properties": {"LegalName": "Grant Secor"}}, {"type": "Feature", "geometry": {"type": "Point", "coordinates": [-97.56393013089615, 35.51221121989667]}, "properties": {"LegalName": "Days Inn"}}, {"type": "Feature", "geometry": {"type": "Point", "coordinates": [-97.5498526845845, 35.512489723711646]}, "properties": {"LegalName": "Habana Inn"}}, {"type": "Feature", "geometry": {"type": "Point", "coordinates": [-97.5498526845845, 35.512489723711646]}, "properties": {"LegalName": "Hotel Habana, LLC"}}, {"type": "Feature", "geometry": {"type": "Point", "coordinates": [-97.5498526845845, 35.512489723711646]}, "properties": {"LegalName": "Hotel Habana, LLC"}}, {"type": "Feature", "geometry": {"type": "Point", "coordinates": [-97.5498526845845, 35.512489723711646]}, "properties": {"LegalName": "Hotel Habana LLC"}}, {"type": "Feature", "geometry": {"type": "Point", "coordinates": [-97.56320322308896, 35.51193300508803]}, "properties": {"LegalName": "Motel 6 Fairgrounds"}}, {"type": "Feature", "geometry": {"type": "Point", "coordinates": [-97.58460065770898, 35.51206555725228]}, "properties": {"LegalName": "Hospitality Inn"}}, {"type": "Feature", "geometry": {"type": "Point", "coordinates": [-97.58460065770898, 35.51206555725228]}, "properties": {"LegalName": "Jay Prabhu Ent LLC"}}, {"type": "Feature", "geometry": {"type": "Point", "coordinates": [-97.58460065770898, 35.51206555725228]}, "properties": {"LegalName": "hospitality inn"}}, {"type": "Feature", "geometry": {"type": "Point", "coordinates": [-97.58460065770898, 35.51206555725228]}, "properties": {"LegalName": "jayprabhu ent llc "}}, {"type": "Feature", "geometry": {"type": "Point", "coordinates": [-97.59065783962815, 35.512155822229126]}, "properties": {"LegalName": "Budget Inn"}}, {"type": "Feature", "geometry": {"type": "Point", "coordinates": [-97.5735757335368, 35.521872399338044]}, "properties": {"LegalName": "Mecca Acton"}}, {"type": "Feature", "geometry": {"type": "Point", "coordinates": [-97.58006563117404, 35.52078703488011]}, "properties": {"LegalName": "Larissa by Tortoise Ant Hare"}}, {"type": "Feature", "geometry": {"type": "Point", "coordinates": [-97.58014881849684, 35.5109051469768]}, "properties": {"LegalName": "Nu-Homa Motel"}}, {"type": "Feature", "geometry": {"type": "Point", "coordinates": [-97.58162617137232, 35.51096777746437]}, "properties": {"LegalName": "Carlyle Motel"}}, {"type": "Feature", "geometry": {"type": "Point", "coordinates": [-97.472814220177, 35.49375874221462]}, "properties": {"LegalName": "Relax Inn"}}, {"type": "Feature", "geometry": {"type": "Point", "coordinates": [-97.49388661496012, 35.49862755196381]}, "properties": {"LegalName": "Adomgrace Real Estate Solutions LLC"}}, {"type": "Feature", "geometry": {"type": "Point", "coordinates": [-97.53697165829612, 35.499052302445186]}, "properties": {"LegalName": "Yellow Key Investments LLC"}}, {"type": "Feature", "geometry": {"type": "Point", "coordinates": [-97.53697372308626, 35.49927428366296]}, "properties": {"LegalName": "Yellow Key Investments LLC"}}, {"type": "Feature", "geometry": {"type": "Point", "coordinates": [-97.53697372308626, 35.49927428366296]}, "properties": {"LegalName": "Yellow Key Investments, LLC"}}, {"type": "Feature", "geometry": {"type": "Point", "coordinates": [-97.54255513271794, 35.50544028741466]}, "properties": {"LegalName": "Antech LLC"}}, {"type": "Feature", "geometry": {"type": "Point", "coordinates": [-97.55684868583035, 35.499752872172]}, "properties": {"LegalName": "2501 Cummings Dr"}}, {"type": "Feature", "geometry": {"type": "Point", "coordinates": [-97.6001987369426, 35.49581401402962]}, "properties": {"LegalName": "The Brittany Apartments"}}, {"type": "Feature", "geometry": {"type": "Point", "coordinates": [-97.6130917521245, 35.494051011353896]}, "properties": {"LegalName": "WES-CHASE/ELKHORN/HILLCREST"}}, {"type": "Feature", "geometry": {"type": "Point", "coordinates": [-97.44797986133062, 35.49277032533294]}, "properties": {"LegalName": "Delux Motel"}}, {"type": "Feature", "geometry": {"type": "Point", "coordinates": [-97.49225722549353, 35.483407167619205]}, "properties": {"LegalName": "Super 8  Medical Inn"}}, {"type": "Feature", "geometry": {"type": "Point", "coordinates": [-97.53855575285188, 35.49093695022568]}, "properties": {"LegalName": "Kaserman"}}, {"type": "Feature", "geometry": {"type": "Point", "coordinates": [-97.538559342355, 35.49072378155025]}, "properties": {"LegalName": "Kaserman"}}, {"type": "Feature", "geometry": {"type": "Point", "coordinates": [-97.54098179116505, 35.4900436290283]}, "properties": {"LegalName": "Monte J King"}}, {"type": "Feature", "geometry": {"type": "Point", "coordinates": [-97.52091510862711, 35.480169775521205]}, "properties": {"LegalName": "Ambassador Hotel Oklahoma City"}}, {"type": "Feature", "geometry": {"type": "Point", "coordinates": [-97.52027711243092, 35.480257855798314]}, "properties": {"LegalName": "Bricktown Central Plaza"}}, {"type": "Feature", "geometry": {"type": "Point", "coordinates": [-97.52522266311281, 35.48053927355068]}, "properties": {"LegalName": "Grandison Inn / Wright House  at Maney Park"}}, {"type": "Feature", "geometry": {"type": "Point", "coordinates": [-97.55478440438728, 35.479488757556105]}, "properties": {"LegalName": "Timothy M Cassil"}}, {"type": "Feature", "geometry": {"type": "Point", "coordinates": [-97.56071296555311, 35.49090150774884]}, "properties": {"LegalName": "Scissortail STR LLC"}}, {"type": "Feature", "geometry": {"type": "Point", "coordinates": [-97.56808228883433, 35.48017606330667]}, "properties": {"LegalName": "Troy Nichols"}}, {"type": "Feature", "geometry": {"type": "Point", "coordinates": [-97.57391331517543, 35.490724627989785]}, "properties": {"LegalName": "KCB21, LLC"}}, {"type": "Feature", "geometry": {"type": "Point", "coordinates": [-97.63048216855584, 35.484390192529624]}, "properties": {"LegalName": "Walnut Gardens Apartments, LTD."}}, {"type": "Feature", "geometry": {"type": "Point", "coordinates": [-97.47588243052923, 35.464458351061914]}, "properties": {"LegalName": "Ramada"}}, {"type": "Feature", "geometry": {"type": "Point", "coordinates": [-97.47588243052923, 35.464458351061914]}, "properties": {"LegalName": "Ashta Lakshmi, Inc"}}, {"type": "Feature", "geometry": {"type": "Point", "coordinates": [-97.47588243052923, 35.464458351061914]}, "properties": {"LegalName": "Ashta Lakshmi, Inc."}}, {"type": "Feature", "geometry": {"type": "Point", "coordinates": [-97.51388481489703, 35.469001093738036]}, "properties": {"LegalName": "SKIRVIN HILTON"}}, {"type": "Feature", "geometry": {"type": "Point", "coordinates": [-97.51479347488647, 35.46707074854832]}, "properties": {"LegalName": "Sheraton OKC"}}, {"type": "Feature", "geometry": {"type": "Point", "coordinates": [-97.51669571560265, 35.46681065927988]}, "properties": {"LegalName": "Colcord Hotel"}}, {"type": "Feature", "geometry": {"type": "Point", "coordinates": [-97.51392094870081, 35.466813337298014]}, "properties": {"LegalName": "Renaissance OKC Hotel"}}, {"type": "Feature", "geometry": {"type": "Point", "coordinates": [-97.51392094870081, 35.466813337298014]}, "properties": {"LegalName": "Renaissance Oklahoma City Hotel"}}, {"type": "Feature", "geometry": {"type": "Point", "coordinates": [-97.51392094870081, 35.466813337298014]}, "properties": {"LegalName": "Renaissance Oklahoma City Hotel"}}, {"type": "Feature", "geometry": {"type": "Point", "coordinates": [-97.52771035127935, 35.46755595305299]}, "properties": {"LegalName": "21c Museum Hotel Oklahoma City"}}, {"type": "Feature", "geometry": {"type": "Point", "coordinates": [-97.52838191675117, 35.47610554078313]}, "properties": {"LegalName": "Classen Inn Llc"}}, {"type": "Feature", "geometry": {"type": "Point", "coordinates": [-97.51022187320095, 35.467933267962906]}, "properties": {"LegalName": "Holiday Inn Express Bricktown"}}, {"type": "Feature", "geometry": {"type": "Point", "coordinates": [-97.51022187320095, 35.467933267962906]}, "properties": {"LegalName": "Summit Hotel TRS 181 LLC"}}, {"type": "Feature", "geometry": {"type": "Point", "coordinates": [-97.50328883240911, 35.46620284139913]}, "properties": {"LegalName": "Bricktown Hospitality LLC"}}, {"type": "Feature", "geometry": {"type": "Point", "coordinates": [-97.59838929487526, 35.464829038324886]}, "properties": {"LegalName": "West Reno OKC Holdings LLC"}}, {"type": "Feature", "geometry": {"type": "Point", "coordinates": [-97.479387230302, 35.463571049887726]}, "properties": {"LegalName": "Motel 6 Bricktown"}}, {"type": "Feature", "geometry": {"type": "Point", "coordinates": [-97.59784176043196, 35.46141765879885]}, "properties": {"LegalName": "Best Western Saddleback Inn & Conference Center"}}, {"type": "Feature", "geometry": {"type": "Point", "coordinates": [-97.59784176043196, 35.46141765879885]}, "properties": {"LegalName": "PLD Hospitality, LLC"}}, {"type": "Feature", "geometry": {"type": "Point", "coordinates": [-97.596180348113, 35.4591005401073]}, "properties": {"LegalName": "Baymont Inn"}}, {"type": "Feature", "geometry": {"type": "Point", "coordinates": [-97.596180348113, 35.4591005401073]}, "properties": {"LegalName": "Baymont Inn & Suites"}}, {"type": "Feature", "geometry": {"type": "Point", "coordinates": [-97.59532896259876, 35.458943523067674]}, "properties": {"LegalName": "Quality Inn & Suites"}}, {"type": "Feature", "geometry": {"type": "Point", "coordinates": [-97.59532896259876, 35.458943523067674]}, "properties": {"LegalName": "KUSHI HOSPITALITY GROUP INC."}}, {"type": "Feature", "geometry": {"type": "Point", "coordinates": [-97.59722883795415, 35.459190639559154]}, "properties": {"LegalName": "Wood Spring Suites OKC West"}}, {"type": "Feature", "geometry": {"type": "Point", "coordinates": [-97.59722883795415, 35.459190639559154]}, "properties": {"LegalName": "BSREP II WS HOTEL TRS SUB LLC"}}, {"type": "Feature", "geometry": {"type": "Point", "coordinates": [-97.59781630498944, 35.457492402970665]}, "properties": {"LegalName": "Courtyard by Marriott  #1N5"}}, {"type": "Feature", "geometry": {"type": "Point", "coordinates": [-97.59781630498944, 35.457492402970665]}, "properties": {"LegalName": "Skyline CM Portfolio, LLC"}}, {"type": "Feature", "geometry": {"type": "Point", "coordinates": [-97.59781630498944, 35.457492402970665]}, "properties": {"LegalName": "Skyline CM OK City LLC"}}, {"type": "Feature", "geometry": {"type": "Point", "coordinates": [-97.60006921684392, 35.46197297480046]}, "properties": {"LegalName": "Howard Johnson Express Inn"}}, {"type": "Feature", "geometry": {"type": "Point", "coordinates": [-97.59972081028742, 35.461013034644004]}, "properties": {"LegalName": "Days Inn Meridian"}}, {"type": "Feature", "geometry": {"type": "Point", "coordinates": [-97.59972081028742, 35.461013034644004]}, "properties": {"LegalName": "Days Inn   West"}}, {"type": "Feature", "geometry": {"type": "Point", "coordinates": [-97.60025076900882, 35.45745694944062]}, "properties": {"LegalName": "Motel 6 - #116"}}, {"type": "Feature", "geometry": {"type": "Point", "coordinates": [-97.60025076900882, 35.45745694944062]}, "properties": {"LegalName": "Motel 6 #116"}}, {"type": "Feature", "geometry": {"type": "Point", "coordinates": [-97.60064915607265, 35.454150413503356]}, "properties": {"LegalName": "Oak Tree"}}, {"type": "Feature", "geometry": {"type": "Point", "coordinates": [-97.60064915607265, 35.454150413503356]}, "properties": {"LegalName": "Oaktree Inn & Suites"}}, {"type": "Feature", "geometry": {"type": "Point", "coordinates": [-97.60064915607265, 35.454150413503356]}, "properties": {"LegalName": "Oaktree Inn & Suites"}}, {"type": "Feature", "geometry": {"type": "Point", "coordinates": [-97.60058680991875, 35.453395279169975]}, "properties": {"LegalName": "Meridian Inn"}}, {"type": "Feature", "geometry": {"type": "Point", "coordinates": [-97.60058680991875, 35.453395279169975]}, "properties": {"LegalName": "Urmilaben, LLC"}}, {"type": "Feature", "geometry": {"type": "Point", "coordinates": [-97.60058680991875, 35.453395279169975]}, "properties": {"LegalName": "MERIDIAN INN"}}, {"type": "Feature", "geometry": {"type": "Point", "coordinates": [-97.60058680991875, 35.453395279169975]}, "properties": {"LegalName": "MERIDIAN INN"}}, {"type": "Feature", "geometry": {"type": "Point", "coordinates": [-97.60058336270453, 35.455149340040364]}, "properties": {"LegalName": "Maruti Properties, LLC"}}, {"type": "Feature", "geometry": {"type": "Point", "coordinates": [-97.60058336270453, 35.455149340040364]}, "properties": {"LegalName": "Maruti Properties, LLC"}}, {"type": "Feature", "geometry": {"type": "Point", "coordinates": [-97.59875646619174, 35.45662363138237]}, "properties": {"LegalName": "Holiday Inn Express Hotel & Suites"}}, {"type": "Feature", "geometry": {"type": "Point", "coordinates": [-97.59875646619174, 35.45662363138237]}, "properties": {"LegalName": "OYO Townhouse"}}, {"type": "Feature", "geometry": {"type": "Point", "coordinates": [-97.61730799154824, 35.45924610579955]}, "properties": {"LegalName": "MAGANLAL LLC"}}, {"type": "Feature", "geometry": {"type": "Point", "coordinates": [-97.61732185903793, 35.45838875634455]}, "properties": {"LegalName": "Green Carpet Inn West"}}, {"type": "Feature", "geometry": {"type": "Point", "coordinates": [-97.61676132779053, 35.457581750325225]}, "properties": {"LegalName": "Travelers Inn & Suites - Airport"}}, {"type": "Feature", "geometry": {"type": "Point", "coordinates": [-97.60514062332071, 35.463374536131525]}, "properties": {"LegalName": "Extended Stay Hotel   #877"}}, {"type": "Feature", "geometry": {"type": "Point", "coordinates": [-97.60514062332071, 35.463374536131525]}, "properties": {"LegalName": "OKC AIRPORT ES LLC"}}, {"type": "Feature", "geometry": {"type": "Point", "coordinates": [-97.6018188667653, 35.463067016039204]}, "properties": {"LegalName": "Super 8 West"}}, {"type": "Feature", "geometry": {"type": "Point", "coordinates": [-97.60194711277667, 35.463406997140666]}, "properties": {"LegalName": "Red Roof Inn"}}, {"type": "Feature", "geometry": {"type": "Point", "coordinates": [-97.6033715481074, 35.458897602973295]}, "properties": {"LegalName": "Magnuson Hotel and Meridian Convention Center"}}, {"type": "Feature", "geometry": {"type": "Point", "coordinates": [-97.60215647808431, 35.46169730605776]}, "properties": {"LegalName": "Biltmore Hotel"}}, {"type": "Feature", "geometry": {"type": "Point", "coordinates": [-97.60215647808431, 35.46169730605776]}, "properties": {"LegalName": "Biltmore Hotel"}}, {"type": "Feature", "geometry": {"type": "Point", "coordinates": [-97.60341926066448, 35.46265700133052]}, "properties": {"LegalName": "Studio 6 Extended Stay / Third 4601A Inc."}}, {"type": "Feature", "geometry": {"type": "Point", "coordinates": [-97.60423204056146, 35.45925156529069]}, "properties": {"LegalName": "Route 66 Inn"}}, {"type": "Feature", "geometry": {"type": "Point", "coordinates": [-97.6029101958423, 35.456547771568076]}, "properties": {"LegalName": "Sleep Inn"}}, {"type": "Feature", "geometry": {"type": "Point", "coordinates": [-97.6029101958423, 35.456547771568076]}, "properties": {"LegalName": "Immanuel Happy Homes LLC"}}, {"type": "Feature", "geometry": {"type": "Point", "coordinates": [-97.60250764025487, 35.45634230826004]}, "properties": {"LegalName": "America's Best Value Inn & Suites"}}, {"type": "Feature", "geometry": {"type": "Point", "coordinates": [-97.60250764025487, 35.45634230826004]}, "properties": {"LegalName": "VRAJ LLC"}}, {"type": "Feature", "geometry": {"type": "Point", "coordinates": [-97.63737331099026, 35.45770092449041]}, "properties": {"LegalName": "Sands Hotel"}}, {"type": "Feature", "geometry": {"type": "Point", "coordinates": [-97.63724945473473, 35.46247101550278]}, "properties": {"LegalName": "Rodeway Inn & Suites"}}, {"type": "Feature", "geometry": {"type": "Point", "coordinates": [-97.65508113016683, 35.4633527325784]}, "properties": {"LegalName": "Super 40 Inn"}}, {"type": "Feature", "geometry": {"type": "Point", "coordinates": [-97.48621774399501, 35.448799489670286]}, "properties": {"LegalName": "Holiday Inn Express & Suites"}}, {"type": "Feature", "geometry": {"type": "Point", "coordinates": [-97.51544268505778, 35.43920289382582]}, "properties": {"LegalName": "Capitol Hotel"}}, {"type": "Feature", "geometry": {"type": "Point", "coordinates": [-97.60234223376465, 35.44706206341937]}, "properties": {"LegalName": "Embassy Suites"}}, {"type": "Feature", "geometry": {"type": "Point", "coordinates": [-97.60234223376465, 35.44706206341937]}, "properties": {"LegalName": "Embassy Suites Oklahoma City"}}, {"type": "Feature", "geometry": {"type": "Point", "coordinates": [-97.60201703943616, 35.44603325329953]}, "properties": {"LegalName": "Americ Inn OKC Airport"}}, {"type": "Feature", "geometry": {"type": "Point", "coordinates": [-97.60201703943616, 35.44603325329953]}, "properties": {"LegalName": "AmericInn of Oklahoma City"}}, {"type": "Feature", "geometry": {"type": "Point", "coordinates": [-97.60201703943616, 35.44603325329953]}, "properties": {"LegalName": "Hampton Inn OKC Airport"}}, {"type": "Feature", "geometry": {"type": "Point", "coordinates": [-97.60201703943616, 35.44603325329953]}, "properties": {"LegalName": "Krishna Krupa LLC"}}, {"type": "Feature", "geometry": {"type": "Point", "coordinates": [-97.60228200527064, 35.443400698847526]}, "properties": {"LegalName": "Wyndham Garden Hotel"}}, {"type": "Feature", "geometry": {"type": "Point", "coordinates": [-97.60228200527064, 35.443400698847526]}, "properties": {"LegalName": "Stars of Meridian, LLC"}}, {"type": "Feature", "geometry": {"type": "Point", "coordinates": [-97.60185198807383, 35.44560743685646]}, "properties": {"LegalName": "Wingate by Wyndham"}}, {"type": "Feature", "geometry": {"type": "Point", "coordinates": [-97.60185198807383, 35.44560743685646]}, "properties": {"LegalName": "Wingate Inn   #7831"}}, {"type": "Feature", "geometry": {"type": "Point", "coordinates": [-97.60185198807383, 35.44560743685646]}, "properties": {"LegalName": "Wingate By Windham"}}, {"type": "Feature", "geometry": {"type": "Point", "coordinates": [-97.60036548702867, 35.442129458452285]}, "properties": {"LegalName": "Governors Suites Hotel"}}, {"type": "Feature", "geometry": {"type": "Point", "coordinates": [-97.6002612538084, 35.44296314951821]}, "properties": {"LegalName": "Ramada Ltd"}}, {"type": "Feature", "geometry": {"type": "Point", "coordinates": [-97.6002612538084, 35.44296314951821]}, "properties": {"LegalName": "Kaly Hospitality LLC"}}, {"type": "Feature", "geometry": {"type": "Point", "coordinates": [-97.59947356319904, 35.4467853875296]}, "properties": {"LegalName": "Candlewood Leasing No 1 Inc"}}, {"type": "Feature", "geometry": {"type": "Point", "coordinates": [-97.57491240758439, 35.435615061622926]}, "properties": {"LegalName": "Bel-Aire Motel"}}, {"type": "Feature", "geometry": {"type": "Point", "coordinates": [-97.48810637496939, 35.426787545304464]}, "properties": {"LegalName": "Drover's Inn"}}, {"type": "Feature", "geometry": {"type": "Point", "coordinates": [-97.48810637496939, 35.426787545304464]}, "properties": {"LegalName": "Aum Enterprise"}}, {"type": "Feature", "geometry": {"type": "Point", "coordinates": [-97.48810637496939, 35.426787545304464]}, "properties": {"LegalName": "Aum Enterprises LLC"}}, {"type": "Feature", "geometry": {"type": "Point", "coordinates": [-97.48684799217713, 35.42165502912673]}, "properties": {"LegalName": "Courtesy Inn South"}}, {"type": "Feature", "geometry": {"type": "Point", "coordinates": [-97.48684799217713, 35.42165502912673]}, "properties": {"LegalName": "Courtesy Inn"}}, {"type": "Feature", "geometry": {"type": "Point", "coordinates": [-97.57624413220239, 35.43483797883846]}, "properties": {"LegalName": "Budget Inn"}}, {"type": "Feature", "geometry": {"type": "Point", "coordinates": [-97.57624413220239, 35.43483797883846]}, "properties": {"LegalName": "Budget Inn"}}, {"type": "Feature", "geometry": {"type": "Point", "coordinates": [-97.57624413220239, 35.43483797883846]}, "properties": {"LegalName": "MAA MELDI LLC"}}, {"type": "Feature", "geometry": {"type": "Point", "coordinates": [-97.48882841791561, 35.41762811066498]}, "properties": {"LegalName": "Best Value Inn"}}, {"type": "Feature", "geometry": {"type": "Point", "coordinates": [-97.51605422874347, 35.420532770571164]}, "properties": {"LegalName": "CITY INN"}}, {"type": "Feature", "geometry": {"type": "Point", "coordinates": [-97.49416940879492, 35.39782222985216]}, "properties": {"LegalName": "Magnuson Hotel OKC South"}}, {"type": "Feature", "geometry": {"type": "Point", "coordinates": [-97.49416940879492, 35.39782222985216]}, "properties": {"LegalName": "Managuson / formerly Ramada Inn Airport"}}, {"type": "Feature", "geometry": {"type": "Point", "coordinates": [-97.49264870300188, 35.39284750087218]}, "properties": {"LegalName": "Oklahoma City Residence Inn"}}, {"type": "Feature", "geometry": {"type": "Point", "coordinates": [-97.49264870300188, 35.39284750087218]}, "properties": {"LegalName": "CNI THL Propco FE, LLC"}}, {"type": "Feature", "geometry": {"type": "Point", "coordinates": [-97.49197118130174, 35.39324095304178]}, "properties": {"LegalName": "Oklahoma City Fairfield"}}, {"type": "Feature", "geometry": {"type": "Point", "coordinates": [-97.49197118130174, 35.39324095304178]}, "properties": {"LegalName": "CNI THL Propco FE, LLC"}}, {"type": "Feature", "geometry": {"type": "Point", "coordinates": [-97.55849633439419, 35.40535894095963]}, "properties": {"LegalName": "Pole Body Experience LLC (Home Sharing)"}}, {"type": "Feature", "geometry": {"type": "Point", "coordinates": [-97.5650615928546, 35.39260065687942]}, "properties": {"LegalName": "Cambridge Inn   /Knights' Inn"}}, {"type": "Feature", "geometry": {"type": "Point", "coordinates": [-97.5650615928546, 35.39260065687942]}, "properties": {"LegalName": "Knights Inn / Ramada Limited - Airport"}}, {"type": "Feature", "geometry": {"type": "Point", "coordinates": [-97.5650615928546, 35.39260065687942]}, "properties": {"LegalName": "Shyam LLC of Oklahoma"}}, {"type": "Feature", "geometry": {"type": "Point", "coordinates": [-97.56676215347433, 35.40018215973952]}, "properties": {"LegalName": "K AND K ENTERPRISES AND IMPORTS LLC"}}, {"type": "Feature", "geometry": {"type": "Point", "coordinates": [-97.5681073391948, 35.40269963185726]}, "properties": {"LegalName": "K AND K ENTERPRISES AND IMPORTS LLC"}}, {"type": "Feature", "geometry": {"type": "Point", "coordinates": [-97.59582270803091, 35.40295255392453]}, "properties": {"LegalName": "Quality Inn"}}, {"type": "Feature", "geometry": {"type": "Point", "coordinates": [-97.5326107946854, 35.38937803008719]}, "properties": {"LegalName": "QUALITY INN"}}, {"type": "Feature", "geometry": {"type": "Point", "coordinates": [-97.53371658035384, 35.38948320574625]}, "properties": {"LegalName": "Comfort Inn"}}, {"type": "Feature", "geometry": {"type": "Point", "coordinates": [-97.53371658035384, 35.38948320574625]}, "properties": {"LegalName": "Oklahoma City Comfort Inn"}}, {"type": "Feature", "geometry": {"type": "Point", "coordinates": [-97.53371658035384, 35.38948320574625]}, "properties": {"LegalName": "Suresh LLC"}}, {"type": "Feature", "geometry": {"type": "Point", "coordinates": [-97.61810916574142, 35.45805366469792]}, "properties": {"LegalName": "MICROTEL INN & SUITES"}}, {"type": "Feature", "geometry": {"type": "Point", "coordinates": [-97.48726523418702, 35.42955033191749]}, "properties": {"LegalName": "Executive Inn"}}, {"type": "Feature", "geometry": {"type": "Point", "coordinates": [-97.50421828985512, 35.59037265961836]}, "properties": {"LegalName": "The Links   OKC"}}, {"type": "Feature", "geometry": {"type": "Point", "coordinates": [-97.53165955299858, 35.52340621281607]}, "properties": {"LegalName": "SLEEP INN"}}, {"type": "Feature", "geometry": {"type": "Point", "coordinates": [-97.53713640363269, 35.52276973196267]}, "properties": {"LegalName": "Courtyard By Marriott  #311QD"}}, {"type": "Feature", "geometry": {"type": "Point", "coordinates": [-97.57140673575137, 35.52962952145767]}, "properties": {"LegalName": "Country Inn & Suites"}}, {"type": "Feature", "geometry": {"type": "Point", "coordinates": [-97.57140673575137, 35.52962952145767]}, "properties": {"LegalName": "Country Inn & Suites"}}, {"type": "Feature", "geometry": {"type": "Point", "coordinates": [-97.57140673575137, 35.52962952145767]}, "properties": {"LegalName": "Country Inn & Suites"}}, {"type": "Feature", "geometry": {"type": "Point", "coordinates": [-97.53978390035383, 35.52140779832549]}, "properties": {"LegalName": "Travelodge"}}, {"type": "Feature", "geometry": {"type": "Point", "coordinates": [-97.60167900531081, 35.45761119840805]}, "properties": {"LegalName": "Hilton Garden Inn Airport"}}, {"type": "Feature", "geometry": {"type": "Point", "coordinates": [-97.60167900531081, 35.45761119840805]}, "properties": {"LegalName": "Hospitality Ventures Management - Oklahoma City, LLC"}}, {"type": "Feature", "geometry": {"type": "Point", "coordinates": [-97.60167900531081, 35.45761119840805]}, "properties": {"LegalName": "NINE HOTEL LLC"}}, {"type": "Feature", "geometry": {"type": "Point", "coordinates": [-97.65808829692891, 35.459564566590174]}, "properties": {"LegalName": "Econo Lodge"}}, {"type": "Feature", "geometry": {"type": "Point", "coordinates": [-97.48528773071348, 35.43766548495801]}, "properties": {"LegalName": "Days Inn South"}}, {"type": "Feature", "geometry": {"type": "Point", "coordinates": [-97.48534169329426, 35.43684897934882]}, "properties": {"LegalName": "Royal Inn"}}, {"type": "Feature", "geometry": {"type": "Point", "coordinates": [-97.7259076733275, 35.46638297346912]}, "properties": {"LegalName": "Best Western Inn & Suites  YUKON"}}, {"type": "Feature", "geometry": {"type": "Point", "coordinates": [-97.72582584830313, 35.470242005703604]}, "properties": {"LegalName": "America's Best Value"}}, {"type": "Feature", "geometry": {"type": "Point", "coordinates": [-97.72582584830313, 35.470242005703604]}, "properties": {"LegalName": "America's Best Value Inn"}}, {"type": "Feature", "geometry": {"type": "Point", "coordinates": [-97.77268797123456, 35.436552841843756]}, "properties": {"LegalName": "Jeffrey Avers"}}, {"type": "Feature", "geometry": {"type": "Point", "coordinates": [-97.50765565690772, 35.40887953814883]}, "properties": {"LegalName": "Swank Motel"}}, {"type": "Feature", "geometry": {"type": "Point", "coordinates": [-97.48530405302655, 35.433591196833966]}, "properties": {"LegalName": "Plaza Inn"}}, {"type": "Feature", "geometry": {"type": "Point", "coordinates": [-97.48530405302655, 35.433591196833966]}, "properties": {"LegalName": "PLAZA HOTELS LLC"}}, {"type": "Feature", "geometry": {"type": "Point", "coordinates": [-97.48525232854306, 35.43421788130619]}, "properties": {"LegalName": "AMERICA'S BEST VALUE INN"}}, {"type": "Feature", "geometry": {"type": "Point", "coordinates": [-97.48525232854306, 35.43421788130619]}, "properties": {"LegalName": "OKC SAI ENTERPRISE LLC"}}, {"type": "Feature", "geometry": {"type": "Point", "coordinates": [-97.48445489068556, 35.4268552448895]}, "properties": {"LegalName": "Super 8"}}, {"type": "Feature", "geometry": {"type": "Point", "coordinates": [-97.48445489068556, 35.4268552448895]}, "properties": {"LegalName": "Studio 6"}}, {"type": "Feature", "geometry": {"type": "Point", "coordinates": [-97.48445489068556, 35.4268552448895]}, "properties": {"LegalName": "Super 8"}}, {"type": "Feature", "geometry": {"type": "Point", "coordinates": [-97.48445489068556, 35.4268552448895]}, "properties": {"LegalName": "Studio 6"}}, {"type": "Feature", "geometry": {"type": "Point", "coordinates": [-97.50860167189643, 35.417714833842915]}, "properties": {"LegalName": "Catalina Motel"}}, {"type": "Feature", "geometry": {"type": "Point", "coordinates": [-97.50860167189643, 35.417714833842915]}, "properties": {"LegalName": "Catalina Motel"}}, {"type": "Feature", "geometry": {"type": "Point", "coordinates": [-97.5073263984876, 35.41950208135164]}, "properties": {"LegalName": "Dream House Motel"}}, {"type": "Feature", "geometry": {"type": "Point", "coordinates": [-97.49600449304897, 35.385148778182405]}, "properties": {"LegalName": "Days Inn"}}, {"type": "Feature", "geometry": {"type": "Point", "coordinates": [-97.49600449304897, 35.385148778182405]}, "properties": {"LegalName": "Days Inn"}}, {"type": "Feature", "geometry": {"type": "Point", "coordinates": [-97.49590387055039, 35.38355910603629]}, "properties": {"LegalName": "Rodeway Inn S I-35 /  Sunset Inn & Suites"}}, {"type": "Feature", "geometry": {"type": "Point", "coordinates": [-97.49590387055039, 35.38355910603629]}, "properties": {"LegalName": "Sunset Inn & Suites"}}, {"type": "Feature", "geometry": {"type": "Point", "coordinates": [-97.49590387055039, 35.38355910603629]}, "properties": {"LegalName": "La Quinta Inn  #807"}}, {"type": "Feature", "geometry": {"type": "Point", "coordinates": [-97.50377037113005, 35.38633343094853]}, "properties": {"LegalName": "Chieftain Motel"}}, {"type": "Feature", "geometry": {"type": "Point", "coordinates": [-97.50377037113005, 35.38633343094853]}, "properties": {"LegalName": "Chieftain Motel"}}, {"type": "Feature", "geometry": {"type": "Point", "coordinates": [-97.43888057463286, 35.59287552858548]}, "properties": {"LegalName": "Holiday Inn Express and Suites"}}, {"type": "Feature", "geometry": {"type": "Point", "coordinates": [-97.50101773297172, 35.46514498523074]}, "properties": {"LegalName": "Shri Krishnapriya Hospitality"}}, {"type": "Feature", "geometry": {"type": "Point", "coordinates": [-97.59244364840298, 35.53748278400829]}, "properties": {"LegalName": "NW Hotel LLC"}}, {"type": "Feature", "geometry": {"type": "Point", "coordinates": [-97.52099076253364, 35.46818436144056]}, "properties": {"LegalName": "Test Hotel 20181101"}}, {"type": "Feature", "geometry": {"type": "Point", "coordinates": [-97.52099076253364, 35.46818436144056]}, "properties": {"LegalName": "legal hotel name 20181105"}}, {"type": "Feature", "geometry": {"type": "Point", "coordinates": [-97.52099076253364, 35.46818436144056]}, "properties": {"LegalName": "legal name test"}}, {"type": "Feature", "geometry": {"type": "Point", "coordinates": [-97.52099076253364, 35.46818436144056]}, "properties": {"LegalName": "EVOLVE VACATION RENTAL NETWORK INC"}}, {"type": "Feature", "geometry": {"type": "Point", "coordinates": [-97.5206467171879, 35.46760139201235]}, "properties": {"LegalName": "Airbnb, Inc."}}, {"type": "Feature", "geometry": {"type": "Point", "coordinates": [-97.53371047148235, 35.51047143064488]}, "properties": {"LegalName": "Bradford House OKC, LLC"}}, {"type": "Feature", "geometry": {"type": "Point", "coordinates": [-97.47533108607267, 35.6039445755085]}, "properties": {"LegalName": "Debra Gardner"}}, {"type": "Feature", "geometry": {"type": "Point", "coordinates": [-97.56238464565597, 35.607515522511555]}, "properties": {"LegalName": "Quail Springs Hampton Inn"}}, {"type": "Feature", "geometry": {"type": "Point", "coordinates": [-97.56238464565597, 35.607515522511555]}, "properties": {"LegalName": "Baymont Inn & Suites"}}, {"type": "Feature", "geometry": {"type": "Point", "coordinates": [-97.56178235416039, 35.60754022602117]}, "properties": {"LegalName": "Quail Springs Fairfield"}}, {"type": "Feature", "geometry": {"type": "Point", "coordinates": [-97.60083012930474, 35.59941008149149]}, "properties": {"LegalName": "Rom Villaflor (Home Sharing)"}}, {"type": "Feature", "geometry": {"type": "Point", "coordinates": [-97.59568892366143, 35.607960916089986]}, "properties": {"LegalName": "Wiley Bryant"}}, {"type": "Feature", "geometry": {"type": "Point", "coordinates": [-97.57571540440726, 35.580561696006676]}, "properties": {"LegalName": "My OKC Dream Home LLC"}}, {"type": "Feature", "geometry": {"type": "Point", "coordinates": [-97.57571540440726, 35.580561696006676]}, "properties": {"LegalName": "My OKC Dream Home LLC"}}, {"type": "Feature", "geometry": {"type": "Point", "coordinates": [-97.53726228774562, 35.52371443322464]}, "properties": {"LegalName": "HYATT PLACE"}}, {"type": "Feature", "geometry": {"type": "Point", "coordinates": [-97.59924698091285, 35.44617910987067]}, "properties": {"LegalName": "Hyatt Place Oklahoma City Airport"}}, {"type": "Feature", "geometry": {"type": "Point", "coordinates": [-97.59924698091285, 35.44617910987067]}, "properties": {"LegalName": "Hyatt Place"}}, {"type": "Feature", "geometry": {"type": "Point", "coordinates": [-97.62665371884007, 35.362328585205375]}, "properties": {"LegalName": "Joe Milam"}}, {"type": "Feature", "geometry": {"type": "Point", "coordinates": [-97.43121202277338, 35.592595402033695]}, "properties": {"LegalName": "Sleep Inn    N I-35"}}, {"type": "Feature", "geometry": {"type": "Point", "coordinates": [-97.44317650463393, 35.39047218424506]}, "properties": {"LegalName": "Wood Spring Suites  /VALUE PLACE I-240"}}, {"type": "Feature", "geometry": {"type": "Point", "coordinates": [-97.44317650463393, 35.39047218424506]}, "properties": {"LegalName": "BSREP II WS HOTEL TRS SUB LLC"}}, {"type": "Feature", "geometry": {"type": "Point", "coordinates": [-97.51345020938302, 35.46406284383576]}, "properties": {"LegalName": "Marriott Courtyard Downtown"}}, {"type": "Feature", "geometry": {"type": "Point", "coordinates": [-97.51345020938302, 35.46406284383576]}, "properties": {"LegalName": "JDHQ HOTELS LLC"}}, {"type": "Feature", "geometry": {"type": "Point", "coordinates": [-97.72341594389161, 35.44538829253315]}, "properties": {"LegalName": "The Links @ Mustang Creek"}}, {"type": "Feature", "geometry": {"type": "Point", "coordinates": [-97.72650372748548, 35.4709633281793]}, "properties": {"LegalName": "Comfort Suites     Yukon"}}, {"type": "Feature", "geometry": {"type": "Point", "coordinates": [-97.50562744013003, 35.46365387201764]}, "properties": {"LegalName": "RESIDENCE INN OKC DOWNTOWN"}}, {"type": "Feature", "geometry": {"type": "Point", "coordinates": [-97.50562744013003, 35.46365387201764]}, "properties": {"LegalName": "JDHQ HOTELS LLC"}}, {"type": "Feature", "geometry": {"type": "Point", "coordinates": [-97.51527743998534, 35.46172202283875]}, "properties": {"LegalName": "Omni OKC, LLC"}}, {"type": "Feature", "geometry": {"type": "Point", "coordinates": [-97.57430139892477, 35.50922452617848]}, "properties": {"LegalName": "Wood Spring Suites   / Value Place I-44"}}, {"type": "Feature", "geometry": {"type": "Point", "coordinates": [-97.57430139892477, 35.50922452617848]}, "properties": {"LegalName": "BSREP II WS Hotel Term TRS Sub LLC"}}, {"type": "Feature", "geometry": {"type": "Point", "coordinates": [-97.5612991661709, 35.60756152016724]}, "properties": {"LegalName": "COMFORT INN & SUITES  HIGHLAND"}}, {"type": "Feature", "geometry": {"type": "Point", "coordinates": [-97.5612991661709, 35.60756152016724]}, "properties": {"LegalName": "Memorial Lodging, LLC"}}, {"type": "Feature", "geometry": {"type": "Point", "coordinates": [-97.5612991661709, 35.60756152016724]}, "properties": {"LegalName": "Memorial Lodging LLC"}}, {"type": "Feature", "geometry": {"type": "Point", "coordinates": [-97.56019064981938, 35.60757583092647]}, "properties": {"LegalName": "Courtyard by Marriott"}}, {"type": "Feature", "geometry": {"type": "Point", "coordinates": [-97.56019064981938, 35.60757583092647]}, "properties": {"LegalName": "Kilpatrick Lodging LLC"}}, {"type": "Feature", "geometry": {"type": "Point", "coordinates": [-97.50734792602132, 35.46626976068105]}, "properties": {"LegalName": "Hampton Inn & Suites"}}, {"type": "Feature", "geometry": {"type": "Point", "coordinates": [-97.4862460528426, 35.421320013255155]}, "properties": {"LegalName": "Motel 6"}}, {"type": "Feature", "geometry": {"type": "Point", "coordinates": [-97.60156545532233, 35.44122308049724]}, "properties": {"LegalName": "Country Inn & Suites"}}, {"type": "Feature", "geometry": {"type": "Point", "coordinates": [-97.48645754320049, 35.53619438077121]}, "properties": {"LegalName": "Park Hill Inn & Suites"}}, {"type": "Feature", "geometry": {"type": "Point", "coordinates": [-97.52614507788653, 35.32437958741695]}, "properties": {"LegalName": "Orr Family Farm & RR, LLC"}}, {"type": "Feature", "geometry": {"type": "Point", "coordinates": [-97.72696699755348, 35.471400644816136]}, "properties": {"LegalName": "Yukon Joint Venture LLC"}}, {"type": "Feature", "geometry": {"type": "Point", "coordinates": [-97.72696699755348, 35.471400644816136]}, "properties": {"LegalName": "STUDIO 6"}}, {"type": "Feature", "geometry": {"type": "Point", "coordinates": [-97.5701092035629, 35.61089940156217]}, "properties": {"LegalName": "La Quinta Inn & Suites @ Quail Springs"}}, {"type": "Feature", "geometry": {"type": "Point", "coordinates": [-97.5701092035629, 35.61089940156217]}, "properties": {"LegalName": "QUAIL POINTE LODGING LLC"}}, {"type": "Feature", "geometry": {"type": "Point", "coordinates": [-97.63488808610585, 35.463961258907396]}, "properties": {"LegalName": "Homewood Suites"}}, {"type": "Feature", "geometry": {"type": "Point", "coordinates": [-97.63488808610585, 35.463961258907396]}, "properties": {"LegalName": "Homewood Suites Oklahoma City West"}}, {"type": "Feature", "geometry": {"type": "Point", "coordinates": [-97.57370409549584, 35.611443157825846]}, "properties": {"LegalName": "Hilton Garden Inn"}}, {"type": "Feature", "geometry": {"type": "Point", "coordinates": [-97.7266429490811, 35.46794816331768]}, "properties": {"LegalName": "Home 2 Suites - Yukon"}}, {"type": "Feature", "geometry": {"type": "Point", "coordinates": [-97.55725685243405, 35.64981486838749]}, "properties": {"LegalName": "Adewale Tawose"}}, {"type": "Feature", "geometry": {"type": "Point", "coordinates": [-97.48032402757569, 35.46373421904562]}, "properties": {"LegalName": "ECONO LODGE BRICKTOWN"}}, {"type": "Feature", "geometry": {"type": "Point", "coordinates": [-97.58289410748448, 35.607604358741504]}, "properties": {"LegalName": "Country Inn & Suites"}}, {"type": "Feature", "geometry": {"type": "Point", "coordinates": [-97.43844277968684, 35.589344117719385]}, "properties": {"LegalName": "Economy Inn"}}, {"type": "Feature", "geometry": {"type": "Point", "coordinates": [-97.53126536657929, 35.38849554533262]}, "properties": {"LegalName": "Hampton Inn & Suites"}}, {"type": "Feature", "geometry": {"type": "Point", "coordinates": [-97.59836846939498, 35.44842748629082]}, "properties": {"LegalName": "Holiday Inn Airport"}}, {"type": "Feature", "geometry": {"type": "Point", "coordinates": [-97.59836846939498, 35.44842748629082]}, "properties": {"LegalName": "Holiday Inn OKC Airport"}}, {"type": "Feature", "geometry": {"type": "Point", "coordinates": [-97.59936085685776, 35.44843084147974]}, "properties": {"LegalName": "Staybridge Suites Airport"}}, {"type": "Feature", "geometry": {"type": "Point", "coordinates": [-97.59936085685776, 35.44843084147974]}, "properties": {"LegalName": "Staybridge Suites SW 15"}}, {"type": "Feature", "geometry": {"type": "Point", "coordinates": [-97.61733321719191, 35.4617463927291]}, "properties": {"LegalName": "SpringHill Suites"}}, {"type": "Feature", "geometry": {"type": "Point", "coordinates": [-97.61733321719191, 35.4617463927291]}, "properties": {"LegalName": "MacArthur Lodging LLC"}}, {"type": "Feature", "geometry": {"type": "Point", "coordinates": [-97.59964522665246, 35.444831350694145]}, "properties": {"LegalName": "DoubleTree by Hilton"}}, {"type": "Feature", "geometry": {"type": "Point", "coordinates": [-97.56465327808036, 35.61144464616452]}, "properties": {"LegalName": "Staybridge Suites"}}, {"type": "Feature", "geometry": {"type": "Point", "coordinates": [-97.7265392983162, 35.46736242208386]}, "properties": {"LegalName": "La Quinta Inn & Suites"}}, {"type": "Feature", "geometry": {"type": "Point", "coordinates": [-97.51630023686081, 35.46851055165395]}, "properties": {"LegalName": "FNC Liquor License, LLC"}}, {"type": "Feature", "geometry": {"type": "Point", "coordinates": [-97.56438270381743, 35.511968656638786]}, "properties": {"LegalName": "SUPER 8   Fairgrounds"}}, {"type": "Feature", "geometry": {"type": "Point", "coordinates": [-97.5816577979241, 35.60748463200401]}, "properties": {"LegalName": "Holiday Inn Express"}}, {"type": "Feature", "geometry": {"type": "Point", "coordinates": [-97.5816577979241, 35.60748463200401]}, "properties": {"LegalName": "Om Ganeshaya Namaha Llc"}}, {"type": "Feature", "geometry": {"type": "Point", "coordinates": [-97.43620266885209, 35.592634837580746]}, "properties": {"LegalName": "Days Inn North"}}, {"type": "Feature", "geometry": {"type": "Point", "coordinates": [-97.60262016753819, 35.44847998807498]}, "properties": {"LegalName": "Fairfield Inn & Suites"}}, {"type": "Feature", "geometry": {"type": "Point", "coordinates": [-97.6035776977344, 35.448471652758286]}, "properties": {"LegalName": "Towne Place Suites"}}, {"type": "Feature", "geometry": {"type": "Point", "coordinates": [-97.52310883913043, 35.38885861033528]}, "properties": {"LegalName": "Holiday Inn Express & Suites"}}, {"type": "Feature", "geometry": {"type": "Point", "coordinates": [-97.52310883913043, 35.38885861033528]}, "properties": {"LegalName": "WALKER HOTEL LLC"}}, {"type": "Feature", "geometry": {"type": "Point", "coordinates": [-97.57519960997709, 35.61143994024887]}, "properties": {"LegalName": "Holiday Inn        Quail Springs"}}, {"type": "Feature", "geometry": {"type": "Point", "coordinates": [-97.57519960997709, 35.61143994024887]}, "properties": {"LegalName": "Holiday Inn Quail Springs"}}, {"type": "Feature", "geometry": {"type": "Point", "coordinates": [-97.61443973064326, 35.607788322221055]}, "properties": {"LegalName": "HIL OKC LLC"}}, {"type": "Feature", "geometry": {"type": "Point", "coordinates": [-97.61443973064326, 35.607788322221055]}, "properties": {"LegalName": "HIL OKC LLC"}}, {"type": "Feature", "geometry": {"type": "Point", "coordinates": [-97.53515932693037, 35.60960774767036]}, "properties": {"LegalName": "Best Western Memorial Inn & Suites"}}, {"type": "Feature", "geometry": {"type": "Point", "coordinates": [-97.53515932693037, 35.60960774767036]}, "properties": {"LegalName": "Best Western Plus  - Memorial"}}, {"type": "Feature", "geometry": {"type": "Point", "coordinates": [-97.60167735237582, 35.44836556612867]}, "properties": {"LegalName": "MINAL HOTELS LLC"}}, {"type": "Feature", "geometry": {"type": "Point", "coordinates": [-97.60289407883499, 35.46272694645101]}, "properties": {"LegalName": "Meridian Extended Stay Hotel"}}, {"type": "Feature", "geometry": {"type": "Point", "coordinates": [-97.49920939505441, 35.47490226752844]}, "properties": {"LegalName": "Embassy Suites    OU Medical"}}, {"type": "Feature", "geometry": {"type": "Point", "coordinates": [-97.62028111409371, 35.45737631352161]}, "properties": {"LegalName": "Comfort Inn & Suites"}}, {"type": "Feature", "geometry": {"type": "Point", "coordinates": [-97.59720509109545, 35.448114209746]}, "properties": {"LegalName": "Hampton Inn & Suites OKC Airport"}}, {"type": "Feature", "geometry": {"type": "Point", "coordinates": [-97.5062566413496, 35.4662042374626]}, "properties": {"LegalName": "Hilton Garden Inn Sheridan"}}, {"type": "Feature", "geometry": {"type": "Point", "coordinates": [-97.5062566413496, 35.4662042374626]}, "properties": {"LegalName": "Homewood Suites - Bricktown"}}, {"type": "Feature", "geometry": {"type": "Point", "coordinates": [-97.5062566413496, 35.4662042374626]}, "properties": {"LegalName": "Homewood Suites OKC Bricktown"}}, {"type": "Feature", "geometry": {"type": "Point", "coordinates": [-97.56259023867024, 35.62024979731507]}, "properties": {"LegalName": "Julia Capps (Home Sharing)"}}, {"type": "Feature", "geometry": {"type": "Point", "coordinates": [-97.50921905602723, 35.469252172917564]}, "properties": {"LegalName": "Aloft OKC Downtown-Bricktown"}}, {"type": "Feature", "geometry": {"type": "Point", "coordinates": [-97.50921905602723, 35.469252172917564]}, "properties": {"LegalName": "OKC HH LODGING LLC"}}, {"type": "Feature", "geometry": {"type": "Point", "coordinates": [-97.50921905602723, 35.469252172917564]}, "properties": {"LegalName": "OKC HH LODGING LLC"}}, {"type": "Feature", "geometry": {"type": "Point", "coordinates": [-97.5963959758704, 35.448118328030446]}, "properties": {"LegalName": "Premier Hospitality"}}, {"type": "Feature", "geometry": {"type": "Point", "coordinates": [-97.43871741330045, 35.58857178442045]}, "properties": {"LegalName": "Super 8 Motel (North)"}}, {"type": "Feature", "geometry": {"type": "Point", "coordinates": [-97.61530924455934, 35.60777027195672]}, "properties": {"LegalName": "Home 2 Suites by Hilton"}}, {"type": "Feature", "geometry": {"type": "Point", "coordinates": [-97.47633639131986, 35.60852843530566]}, "properties": {"LegalName": "GC Mgmt"}}, {"type": "Feature", "geometry": {"type": "Point", "coordinates": [-97.60141297772908, 35.46146670821857]}, "properties": {"LegalName": "Meridian Joseph Investments LLC"}}, {"type": "Feature", "geometry": {"type": "Point", "coordinates": [-97.59876108468119, 35.46468304634375]}, "properties": {"LegalName": "Sonesta Extended Stay Suites OKC"}}, {"type": "Feature", "geometry": {"type": "Point", "coordinates": [-97.59876108468119, 35.46468304634375]}, "properties": {"LegalName": "Residence Inn OKC"}}, {"type": "Feature", "geometry": {"type": "Point", "coordinates": [-97.5742033539687, 35.6103990366434]}, "properties": {"LegalName": "Springhill Suites OKC Quail Springs"}}, {"type": "Feature", "geometry": {"type": "Point", "coordinates": [-97.5742033539687, 35.6103990366434]}, "properties": {"LegalName": "SpringHill  - Quail Springs"}}, {"type": "Feature", "geometry": {"type": "Point", "coordinates": [-97.4329892483885, 35.59066491042454]}, "properties": {"LegalName": "Budget Lodge formerly  KNIGHT'S INN -"}}, {"type": "Feature", "geometry": {"type": "Point", "coordinates": [-97.43858570808531, 35.58887035006969]}, "properties": {"LegalName": "America's Best Value Inn"}}, {"type": "Feature", "geometry": {"type": "Point", "coordinates": [-97.43739733572944, 35.593347081004566]}, "properties": {"LegalName": "Baymont Inn & Suites"}}, {"type": "Feature", "geometry": {"type": "Point", "coordinates": [-97.43739733572944, 35.593347081004566]}, "properties": {"LegalName": "Frontier Lodging LLC"}}, {"type": "Feature", "geometry": {"type": "Point", "coordinates": [-97.43686786497452, 35.59165174204131]}, "properties": {"LegalName": "Motel 6"}}, {"type": "Feature", "geometry": {"type": "Point", "coordinates": [-97.43686786497452, 35.59165174204131]}, "properties": {"LegalName": "Nuram LLC"}}, {"type": "Feature", "geometry": {"type": "Point", "coordinates": [-97.39865316660367, 35.56708023812878]}, "properties": {"LegalName": "Phyllis Fields"}}, {"type": "Feature", "geometry": {"type": "Point", "coordinates": [-97.45860952131756, 35.57844803153237]}, "properties": {"LegalName": "Wangshi China Palace Bed and Breakfast/Inn LLC"}}, {"type": "Feature", "geometry": {"type": "Point", "coordinates": [-97.43385506554105, 35.590538156833986]}, "properties": {"LegalName": "Hampton Inn Oklahoma City Northeast"}}, {"type": "Feature", "geometry": {"type": "Point", "coordinates": [-97.43385506554105, 35.590538156833986]}, "properties": {"LegalName": "WOW HOSPITALITY, LLC"}}, {"type": "Feature", "geometry": {"type": "Point", "coordinates": [-97.43385506554105, 35.590538156833986]}, "properties": {"LegalName": "HIGHLIFE HOSPITALITY GROUP LLC"}}, {"type": "Feature", "geometry": {"type": "Point", "coordinates": [-97.51042315931431, 35.466247010814676]}, "properties": {"LegalName": "Sheridan Properties LLC"}}, {"type": "Feature", "geometry": {"type": "Point", "coordinates": [-97.57173213554611, 35.53020572650182]}, "properties": {"LegalName": "YOG HOTEL LLC"}}, {"type": "Feature", "geometry": {"type": "Point", "coordinates": [-97.59783824977629, 35.611249180376575]}, "properties": {"LegalName": "MEMORIAL HOTEL LLC"}}, {"type": "Feature", "geometry": {"type": "Point", "coordinates": [-97.66833048240078, 35.600424961828736]}, "properties": {"LegalName": "WATSON REAL ESTATE INVESTMENTS"}}, {"type": "Feature", "geometry": {"type": "Point", "coordinates": [-97.50551051081277, 35.46676672318803]}, "properties": {"LegalName": "Supreme Bright Bricktown II, LLC"}}, {"type": "Feature", "geometry": {"type": "Point", "coordinates": [-97.50551051081277, 35.46676672318803]}, "properties": {"LegalName": "Summit Hotel TRS 179, LLC"}}, {"type": "Feature", "geometry": {"type": "Point", "coordinates": [-97.50585245401513, 35.4673261707051]}, "properties": {"LegalName": "Supreme Bright Bricktown III, LLC"}}, {"type": "Feature", "geometry": {"type": "Point", "coordinates": [-97.50585245401513, 35.4673261707051]}, "properties": {"LegalName": "Summit Hotel TRS 180, LLC"}}, {"type": "Feature", "geometry": {"type": "Point", "coordinates": [-97.50585245401513, 35.4673261707051]}, "properties": {"LegalName": "Summit Hotel TRS 180 LLC"}}, {"type": "Feature", "geometry": {"type": "Point", "coordinates": [-97.5995829399731, 35.458400877221486]}, "properties": {"LegalName": "MERIDIAN HOTEL LLC"}}, {"type": "Feature", "geometry": {"type": "Point", "coordinates": [-97.60067525617883, 35.45786593645756]}, "properties": {"LegalName": "MERIDIAN HOTEL LLC"}}, {"type": "Feature", "geometry": {"type": "Point", "coordinates": [-97.47926912041589, 35.464454673570316]}, "properties": {"LegalName": "Maple 19 Management Inc"}}, {"type": "Feature", "geometry": {"type": "Point", "coordinates": [-97.49618122400268, 35.46536249848695]}, "properties": {"LegalName": "Bricktown OKC Joseph Investments LLC"}}, {"type": "Feature", "geometry": {"type": "Point", "coordinates": [-97.4951874608767, 35.46532727390942]}, "properties": {"LegalName": "Bricktown OKC Joseph Investments LLC"}}, {"type": "Feature", "geometry": {"type": "Point", "coordinates": [-97.49521980656291, 35.46482423625643]}, "properties": {"LegalName": "Bricktown OKC Joseph Investments LLC"}}, {"type": "Feature", "geometry": {"type": "Point", "coordinates": [-97.60400024194489, 35.458738099910725]}, "properties": {"LegalName": "4 Star Investments LLC"}}, {"type": "Feature", "geometry": {"type": "Point", "coordinates": [-97.60447837168103, 35.45871298624227]}, "properties": {"LegalName": "Global Core Hospitality, LLC"}}, {"type": "Feature", "geometry": {"type": "Point", "coordinates": [-97.60040591480528, 35.4585122612395]}, "properties": {"LegalName": "MERIDIAN HOTEL LLC"}}, {"type": "Feature", "geometry": {"type": "Point", "coordinates": [-97.48875204078982, 35.417993244092344]}, "properties": {"LegalName": "A & K OKC HOSPITALITY LLC"}}, {"type": "Feature", "geometry": {"type": "Point", "coordinates": [-97.7510521839906, 35.47826706743775]}, "properties": {"LegalName": "Star Lodging LLC"}}, {"type": "Feature", "geometry": {"type": "Point", "coordinates": [-97.60055965540093, 35.45839870267334]}, "properties": {"LegalName": "La Quinta Inn & Suites"}}, {"type": "Feature", "geometry": {"type": "Point", "coordinates": [-97.60055965540093, 35.45839870267334]}, "properties": {"LegalName": "La Quinta Inn - #940"}}, {"type": "Feature", "geometry": {"type": "Point", "coordinates": [-97.5135515178795, 35.46097545563753]}, "properties": {"LegalName": "OKCDT ENTERPRISES LLC"}}, {"type": "Feature", "geometry": {"type": "Point", "coordinates": [-97.56260414106376, 35.61192367662662]}, "properties": {"LegalName": "QUAIL SPRINGS LODGING LLC"}}, {"type": "Feature", "geometry": {"type": "Point", "coordinates": [-97.60439820250451, 35.44872550882313]}, "properties": {"LegalName": "MINAL HOTELS LLC"}}, {"type": "Feature", "geometry": {"type": "Point", "coordinates": [-97.53018795370664, 35.53537058513279]}, "properties": {"LegalName": "Classen Curve Hotel LLC"}}, {"type": "Feature", "geometry": {"type": "Point", "coordinates": [-97.56443976601025, 35.39263608459765]}, "properties": {"LegalName": "May Hospitality LLC"}}, {"type": "Feature", "geometry": {"type": "Point", "coordinates": [-97.53206238882221, 35.38810588806078]}, "properties": {"LegalName": "Home 2 Suites by Hilton"}}, {"type": "Feature", "geometry": {"type": "Point", "coordinates": [-97.53340215437794, 35.38898308145009]}, "properties": {"LegalName": "Best Western Barsana Hotel & Suites"}}, {"type": "Feature", "geometry": {"type": "Point", "coordinates": [-97.53340215437794, 35.38898308145009]}, "properties": {"LegalName": "Best Western Plus"}}, {"type": "Feature", "geometry": {"type": "Point", "coordinates": [-97.57253234293341, 35.611576786723255]}, "properties": {"LegalName": "Four Points by Sheraton - Quail Springs"}}, {"type": "Feature", "geometry": {"type": "Point", "coordinates": [-97.59565086220769, 35.45929351238805]}, "properties": {"LegalName": "Comfort Suites"}}, {"type": "Feature", "geometry": {"type": "Point", "coordinates": [-97.5568340817178, 35.60241069386723]}, "properties": {"LegalName": "13111 HIGHLAND PARK HOTEL LLC"}}]}