{"type": "FeatureCollection", "features": [{"type": "Feature", "id": 1, "geometry": {"type": "Point", "coordinates": [-89.952772081966, 35.0868441218588]}, "properties": {"FID": 1, "user_name": "Cherokee Library", "staddr": "3300 Sharpe Avenue", "postal": "38111", "user_phone": "901-415-2762"}}, {"type": "Feature", "id": 2, "geometry": {"type": "Point", "coordinates": [-90.0550845166371, 35.1189833556974]}, "properties": {"FID": 2, "user_name": "Gaston Park Library", "staddr": "1040 S 3rd Street", "postal": "38106", "user_phone": "901-415-2769"}}, {"type": "Feature", "id": 3, "geometry": {"type": "Point", "coordinates": [-90.0174770153519, 35.1654373728365]}, "properties": {"FID": 3, "user_name": "North Library", "staddr": "1192 Vollintine Avenue", "postal": "38107", "user_phone": "901-415-2775"}}, {"type": "Feature", "id": 4, "geometry": {"type": "Point", "coordinates": [-90.0544528238387, 35.1448511483619]}, "properties": {"FID": 4, "user_name": "Cossitt Downtown Library (temporarily closed)", "staddr": "33 S Front Street", "postal": "38103", "user_phone": "901-415-2766"}}, {"type": "Feature", "id": 5, "geometry": {"type": "Point", "coordinates": [-89.7809844112016, 35.1424436263723]}, "properties": {"FID": 5, "user_name": "Cordova Library", "staddr": "8457 Trinity Road", "postal": "38018", "user_phone": "901-415-2764"}}, {"type": "Feature", "id": 6, "geometry": {"type": "Point", "coordinates": [-89.9752448071021, 35.1778426202408]}, "properties": {"FID": 6, "user_name": "Hollywood Library", "staddr": "1530 N Hollywood Street", "postal": "38108", "user_phone": "901-415-2772"}}, {"type": "Feature", "id": 7, "geometry": {"type": "Point", "coordinates": [-89.9083350310368, 35.0624254850482]}, "properties": {"FID": 7, "user_name": "Parkway Village Library", "staddr": "4655 Knight Arnold Road", "postal": "38118", "user_phone": "901-415-2776"}}, {"type": "Feature", "id": 8, "geometry": {"type": "Point", "coordinates": [-90.0624416832371, 35.0483659221496]}, "properties": {"FID": 8, "user_name": "Levi Library", "staddr": "3676 S 3rd Street", "postal": "38109", "user_phone": "901-415-2773"}}, {"type": "Feature", "id": 9, "geometry": {"type": "Point", "coordinates": [-89.9354007503443, 35.1560827912878]}, "properties": {"FID": 9, "user_name": "Randolph Library", "staddr": "3752 Given Avenue", "postal": "38122", "user_phone": "901-415-2779"}}, {"type": "Feature", "id": 10, "geometry": {"type": "Point", "coordinates": [-89.9212043798782, 35.212388440774]}, "properties": {"FID": 10, "user_name": "Raleigh Library", "staddr": "3157 Powers Road", "postal": "38128", "user_phone": "901-415-2778"}}, {"type": "Feature", "id": 11, "geometry": {"type": "Point", "coordinates": [-90.0559910413534, 35.0949420564308]}, "properties": {"FID": 11, "user_name": "South Library", "staddr": "1929 S 3rd Street", "postal": "38109", "user_phone": "901-415-2780"}}, {"type": "Feature", "id": 12, "geometry": {"type": "Point", "coordinates": [-89.9604772340371, 35.1323867066812]}, "properties": {"FID": 12, "user_name": "Benjamin L. Hooks Central Library", "staddr": "3030 Poplar Avenue", "postal": "38111", "user_phone": "901-415-2700"}}, {"type": "Feature", "id": 13, "geometry": {"type": "Point", "coordinates": [-90.0442742006938, 35.134678604634]}, "properties": {"FID": 13, "user_name": "Cornelia Crenshaw Memorial Library", "staddr": "531 Vance Avenue", "postal": "38126", "user_phone": "901-415-2765"}}, {"type": "Feature", "id": 14, "geometry": {"type": "Point", "coordinates": [-90.0074864152658, 35.0361269998612]}, "properties": {"FID": 14, "user_name": "Whitehaven Library", "staddr": "4120 Millbranch Road", "postal": "38116", "user_phone": "901-415-2781"}}, {"type": "Feature", "id": 15, "geometry": {"type": "Point", "coordinates": [-89.9755612245708, 35.1095216837787]}, "properties": {"FID": 15, "user_name": "Orange Mound Library", "staddr": "843 Dallas St.", "postal": "38114", "user_phone": "901-415-2761"}}, {"type": "Feature", "id": 16, "geometry": {"type": "Point", "coordinates": [-89.9892367346875, 35.1976653059092]}, "properties": {"FID": 16, "user_name": "Frayser Library", "staddr": "2220 James Rd.", "postal": "38127", "user_phone": "901-415-2768"}}, {"type": "Feature", "id": 17, "geometry": {"type": "Point", "coordinates": [-89.8922571430527, 35.1116612248857]}, "properties": {"FID": 17, "user_name": "Officer Geoffrey Redd Library", "staddr": "5094 Poplar Ave.", "postal": "38117", "user_phone": "901-415-2777"}}, {"type": "Feature", "id": 18, "geometry": {"type": "Point", "coordinates": [-89.8230927135579, 35.0208665497515]}, "properties": {"FID": 18, "user_name": "East Shelby Library", "staddr": "7200 East Shelby Dr.", "postal": "38125", "user_phone": "901-415-2767"}}]}