{"type": "FeatureCollection", "features": [{"type": "Feature", "id": 1, "geometry": {"type": "Point", "coordinates": [-89.8131950930316, 35.1933057830985]}, "properties": {"FID": 1, "FireStatio": "56", "Name": "FS-56", "Agency": "MEMPHIS FS", "Contact": " ", "Phone": "(901) 380-3786", "Email": " ", "Address": "7495 REESE RD", "StreetName": "REESE", "CityName": "Memphis", "StateProvi": "TN", "ZipPostalC": "38133", "ZipCode": "38133", "Council_Di": "1", "ORIG_FID": 2}}, {"type": "Feature", "id": 2, "geometry": {"type": "Point", "coordinates": [-89.9672353401875, 35.0225335116679]}, "properties": {"FID": 2, "FireStatio": "00", "Name": "Starlifter", "Agency": "TANG", "Contact": " ", "Phone": " ", "Email": " ", "Address": " ", "StreetName": " ", "CityName": "Memphis", "StateProvi": "TN", "ZipPostalC": "38118", "ZipCode": "38118", "Council_Di": "3", "ORIG_FID": 4}}, {"type": "Feature", "id": 3, "geometry": {"type": "Point", "coordinates": [-89.9827037134256, 35.1450386812044]}, "properties": {"FID": 3, "FireStatio": "13", "Name": "FS-13", "Agency": "MEMPHIS FS", "Contact": " ", "Phone": "(901) 726-4514", "Email": " ", "Address": "333 E PARKWAY N", "StreetName": "E. PARKWAY N.", "CityName": "Memphis", "StateProvi": "TN", "ZipPostalC": "38112", "ZipCode": "38112", "Council_Di": "5", "ORIG_FID": 5}}, {"type": "Feature", "id": 4, "geometry": {"type": "Point", "coordinates": [-89.8302737946646, 35.0231477516096]}, "properties": {"FID": 4, "FireStatio": "55", "Name": "FS-55", "Agency": "MEMPHIS FS", "Contact": " ", "Phone": "(901) 758-8711", "Email": " ", "Address": "4602 RIVERDALE RD", "StreetName": "RIVERDALE", "CityName": "Memphis", "StateProvi": "TN", "ZipPostalC": "38141", "ZipCode": "38125", "Council_Di": "2", "ORIG_FID": 6}}, {"type": "Feature", "id": 5, "geometry": {"type": "Point", "coordinates": [-89.9928212952978, 35.2418186641314]}, "properties": {"FID": 5, "FireStatio": "31", "Name": "FS-31", "Agency": "MEMPHIS FS", "Contact": " ", "Phone": "(901) 358-2664", "Email": " ", "Address": "4258 OVERTON CROSSING ST", "StreetName": "OVERTON CROSSING", "CityName": "Memphis", "StateProvi": "TN", "ZipPostalC": "38127", "ZipCode": "38127", "Council_Di": "7", "ORIG_FID": 13}}, {"type": "Feature", "id": 6, "geometry": {"type": "Point", "coordinates": [-90.0289964154686, 35.2170560430881]}, "properties": {"FID": 6, "FireStatio": "26", "Name": "FS-26", "Agency": "MEMPHIS FS", "Contact": " ", "Phone": "(901) 358-5626", "Email": " ", "Address": "3345 MILLINGTON ST", "StreetName": "MILLINGTON", "CityName": "Memphis", "StateProvi": "TN", "ZipPostalC": "38127", "ZipCode": "38127", "Council_Di": "7", "ORIG_FID": 15}}, {"type": "Feature", "id": 7, "geometry": {"type": "Point", "coordinates": [-89.9792969880856, 35.2084978963114]}, "properties": {"FID": 7, "FireStatio": "27", "Name": "FS-27", "Agency": "MEMPHIS FS", "Contact": " ", "Phone": "(901) 357-0937", "Email": " ", "Address": "2530 WHITNEY AVE", "StreetName": "WHITNEY", "CityName": "Memphis", "StateProvi": "TN", "ZipPostalC": "38127", "ZipCode": "38127", "Council_Di": "1", "ORIG_FID": 16}}, {"type": "Feature", "id": 8, "geometry": {"type": "Point", "coordinates": [-89.9496482863024, 35.2038349130807]}, "properties": {"FID": 8, "FireStatio": "46", "Name": "FS-46", "Agency": "MEMPHIS FS", "Contact": " ", "Phone": "(901) 388-8467", "Email": " ", "Address": "3423 SCENIC HWY", "StreetName": "SCENIC HWY", "CityName": "Memphis", "StateProvi": "TN", "ZipPostalC": "38128", "ZipCode": "38128", "Council_Di": "7", "ORIG_FID": 17}}, {"type": "Feature", "id": 9, "geometry": {"type": "Point", "coordinates": [-89.9167475514338, 35.2214422456756]}, "properties": {"FID": 9, "FireStatio": "47", "Name": "FS-47", "Agency": "MEMPHIS FS", "Contact": " ", "Phone": "(901) 388-3358", "Email": " ", "Address": "3510 COLEMAN RD", "StreetName": "COLEMAN", "CityName": "Memphis", "StateProvi": "TN", "ZipPostalC": "38128", "ZipCode": "38128", "Council_Di": "1", "ORIG_FID": 18}}, {"type": "Feature", "id": 10, "geometry": {"type": "Point", "coordinates": [-89.7635608098384, 35.2033927322443]}, "properties": {"FID": 10, "FireStatio": "59", "Name": "FS-59", "Agency": "MEMPHIS FS", "Contact": " ", "Phone": "(901) 380-3786", "Email": " ", "Address": "2780 ROCKCREEK PKWY", "StreetName": "ROCKCREEK", "CityName": "Memphis", "StateProvi": "TN", "ZipPostalC": "38016", "ZipCode": "38016", "Council_Di": "1", "ORIG_FID": 22}}, {"type": "Feature", "id": 11, "geometry": {"type": "Point", "coordinates": [-89.9481930102823, 35.1485569417881]}, "properties": {"FID": 11, "FireStatio": "17", "Name": "FS-17", "Agency": "MEMPHIS FS", "Contact": " ", "Phone": "(901) 458-8850", "Email": " ", "Address": "611 NATIONAL ST", "StreetName": "NATIONAL", "CityName": "Memphis", "StateProvi": "TN", "ZipPostalC": "38122", "ZipCode": "38122", "Council_Di": "5", "ORIG_FID": 23}}, {"type": "Feature", "id": 12, "geometry": {"type": "Point", "coordinates": [-90.0007801074491, 35.1355616734276]}, "properties": {"FID": 12, "FireStatio": "11", "Name": "FS-11", "Agency": "MEMPHIS FS", "Contact": " ", "Phone": "(901) 276-2246", "Email": " ", "Address": "1826 UNION AVE", "StreetName": "UNION", "CityName": "Memphis", "StateProvi": "TN", "ZipPostalC": "38104", "ZipCode": "38104", "Council_Di": "5", "ORIG_FID": 24}}, {"type": "Feature", "id": 13, "geometry": {"type": "Point", "coordinates": [-90.0961618898861, 35.040866423535]}, "properties": {"FID": 13, "FireStatio": "37", "Name": "FS-37", "Agency": "MEMPHIS FS", "Contact": " ", "Phone": "(901) 785-4899", "Email": " ", "Address": "3950 WEAVER RD", "StreetName": "WEAVER", "CityName": "Memphis", "StateProvi": "TN", "ZipPostalC": "38109", "ZipCode": "38109", "Council_Di": "6", "ORIG_FID": 26}}, {"type": "Feature", "id": 14, "geometry": {"type": "Point", "coordinates": [-89.769639730172, 35.1409175092642]}, "properties": {"FID": 14, "FireStatio": "54", "Name": "FS-54", "Agency": "MEMPHIS FS", "Contact": " ", "Phone": "(901) 756-1339", "Email": " ", "Address": "595 SANGA RD", "StreetName": "SANGA", "CityName": "Memphis", "StateProvi": "TN", "ZipPostalC": "38018", "ZipCode": "38018", "Council_Di": "2", "ORIG_FID": 27}}, {"type": "Feature", "id": 15, "geometry": {"type": "Point", "coordinates": [-89.8679302954358, 35.0343694125055]}, "properties": {"FID": 15, "FireStatio": "53", "Name": "FS-53", "Agency": "MEMPHIS FS", "Contact": " ", "Phone": "(901) 797-8932", "Email": " ", "Address": "5881 E RAINES RD", "StreetName": "E. RAINES", "CityName": "Memphis", "StateProvi": "TN", "ZipPostalC": "38118", "ZipCode": "38141", "Council_Di": "3", "ORIG_FID": 28}}, {"type": "Feature", "id": 16, "geometry": {"type": "Point", "coordinates": [-90.0440203896761, 35.0918188881495]}, "properties": {"FID": 16, "FireStatio": "20", "Name": "FS-20", "Agency": "MEMPHIS FS", "Contact": " ", "Phone": "(901) 774-8410", "Email": " ", "Address": "2034 S LAUDERDALE ST", "StreetName": "LAUDERDALE", "CityName": "Memphis", "StateProvi": "TN", "ZipPostalC": "38106", "ZipCode": "38106", "Council_Di": "6", "ORIG_FID": 29}}, {"type": "Feature", "id": 17, "geometry": {"type": "Point", "coordinates": [-89.9446365158382, 35.1714330037129]}, "properties": {"FID": 17, "FireStatio": "23", "Name": "FS-23", "Agency": "MEMPHIS FS", "Contact": " ", "Phone": "(901) 324-0223", "Email": " ", "Address": "3468 JACKSON AVE", "StreetName": "JACKSON", "CityName": "Memphis", "StateProvi": "TN", "ZipPostalC": "38122", "ZipCode": "38122", "Council_Di": "7", "ORIG_FID": 31}}, {"type": "Feature", "id": 18, "geometry": {"type": "Point", "coordinates": [-89.9331567864799, 35.0645527151201]}, "properties": {"FID": 18, "FireStatio": "34", "Name": "FS-34", "Agency": "MEMPHIS FS", "Contact": " ", "Phone": "(901) 365-3400", "Email": " ", "Address": "3909 KNIGHT ARNOLD RD", "StreetName": "KNIGHT ARNOLD", "CityName": "Memphis", "StateProvi": "TN", "ZipPostalC": "38118", "ZipCode": "38118", "Council_Di": "4", "ORIG_FID": 32}}, {"type": "Feature", "id": 19, "geometry": {"type": "Point", "coordinates": [-90.0598788126776, 35.0609328736855]}, "properties": {"FID": 19, "FireStatio": "36", "Name": "FS-36", "Agency": "MEMPHIS FS", "Contact": " ", "Phone": "(901) 398-5722", "Email": " ", "Address": "3215 S THIRD ST", "StreetName": "S. THIRD", "CityName": "Memphis", "StateProvi": "TN", "ZipPostalC": "38109", "ZipCode": "38109", "Council_Di": "6", "ORIG_FID": 33}}, {"type": "Feature", "id": 20, "geometry": {"type": "Point", "coordinates": [-89.9219214313063, 35.0366722058357]}, "properties": {"FID": 20, "FireStatio": "50", "Name": "FS-50", "Agency": "MEMPHIS FS", "Contact": " ", "Phone": "(901) 365-4837", "Email": " ", "Address": "4255 E RAINES RD", "StreetName": "E. RAINES", "CityName": "Memphis", "StateProvi": "TN", "ZipPostalC": "38118", "ZipCode": "38118", "Council_Di": "3", "ORIG_FID": 34}}, {"type": "Feature", "id": 21, "geometry": {"type": "Point", "coordinates": [-89.8653139637532, 35.167111325728]}, "properties": {"FID": 21, "FireStatio": "51", "Name": "FS-51", "Agency": "MEMPHIS FS", "Contact": " ", "Phone": "(901) 388-1943", "Email": " ", "Address": "5921 SHELBY OAKS DR", "StreetName": "SHELBY OAKS", "CityName": "Memphis", "StateProvi": "TN", "ZipPostalC": "38134", "ZipCode": "38134", "Council_Di": "1", "ORIG_FID": 35}}, {"type": "Feature", "id": 22, "geometry": {"type": "Point", "coordinates": [-90.0461709386784, 35.1299431240273]}, "properties": {"FID": 22, "FireStatio": "8", "Name": "FS-08", "Agency": "MEMPHIS FS", "Contact": " ", "Phone": "(901) 523-2653", "Email": " ", "Address": "625 MISSISSIPPI BLVD", "StreetName": "MISSISSIPPI", "CityName": "Memphis", "StateProvi": "TN", "ZipPostalC": "38126", "ZipCode": "38126", "Council_Di": "6", "ORIG_FID": 36}}, {"type": "Feature", "id": 23, "geometry": {"type": "Point", "coordinates": [-89.9699259613164, 35.0393153627325]}, "properties": {"FID": 23, "FireStatio": "9", "Name": "Airport", "Agency": "MEMPHIS FS - AIRPORT", "Contact": " ", "Phone": "(901) 794-6461", "Email": " ", "Address": "2785 RUDDER RD", "StreetName": "RUDDER", "CityName": "Memphis", "StateProvi": "TN", "ZipPostalC": "38118", "ZipCode": "38118", "Council_Di": "3", "ORIG_FID": 38}}, {"type": "Feature", "id": 24, "geometry": {"type": "Point", "coordinates": [-90.029495818186, 35.1158611691961]}, "properties": {"FID": 24, "FireStatio": "14", "Name": "FS-14", "Agency": "MEMPHIS FS", "Contact": " ", "Phone": "(901) 774-8300", "Email": " ", "Address": "980 E MCLEMORE AVE", "StreetName": "E. MCLEMORE", "CityName": "Memphis", "StateProvi": "TN", "ZipPostalC": "38106", "ZipCode": "38106", "Council_Di": "4", "ORIG_FID": 40}}, {"type": "Feature", "id": 25, "geometry": {"type": "Point", "coordinates": [-89.9894321770138, 35.0206283698929]}, "properties": {"FID": 25, "FireStatio": "40", "Name": "FS-40", "Agency": "MEMPHIS FS", "Contact": " ", "Phone": "(901) 396-2360", "Email": " ", "Address": "2231 E SHELBY DR", "StreetName": "E. SHELBY", "CityName": "Memphis", "StateProvi": "TN", "ZipPostalC": "38118", "ZipCode": "38118", "Council_Di": "3", "ORIG_FID": 41}}, {"type": "Feature", "id": 26, "geometry": {"type": "Point", "coordinates": [-90.103414770717, 35.0071428552618]}, "properties": {"FID": 26, "FireStatio": "45", "Name": "FS-45", "Agency": "MEMPHIS FS", "Contact": " ", "Phone": "(901) 785-5150", "Email": " ", "Address": "5185 S THIRD ST", "StreetName": "S. THIRD", "CityName": "Memphis", "StateProvi": "TN", "ZipPostalC": "38109", "ZipCode": "38109", "Council_Di": "6", "ORIG_FID": 42}}, {"type": "Feature", "id": 27, "geometry": {"type": "Point", "coordinates": [-90.0226783091368, 35.1586168591867]}, "properties": {"FID": 27, "FireStatio": "15", "Name": "FS-15", "Agency": "MEMPHIS FS", "Contact": " ", "Phone": "(901) 522-9432", "Email": " ", "Address": "688 BREEDLOVE ST", "StreetName": "BREEDLOVE", "CityName": "Memphis", "StateProvi": "TN", "ZipPostalC": "38107", "ZipCode": "38107", "Council_Di": "7", "ORIG_FID": 43}}, {"type": "Feature", "id": 28, "geometry": {"type": "Point", "coordinates": [-89.9480597729768, 35.1154204877496]}, "properties": {"FID": 28, "FireStatio": "18", "Name": "FS-18", "Agency": "MEMPHIS FS", "Contact": " ", "Phone": "(901) 458-3948", "Email": " ", "Address": "3426 SOUTHERN AVE", "StreetName": "SOUTHERN", "CityName": "Memphis", "StateProvi": "TN", "ZipPostalC": "38111", "ZipCode": "38111", "Council_Di": "5", "ORIG_FID": 44}}, {"type": "Feature", "id": 29, "geometry": {"type": "Point", "coordinates": [-89.9820925236316, 35.1749537822027]}, "properties": {"FID": 29, "FireStatio": "19", "Name": "FS-19", "Agency": "MEMPHIS FS", "Contact": " ", "Phone": "(901) 278-9606", "Email": " ", "Address": "2248 CHELSEA AVE", "StreetName": "CHELSEA", "CityName": "Memphis", "StateProvi": "TN", "ZipPostalC": "38108", "ZipCode": "38108", "Council_Di": "7", "ORIG_FID": 45}}, {"type": "Feature", "id": 30, "geometry": {"type": "Point", "coordinates": [-90.0584383398556, 35.1344467736653]}, "properties": {"FID": 30, "FireStatio": "2", "Name": "FS-02", "Agency": "MEMPHIS FS", "Contact": " ", "Phone": "(901) 527-4460", "Email": " ", "Address": "474 S MAIN ST", "StreetName": "MAIN", "CityName": "Memphis", "StateProvi": "TN", "ZipPostalC": "38103", "ZipCode": "38103", "Council_Di": "6", "ORIG_FID": 46}}, {"type": "Feature", "id": 31, "geometry": {"type": "Point", "coordinates": [-90.1075280568451, 35.0977671854715]}, "properties": {"FID": 31, "FireStatio": "32", "Name": "FS-32", "Agency": "MEMPHIS FS", "Contact": " ", "Phone": "(901) 948-1013", "Email": " ", "Address": "1670 CHANNEL AVE", "StreetName": "CHANNEL", "CityName": "Memphis", "StateProvi": "TN", "ZipPostalC": "38113", "ZipCode": "38113", "Council_Di": "6", "ORIG_FID": 47}}, {"type": "Feature", "id": 32, "geometry": {"type": "Point", "coordinates": [-90.0298284522699, 35.0349429200996]}, "properties": {"FID": 32, "FireStatio": "39", "Name": "FS-39", "Agency": "MEMPHIS FS", "Contact": " ", "Phone": "(901) 396-2330", "Email": " ", "Address": "1025 E RAINES RD", "StreetName": "E. RAINES", "CityName": "Memphis", "StateProvi": "TN", "ZipPostalC": "38116", "ZipCode": "38116", "Council_Di": "6", "ORIG_FID": 48}}, {"type": "Feature", "id": 33, "geometry": {"type": "Point", "coordinates": [-90.0096712236672, 35.0601743498769]}, "properties": {"FID": 33, "FireStatio": "42", "Name": "FS-42", "Agency": "MEMPHIS FS", "Contact": " ", "Phone": "(901) 345-2909", "Email": " ", "Address": "3242 FONTAINE RD", "StreetName": "FONTAINE", "CityName": "Memphis", "StateProvi": "TN", "ZipPostalC": "38116", "ZipCode": "38116", "Council_Di": "3", "ORIG_FID": 49}}, {"type": "Feature", "id": 34, "geometry": {"type": "Point", "coordinates": [-90.0221582076466, 35.0058944129595]}, "properties": {"FID": 34, "FireStatio": "43", "Name": "FS-43", "Agency": "MEMPHIS FS", "Contact": " ", "Phone": "(901) 398-9832", "Email": " ", "Address": "1253 E HOLMES RD", "StreetName": "E. HOLMES", "CityName": "Memphis", "StateProvi": "TN", "ZipPostalC": "38116", "ZipCode": "38116", "Council_Di": "3", "ORIG_FID": 50}}, {"type": "Feature", "id": 35, "geometry": {"type": "Point", "coordinates": [-89.8409334298918, 35.0490638698482]}, "properties": {"FID": 35, "FireStatio": "52", "Name": "FS-52", "Agency": "MEMPHIS FS", "Contact": " ", "Phone": "(901) 795-4745", "Email": " ", "Address": "6675 WINCHESTER RD", "StreetName": "WINCHESTER", "CityName": "Memphis", "StateProvi": "TN", "ZipPostalC": "38115", "ZipCode": "38115", "Council_Di": "3", "ORIG_FID": 51}}, {"type": "Feature", "id": 36, "geometry": {"type": "Point", "coordinates": [-90.0410384481429, 35.1630865325626]}, "properties": {"FID": 36, "FireStatio": "1", "Name": "FS-01", "Agency": "MEMPHIS FS", "Contact": " ", "Phone": "(901) 527-4312", "Email": " ", "Address": "235 CHELSEA AVE", "StreetName": "CHELSEA", "CityName": "Memphis", "StateProvi": "TN", "ZipPostalC": "38107", "ZipCode": "38105", "Council_Di": "7", "ORIG_FID": 53}}, {"type": "Feature", "id": 37, "geometry": {"type": "Point", "coordinates": [-90.0671062476578, 35.1081932265379]}, "properties": {"FID": 37, "FireStatio": "10", "Name": "FS-10", "Agency": "MEMPHIS FS", "Contact": " ", "Phone": "(901) 774-8600", "Email": " ", "Address": "148 S PARKWAY W", "StreetName": "S. PARKWAY W.", "CityName": "Memphis", "StateProvi": "TN", "ZipPostalC": "38106", "ZipCode": "38106", "Council_Di": "6", "ORIG_FID": 54}}, {"type": "Feature", "id": 38, "geometry": {"type": "Point", "coordinates": [-89.9042374597615, 35.0853064712631]}, "properties": {"FID": 38, "FireStatio": "25", "Name": "FS-25", "Agency": "MEMPHIS FS", "Contact": " ", "Phone": "(901) 685-7886", "Email": " ", "Address": "4735 WILLOW RD", "StreetName": "WILLOW", "CityName": "Memphis", "StateProvi": "TN", "ZipPostalC": "38117", "ZipCode": "38117", "Council_Di": "5", "ORIG_FID": 55}}, {"type": "Feature", "id": 39, "geometry": {"type": "Point", "coordinates": [-90.0070097688082, 35.1733065452321]}, "properties": {"FID": 39, "FireStatio": "28", "Name": "FS-28", "Agency": "MEMPHIS FS", "Contact": " ", "Phone": "(901) 272-2338", "Email": " ", "Address": "1510 CHELSEA AVE", "StreetName": "CHELSEA", "CityName": "Memphis", "StateProvi": "TN", "ZipPostalC": "38108", "ZipCode": "38108", "Council_Di": "7", "ORIG_FID": 56}}, {"type": "Feature", "id": 40, "geometry": {"type": "Point", "coordinates": [-89.9303589867886, 35.0998670407567]}, "properties": {"FID": 40, "FireStatio": "30", "Name": "FS-30", "Agency": "MEMPHIS FS", "Contact": " ", "Phone": "(901) 327-9727", "Email": " ", "Address": "1150 GETWELL RD", "StreetName": "GETWELL", "CityName": "Memphis", "StateProvi": "TN", "ZipPostalC": "38111", "ZipCode": "38111", "Council_Di": "4", "ORIG_FID": 57}}, {"type": "Feature", "id": 41, "geometry": {"type": "Point", "coordinates": [-89.886519133492, 35.05834173357]}, "properties": {"FID": 41, "FireStatio": "35", "Name": "FS-35", "Agency": "MEMPHIS FS", "Contact": " ", "Phone": "(901) 362-0553", "Email": " ", "Address": "3305 S MENDENHALL RD", "StreetName": "S. MENDENHALL", "CityName": "Memphis", "StateProvi": "TN", "ZipPostalC": "38115", "ZipCode": "38118", "Council_Di": "4", "ORIG_FID": 58}}, {"type": "Feature", "id": 42, "geometry": {"type": "Point", "coordinates": [-90.0687163491221, 35.0197129857166]}, "properties": {"FID": 42, "FireStatio": "38", "Name": "FS-38", "Agency": "MEMPHIS FS", "Contact": " ", "Phone": "(901) 789-6425", "Email": " ", "Address": "4715 HORN LAKE RD", "StreetName": "HORN LAKE", "CityName": "Memphis", "StateProvi": "TN", "ZipPostalC": "38109", "ZipCode": "38109", "Council_Di": "6", "ORIG_FID": 59}}, {"type": "Feature", "id": 43, "geometry": {"type": "Point", "coordinates": [-90.0438313594979, 35.1815369595813]}, "properties": {"FID": 43, "FireStatio": "4", "Name": "FS-04", "Agency": "MEMPHIS FS", "Contact": " ", "Phone": "(901) 521-9567", "Email": " ", "Address": "1460 N SECOND ST", "StreetName": "N. SECOND", "CityName": "Memphis", "StateProvi": "TN", "ZipPostalC": "38107", "ZipCode": "38107", "Council_Di": "7", "ORIG_FID": 60}}, {"type": "Feature", "id": 44, "geometry": {"type": "Point", "coordinates": [-89.8591876669994, 35.0877286253032]}, "properties": {"FID": 44, "FireStatio": "41", "Name": "FS-41", "Agency": "MEMPHIS FS", "Contact": " ", "Phone": "(901) 685-0961", "Email": " ", "Address": "2161 RIDGEWAY RD", "StreetName": "RIDGEWAY", "CityName": "Memphis", "StateProvi": "TN", "ZipPostalC": "38119", "ZipCode": "38119", "Council_Di": "2", "ORIG_FID": 61}}, {"type": "Feature", "id": 45, "geometry": {"type": "Point", "coordinates": [-89.8620721510808, 35.1340159014827]}, "properties": {"FID": 45, "FireStatio": "44", "Name": "FS-44", "Agency": "MEMPHIS FS", "Contact": " ", "Phone": "(901) 747-4826", "Email": " ", "Address": "220 N HUMPHREYS BLVD", "StreetName": "N. HUMPHREYS", "CityName": "Memphis", "StateProvi": "TN", "ZipPostalC": "38120", "ZipCode": "38120", "Council_Di": "2", "ORIG_FID": 62}}, {"type": "Feature", "id": 46, "geometry": {"type": "Point", "coordinates": [-89.8973126340303, 35.1936259513266]}, "properties": {"FID": 46, "FireStatio": "48", "Name": "FS-48", "Agency": "MEMPHIS FS", "Contact": " ", "Phone": "(901) 388-8894", "Email": " ", "Address": "4985 RALEIGH LAGRANGE RD", "StreetName": "RALEIGH LAGRANGE", "CityName": "Memphis", "StateProvi": "TN", "ZipPostalC": "38128", "ZipCode": "38128", "Council_Di": "1", "ORIG_FID": 63}}, {"type": "Feature", "id": 47, "geometry": {"type": "Point", "coordinates": [-89.7829990521634, 35.1731100541797]}, "properties": {"FID": 47, "FireStatio": "58", "Name": "FS-58", "Agency": "MEMPHIS FS", "Contact": " ", "Phone": "(901) 756-2750", "Email": " ", "Address": "8395 DEXTER RD", "StreetName": "DEXTER", "CityName": "Memphis", "StateProvi": "TN", "ZipPostalC": "38016", "ZipCode": "38016", "Council_Di": "2", "ORIG_FID": 64}}, {"type": "Feature", "id": 48, "geometry": {"type": "Point", "coordinates": [-89.8953562975214, 35.115919993358]}, "properties": {"FID": 48, "FireStatio": "21", "Name": "FS-21", "Agency": "MEMPHIS FS", "Contact": " ", "Phone": "(901) 767-7970", "Email": " ", "Address": "550 S MENDENHALL RD", "StreetName": "MENDENHALL", "CityName": "Memphis", "StateProvi": "TN", "ZipPostalC": "38117", "ZipCode": "38117", "Council_Di": "5", "ORIG_FID": 69}}, {"type": "Feature", "id": 49, "geometry": {"type": "Point", "coordinates": [-89.9119708170381, 35.1545238551021]}, "properties": {"FID": 49, "FireStatio": "24", "Name": "FS-24", "Agency": "MEMPHIS FS", "Contact": " ", "Phone": "(901) 682-7115", "Email": " ", "Address": "4472 POWELL AVE", "StreetName": "POWELL", "CityName": "Memphis", "StateProvi": "TN", "ZipPostalC": "38122", "ZipCode": "38122", "Council_Di": "5", "ORIG_FID": 70}}, {"type": "Feature", "id": 50, "geometry": {"type": "Point", "coordinates": [-90.0188217777627, 35.0868081930952]}, "properties": {"FID": 50, "FireStatio": "29", "Name": "FS-29", "Agency": "MEMPHIS FS", "Contact": " ", "Phone": "(901) 774-8500", "Email": " ", "Address": "2147 ELVIS PRESLEY BLVD", "StreetName": "ELVIS PRESLEY", "CityName": "Memphis", "StateProvi": "TN", "ZipPostalC": "38106", "ZipCode": "38106", "Council_Di": "6", "ORIG_FID": 71}}, {"type": "Feature", "id": 51, "geometry": {"type": "Point", "coordinates": [-89.9788860109225, 35.0513505209827]}, "properties": {"FID": 51, "FireStatio": "33", "Name": "FS-33", "Agency": "MEMPHIS FS", "Contact": " ", "Phone": "(901) 345-1310", "Email": " ", "Address": "2555 WINCHESTER RD", "StreetName": "WINCHESTER", "CityName": "Memphis", "StateProvi": "TN", "ZipPostalC": "38116", "ZipCode": "38116", "Council_Di": "3", "ORIG_FID": 72}}, {"type": "Feature", "id": 52, "geometry": {"type": "Point", "coordinates": [-89.9465126201316, 35.2445991058879]}, "properties": {"FID": 52, "FireStatio": "49", "Name": "FS-49", "Agency": "MEMPHIS FS", "Contact": " ", "Phone": "(901) 357-5679", "Email": " ", "Address": "4351 NEW ALLEN RD", "StreetName": "NEW ALLEN", "CityName": "Memphis", "StateProvi": "TN", "ZipPostalC": "38128", "ZipCode": "38128", "Council_Di": "1", "ORIG_FID": 73}}, {"type": "Feature", "id": 53, "geometry": {"type": "Point", "coordinates": [-90.0421843997726, 35.1459902403648]}, "properties": {"FID": 53, "FireStatio": "5", "Name": "FS-05", "Agency": "MEMPHIS FS", "Contact": " ", "Phone": "(901) 529-9088", "Email": " ", "Address": "400 ADAMS AVE", "StreetName": "ADAMS", "CityName": "Memphis", "StateProvi": "TN", "ZipPostalC": "38103", "ZipCode": "38103", "Council_Di": "7", "ORIG_FID": 74}}, {"type": "Feature", "id": 54, "geometry": {"type": "Point", "coordinates": [-90.0268896324651, 35.1422378138243]}, "properties": {"FID": 54, "FireStatio": "7", "Name": "FS-07", "Agency": "MEMPHIS FS", "Contact": " ", "Phone": "(901) 522-9150", "Email": " ", "Address": "1017 JEFFERSON AVE", "StreetName": "JEFFERSON", "CityName": "Memphis", "StateProvi": "TN", "ZipPostalC": "38104", "ZipCode": "38104", "Council_Di": "6", "ORIG_FID": 76}}, {"type": "Feature", "id": 55, "geometry": {"type": "Point", "coordinates": [-89.9631449952161, 35.0877541814505]}, "properties": {"FID": 55, "FireStatio": "22", "Name": "FS-22", "Agency": "MEMPHIS FS", "Contact": " ", "Phone": "(901) 743-2900", "Email": " ", "Address": "2960 LAMAR AVE", "StreetName": "LAMAR", "CityName": "Memphis", "StateProvi": "TN", "ZipPostalC": "38114", "ZipCode": "38114", "Council_Di": "4", "ORIG_FID": 80}}, {"type": "Feature", "id": 56, "geometry": {"type": "Point", "coordinates": [-89.9010429512505, 35.014844127676]}, "properties": {"FID": 56, "FireStatio": "57", "Name": "FS-57", "Agency": "MEMPHIS FS", "Contact": " ", "Phone": "(901) 365-1199", "Email": " ", "Address": "4930 PLEASANT HILL RD", "StreetName": "PLEASANT HILL", "CityName": "Memphis", "StateProvi": "TN", "ZipPostalC": "38118", "ZipCode": "38118", "Council_Di": "3", "ORIG_FID": 81}}, {"type": "Feature", "id": 57, "geometry": {"type": "Point", "coordinates": [-89.9898728541818, 35.1087671922847]}, "properties": {"FID": 57, "FireStatio": "16", "Name": "FS-16", "Agency": "MEMPHIS FS", "Contact": " ", "Phone": "(901) 324-2309", "Email": " ", "Address": "2203 LAMAR AVE", "StreetName": "LAMAR", "CityName": "Memphis", "StateProvi": "TN", "ZipPostalC": "38114", "ZipCode": "38114", "Council_Di": "4", "ORIG_FID": 82}}, {"type": "Feature", "id": 58, "geometry": {"type": "Point", "coordinates": [-89.9711761499351, 35.0651055429669]}, "properties": {"FID": 58, "FireStatio": "75", "Name": "FedEx", "Agency": "MEMPHIS FS", "Contact": " ", "Phone": "(901) 797-5100", "Email": " ", "Address": "2788 SPRANKEL AVE", "StreetName": "SPRANKEL", "CityName": "Memphis", "StateProvi": "TN", "ZipPostalC": "38118", "ZipCode": "38118", "Council_Di": "3", "ORIG_FID": 86}}, {"type": "Feature", "id": 59, "geometry": {"type": "Point", "coordinates": [-89.9718008818326, 35.1314319024018]}, "properties": {"FID": 59, "FireStatio": "HCN", "Name": "Healthcare Navigator", "Agency": "MEMPHIS FS", "Contact": " ", "Phone": " ", "Email": " ", "Address": "79 FLICKER ST", "StreetName": "FLICKER", "CityName": "Memphis", "StateProvi": "TN", "ZipPostalC": "38104", "ZipCode": "38104", "Council_Di": "5", "ORIG_FID": 0}}]}