{"type": "FeatureCollection", "features": [{"type": "Feature", "id": 1, "geometry": {"type": "Point", "coordinates": [-97.52531139263492, 35.46827553733092]}, "properties": {"OBJECTID": 1, "Facility": "Police Headquarters", "Address": "700 Colcord Dr"}}, {"type": "Feature", "id": 2, "geometry": {"type": "Point", "coordinates": [-97.59033243960027, 35.59421844007377]}, "properties": {"OBJECTID": 2, "Facility": "Hefner Briefing Station", "Address": "3924 NW 122nd St"}}, {"type": "Feature", "id": 3, "geometry": {"type": "Point", "coordinates": [-97.51133086300172, 35.37665218855451]}, "properties": {"OBJECTID": 3, "Facility": "Santa Fe Briefing Station", "Address": "9000 S Santa Fe Ave"}}, {"type": "Feature", "id": 4, "geometry": {"type": "Point", "coordinates": [-97.48481677297995, 35.51278441834003]}, "properties": {"OBJECTID": 4, "Facility": "Springlake Briefing Station", "Address": "4116 N Prospect Ave"}}, {"type": "Feature", "id": 5, "geometry": {"type": "Point", "coordinates": [-97.57917743950831, 35.50115084386044]}, "properties": {"OBJECTID": 5, "Facility": "Will Rogers Briefing Station", "Address": "3112 N Grand Blvd"}}, {"type": "Feature", "id": 6, "geometry": {"type": "Point", "coordinates": [-97.52442416538479, 35.46805861246574]}, "properties": {"OBJECTID": 6, "Facility": "Property Management", "Address": "701 W Main St"}}, {"type": "Feature", "id": 7, "geometry": {"type": "Point", "coordinates": [-97.52379104277334, 35.468358813698174]}, "properties": {"OBJECTID": 7, "Facility": "616 Building", "Address": "616 Colcord Dr"}}, {"type": "Feature", "id": 8, "geometry": {"type": "Point", "coordinates": [-97.47609805887573, 35.517447556929895]}, "properties": {"OBJECTID": 8, "Facility": "Regional Multiagency Coordination Center (Emergency Management)", "Address": "4600 N Martin Luther King Ave"}}, {"type": "Feature", "id": 9, "geometry": {"type": "Point", "coordinates": [-97.52531133496595, 35.469839731329664]}, "properties": {"OBJECTID": 9, "Facility": "Municipal Court", "Address": "701 Couch Dr"}}, {"type": "Feature", "id": 10, "geometry": {"type": "Point", "coordinates": [-97.58249915576926, 35.473708034491175]}, "properties": {"OBJECTID": 10, "Facility": "Training Center", "Address": "800 N Portland Ave"}}, {"type": "Feature", "id": 11, "geometry": {"type": "Point", "coordinates": [-97.4053682333519, 35.38185249877596]}, "properties": {"OBJECTID": 11, "Facility": "Pistol Range", "Address": "8500 S Air Depot Blvd"}}, {"type": "Feature", "id": 13, "geometry": {"type": "Point", "coordinates": [-97.58234522826962, 35.4513154925195]}, "properties": {"OBJECTID": 13, "Facility": "K-9/Equine Unit", "Address": "1400 S Portland Ave"}}, {"type": "Feature", "id": 14, "geometry": {"type": "Point", "coordinates": [-97.5075646166871, 35.46755387371061]}, "properties": {"OBJECTID": 14, "Facility": "Bricktown Briefing Station", "Address": "219 E Main St"}}, {"type": "Feature", "id": 15, "geometry": {"type": "Point", "coordinates": [-97.38412800925191, 35.36513642788802]}, "properties": {"OBJECTID": 15, "Facility": "Draper Lake Station", "Address": "10401 W Stanley Draper Dr"}}, {"type": "Feature", "id": 16, "geometry": {"type": "Point", "coordinates": [-97.59808885067355, 35.54955420446536]}, "properties": {"OBJECTID": 16, "Facility": "Hefner Lake Station", "Address": "4407 S Lake Hefner Dr"}}, {"type": "Feature", "id": 17, "geometry": {"type": "Point", "coordinates": [-97.66568453756616, 35.50246603379731]}, "properties": {"OBJECTID": 17, "Facility": "Overholser Lake Station", "Address": "3201 E Overholse Dr"}}, {"type": "Feature", "id": 18, "geometry": {"type": "Point", "coordinates": [-97.46067081246203, 35.43791600570394]}, "properties": {"OBJECTID": 18, "Facility": "Fleet Barn", "Address": "2800 E Grand Blvd"}}, {"type": "Feature", "id": 19, "geometry": {"type": "Point", "coordinates": [-97.52511925879602, 35.470478923472655]}, "properties": {"OBJECTID": 19, "Facility": "9-1-1 Communications", "Address": "715 Robert S Kerr Ave"}}, {"type": "Feature", "id": 20, "geometry": {"type": "Point", "coordinates": [-97.52686717289187, 35.469642302834664]}, "properties": {"OBJECTID": 20, "Facility": "OK County Jail", "Address": "201 N Shartel Ave"}}, {"type": "Feature", "id": 21, "geometry": {"type": "Point", "coordinates": [-97.51875164513129, 35.469187587122846]}, "properties": {"OBJECTID": 21, "Facility": "OK County Courthouse", "Address": "320 Robert S Kerr Ave"}}, {"type": "Feature", "id": 22, "geometry": {"type": "Point", "coordinates": [-97.58429694179236, 35.41074800862273]}, "properties": {"OBJECTID": 22, "Facility": "Southwest Briefing Station", "Address": "5501 S Portland Ave"}}]}