{"type": "FeatureCollection", "features": [{"type": "Feature", "id": 1, "geometry": {"type": "Point", "coordinates": [-98.17557519001296, 35.5297853276535]}, "properties": {"OBJECTID": 1, "MILEMARKER": "112"}}, {"type": "Feature", "id": 2, "geometry": {"type": "Point", "coordinates": [-98.15751369742085, 35.529629934623934]}, "properties": {"OBJECTID": 2, "MILEMARKER": "113"}}, {"type": "Feature", "id": 3, "geometry": {"type": "Point", "coordinates": [-98.13997041898394, 35.52952164288307]}, "properties": {"OBJECTID": 3, "MILEMARKER": "114"}}, {"type": "Feature", "id": 4, "geometry": {"type": "Point", "coordinates": [-98.12331118481515, 35.52955366111779]}, "properties": {"OBJECTID": 4, "MILEMARKER": "115"}}, {"type": "Feature", "id": 5, "geometry": {"type": "Point", "coordinates": [-98.10491146697986, 35.528765073127005]}, "properties": {"OBJECTID": 5, "MILEMARKER": "116"}}, {"type": "Feature", "id": 6, "geometry": {"type": "Point", "coordinates": [-98.08741630178153, 35.52916256879903]}, "properties": {"OBJECTID": 6, "MILEMARKER": "117"}}, {"type": "Feature", "id": 7, "geometry": {"type": "Point", "coordinates": [-98.06971902497975, 35.52968276395229]}, "properties": {"OBJECTID": 7, "MILEMARKER": "118"}}, {"type": "Feature", "id": 8, "geometry": {"type": "Point", "coordinates": [-98.05199647694052, 35.529730569073145]}, "properties": {"OBJECTID": 8, "MILEMARKER": "119"}}, {"type": "Feature", "id": 9, "geometry": {"type": "Point", "coordinates": [-98.03479725624581, 35.52659299927788]}, "properties": {"OBJECTID": 9, "MILEMARKER": "120"}}, {"type": "Feature", "id": 10, "geometry": {"type": "Point", "coordinates": [-98.01911495857043, 35.52083823637697]}, "properties": {"OBJECTID": 10, "MILEMARKER": "121"}}, {"type": "Feature", "id": 11, "geometry": {"type": "Point", "coordinates": [-98.00326958128062, 35.51502866091905]}, "properties": {"OBJECTID": 11, "MILEMARKER": "122"}}, {"type": "Feature", "id": 12, "geometry": {"type": "Point", "coordinates": [-97.9861478266236, 35.5114524759472]}, "properties": {"OBJECTID": 12, "MILEMARKER": "123"}}, {"type": "Feature", "id": 13, "geometry": {"type": "Point", "coordinates": [-97.9696389712507, 35.506664404818906]}, "properties": {"OBJECTID": 13, "MILEMARKER": "124"}}, {"type": "Feature", "id": 14, "geometry": {"type": "Point", "coordinates": [-97.95329173186249, 35.50121935186665]}, "properties": {"OBJECTID": 14, "MILEMARKER": "125"}}, {"type": "Feature", "id": 15, "geometry": {"type": "Point", "coordinates": [-97.93664773857147, 35.501111127009025]}, "properties": {"OBJECTID": 15, "MILEMARKER": "126"}}, {"type": "Feature", "id": 16, "geometry": {"type": "Point", "coordinates": [-97.91857738232629, 35.50114520204749]}, "properties": {"OBJECTID": 16, "MILEMARKER": "127"}}, {"type": "Feature", "id": 17, "geometry": {"type": "Point", "coordinates": [-97.90106689759826, 35.50043611324777]}, "properties": {"OBJECTID": 17, "MILEMARKER": "128"}}, {"type": "Feature", "id": 18, "geometry": {"type": "Point", "coordinates": [-97.88373888850472, 35.50121673218504]}, "properties": {"OBJECTID": 18, "MILEMARKER": "129"}}, {"type": "Feature", "id": 19, "geometry": {"type": "Point", "coordinates": [-97.86624051036362, 35.50032080056589]}, "properties": {"OBJECTID": 19, "MILEMARKER": "130"}}, {"type": "Feature", "id": 20, "geometry": {"type": "Point", "coordinates": [-97.84783927920466, 35.50010729443091]}, "properties": {"OBJECTID": 20, "MILEMARKER": "131"}}, {"type": "Feature", "id": 21, "geometry": {"type": "Point", "coordinates": [-97.83031646048005, 35.50072285805308]}, "properties": {"OBJECTID": 21, "MILEMARKER": "132"}}, {"type": "Feature", "id": 22, "geometry": {"type": "Point", "coordinates": [-97.8090632904727, 35.500992240585965]}, "properties": {"OBJECTID": 22, "MILEMARKER": "133"}}, {"type": "Feature", "id": 23, "geometry": {"type": "Point", "coordinates": [-97.79212189012769, 35.50024106650848]}, "properties": {"OBJECTID": 23, "MILEMARKER": "134"}}, {"type": "Feature", "id": 24, "geometry": {"type": "Point", "coordinates": [-97.77589223989096, 35.49426835378068]}, "properties": {"OBJECTID": 24, "MILEMARKER": "135"}}, {"type": "Feature", "id": 25, "geometry": {"type": "Point", "coordinates": [-97.7618308869637, 35.48753441174443]}, "properties": {"OBJECTID": 25, "MILEMARKER": "136"}}, {"type": "Feature", "id": 26, "geometry": {"type": "Point", "coordinates": [-97.7463607939003, 35.47858452835]}, "properties": {"OBJECTID": 26, "MILEMARKER": "137"}}, {"type": "Feature", "id": 27, "geometry": {"type": "Point", "coordinates": [-97.7327862920241, 35.4720344762513]}, "properties": {"OBJECTID": 27, "MILEMARKER": "138"}}, {"type": "Feature", "id": 28, "geometry": {"type": "Point", "coordinates": [-97.71790984226593, 35.46418447922638]}, "properties": {"OBJECTID": 28, "MILEMARKER": "139"}}, {"type": "Feature", "id": 29, "geometry": {"type": "Point", "coordinates": [-97.70111982926655, 35.460091331846286]}, "properties": {"OBJECTID": 29, "MILEMARKER": "140"}}, {"type": "Feature", "id": 30, "geometry": {"type": "Point", "coordinates": [-97.68447625304573, 35.460133950804185]}, "properties": {"OBJECTID": 30, "MILEMARKER": "141"}}, {"type": "Feature", "id": 32, "geometry": {"type": "Point", "coordinates": [-97.71075981926857, 35.47235294128204]}, "properties": {"OBJECTID": 32, "MILEMARKER": "111"}}, {"type": "Feature", "id": 33, "geometry": {"type": "Point", "coordinates": [-97.71110001514481, 35.48685708922569]}, "properties": {"OBJECTID": 33, "MILEMARKER": "112"}}, {"type": "Feature", "id": 34, "geometry": {"type": "Point", "coordinates": [-97.70391541052246, 35.49935674723551]}, "properties": {"OBJECTID": 34, "MILEMARKER": "113"}}, {"type": "Feature", "id": 35, "geometry": {"type": "Point", "coordinates": [-97.6972362871886, 35.511515313949374]}, "properties": {"OBJECTID": 35, "MILEMARKER": "114"}}, {"type": "Feature", "id": 36, "geometry": {"type": "Point", "coordinates": [-97.69718908668716, 35.524144835999]}, "properties": {"OBJECTID": 36, "MILEMARKER": "115"}}, {"type": "Feature", "id": 37, "geometry": {"type": "Point", "coordinates": [-97.69217353430008, 35.53934591112704]}, "properties": {"OBJECTID": 37, "MILEMARKER": "116"}}, {"type": "Feature", "id": 38, "geometry": {"type": "Point", "coordinates": [-97.68896424988473, 35.55311009453062]}, "properties": {"OBJECTID": 38, "MILEMARKER": "117"}}, {"type": "Feature", "id": 39, "geometry": {"type": "Point", "coordinates": [-97.68892115676915, 35.5677720022312]}, "properties": {"OBJECTID": 39, "MILEMARKER": "118"}}, {"type": "Feature", "id": 40, "geometry": {"type": "Point", "coordinates": [-97.68887727614583, 35.58214346955501]}, "properties": {"OBJECTID": 40, "MILEMARKER": "119"}}, {"type": "Feature", "id": 41, "geometry": {"type": "Point", "coordinates": [-97.68643104978402, 35.596463236395714]}, "properties": {"OBJECTID": 41, "MILEMARKER": "120"}}, {"type": "Feature", "id": 42, "geometry": {"type": "Point", "coordinates": [-97.67628600342783, 35.608257717593]}, "properties": {"OBJECTID": 42, "MILEMARKER": "121"}}, {"type": "Feature", "id": 43, "geometry": {"type": "Point", "coordinates": [-97.48232860148393, 35.196913925214446]}, "properties": {"OBJECTID": 43, "MILEMARKER": "108"}}, {"type": "Feature", "id": 44, "geometry": {"type": "Point", "coordinates": [-97.48269488825643, 35.21053581765408]}, "properties": {"OBJECTID": 44, "MILEMARKER": "109"}}, {"type": "Feature", "id": 45, "geometry": {"type": "Point", "coordinates": [-97.48545000202954, 35.22464542480636]}, "properties": {"OBJECTID": 45, "MILEMARKER": "110"}}, {"type": "Feature", "id": 46, "geometry": {"type": "Point", "coordinates": [-97.48546463753422, 35.2370188270487]}, "properties": {"OBJECTID": 46, "MILEMARKER": "111"}}, {"type": "Feature", "id": 47, "geometry": {"type": "Point", "coordinates": [-97.48550308500998, 35.25143017270598]}, "properties": {"OBJECTID": 47, "MILEMARKER": "112"}}, {"type": "Feature", "id": 48, "geometry": {"type": "Point", "coordinates": [-97.48548103092176, 35.26598698079305]}, "properties": {"OBJECTID": 48, "MILEMARKER": "113"}}, {"type": "Feature", "id": 49, "geometry": {"type": "Point", "coordinates": [-97.48411610843397, 35.28050106517799]}, "properties": {"OBJECTID": 49, "MILEMARKER": "114"}}, {"type": "Feature", "id": 50, "geometry": {"type": "Point", "coordinates": [-97.48856163588623, 35.29422602446218]}, "properties": {"OBJECTID": 50, "MILEMARKER": "115"}}, {"type": "Feature", "id": 51, "geometry": {"type": "Point", "coordinates": [-97.48986857169972, 35.30865647109101]}, "properties": {"OBJECTID": 51, "MILEMARKER": "116"}}, {"type": "Feature", "id": 52, "geometry": {"type": "Point", "coordinates": [-97.48987209158392, 35.324377736853094]}, "properties": {"OBJECTID": 52, "MILEMARKER": "117"}}, {"type": "Feature", "id": 53, "geometry": {"type": "Point", "coordinates": [-97.4915500954354, 35.33845205214063]}, "properties": {"OBJECTID": 53, "MILEMARKER": "118"}}, {"type": "Feature", "id": 54, "geometry": {"type": "Point", "coordinates": [-97.49462822882342, 35.35234635341008]}, "properties": {"OBJECTID": 54, "MILEMARKER": "119"}}, {"type": "Feature", "id": 55, "geometry": {"type": "Point", "coordinates": [-97.49476663503955, 35.36621900756424]}, "properties": {"OBJECTID": 55, "MILEMARKER": "120"}}, {"type": "Feature", "id": 56, "geometry": {"type": "Point", "coordinates": [-97.59806863941338, 35.309405242753755]}, "properties": {"OBJECTID": 56, "MILEMARKER": "109"}}, {"type": "Feature", "id": 57, "geometry": {"type": "Point", "coordinates": [-97.59583724007666, 35.32392350235227]}, "properties": {"OBJECTID": 57, "MILEMARKER": "110"}}, {"type": "Feature", "id": 58, "geometry": {"type": "Point", "coordinates": [-97.59062531836508, 35.33761205515572]}, "properties": {"OBJECTID": 58, "MILEMARKER": "111"}}, {"type": "Feature", "id": 59, "geometry": {"type": "Point", "coordinates": [-97.58492940630441, 35.351795151333924]}, "properties": {"OBJECTID": 59, "MILEMARKER": "112"}}, {"type": "Feature", "id": 60, "geometry": {"type": "Point", "coordinates": [-97.57936147394118, 35.36570547568115]}, "properties": {"OBJECTID": 60, "MILEMARKER": "113"}}, {"type": "Feature", "id": 61, "geometry": {"type": "Point", "coordinates": [-98.00051002407504, 34.96660286961757]}, "properties": {"OBJECTID": 61, "MILEMARKER": "75"}}, {"type": "Feature", "id": 62, "geometry": {"type": "Point", "coordinates": [-97.98951473965319, 34.977960425667625]}, "properties": {"OBJECTID": 62, "MILEMARKER": "76"}}, {"type": "Feature", "id": 63, "geometry": {"type": "Point", "coordinates": [-97.97718209026534, 34.9882977915986]}, "properties": {"OBJECTID": 63, "MILEMARKER": "77"}}, {"type": "Feature", "id": 64, "geometry": {"type": "Point", "coordinates": [-97.96416380498317, 34.99809124563229]}, "properties": {"OBJECTID": 64, "MILEMARKER": "78"}}, {"type": "Feature", "id": 65, "geometry": {"type": "Point", "coordinates": [-97.95280921175998, 35.00882685314469]}, "properties": {"OBJECTID": 65, "MILEMARKER": "79"}}, {"type": "Feature", "id": 66, "geometry": {"type": "Point", "coordinates": [-97.94308399816303, 35.02103122123157]}, "properties": {"OBJECTID": 66, "MILEMARKER": "80"}}, {"type": "Feature", "id": 67, "geometry": {"type": "Point", "coordinates": [-97.92723982767221, 35.02719472866664]}, "properties": {"OBJECTID": 67, "MILEMARKER": "81"}}, {"type": "Feature", "id": 68, "geometry": {"type": "Point", "coordinates": [-97.9141461311599, 35.036862549257094]}, "properties": {"OBJECTID": 68, "MILEMARKER": "82"}}, {"type": "Feature", "id": 69, "geometry": {"type": "Point", "coordinates": [-97.90897179291369, 35.050434668455395]}, "properties": {"OBJECTID": 69, "MILEMARKER": "83"}}, {"type": "Feature", "id": 70, "geometry": {"type": "Point", "coordinates": [-97.90546462499702, 35.06461484663097]}, "properties": {"OBJECTID": 70, "MILEMARKER": "84"}}, {"type": "Feature", "id": 71, "geometry": {"type": "Point", "coordinates": [-97.89546597097511, 35.07642989128629]}, "properties": {"OBJECTID": 71, "MILEMARKER": "85"}}, {"type": "Feature", "id": 72, "geometry": {"type": "Point", "coordinates": [-97.88340755707765, 35.08692113370887]}, "properties": {"OBJECTID": 72, "MILEMARKER": "86"}}, {"type": "Feature", "id": 73, "geometry": {"type": "Point", "coordinates": [-97.8713254186252, 35.097317421237186]}, "properties": {"OBJECTID": 73, "MILEMARKER": "87"}}, {"type": "Feature", "id": 74, "geometry": {"type": "Point", "coordinates": [-97.85913483318359, 35.107830974252295]}, "properties": {"OBJECTID": 74, "MILEMARKER": "88"}}, {"type": "Feature", "id": 75, "geometry": {"type": "Point", "coordinates": [-97.84794527811457, 35.11888104990655]}, "properties": {"OBJECTID": 75, "MILEMARKER": "89"}}, {"type": "Feature", "id": 76, "geometry": {"type": "Point", "coordinates": [-97.83657020637867, 35.13018365790385]}, "properties": {"OBJECTID": 76, "MILEMARKER": "90"}}, {"type": "Feature", "id": 77, "geometry": {"type": "Point", "coordinates": [-97.82313645710845, 35.139236743896866]}, "properties": {"OBJECTID": 77, "MILEMARKER": "91"}}, {"type": "Feature", "id": 78, "geometry": {"type": "Point", "coordinates": [-97.8085008438883, 35.14730442370992]}, "properties": {"OBJECTID": 78, "MILEMARKER": "92"}}, {"type": "Feature", "id": 79, "geometry": {"type": "Point", "coordinates": [-97.79643146784012, 35.157916634526124]}, "properties": {"OBJECTID": 79, "MILEMARKER": "93"}}, {"type": "Feature", "id": 80, "geometry": {"type": "Point", "coordinates": [-97.7842646314364, 35.168654541576316]}, "properties": {"OBJECTID": 80, "MILEMARKER": "94"}}, {"type": "Feature", "id": 81, "geometry": {"type": "Point", "coordinates": [-97.77248632041592, 35.17909558187747]}, "properties": {"OBJECTID": 81, "MILEMARKER": "95"}}, {"type": "Feature", "id": 82, "geometry": {"type": "Point", "coordinates": [-97.75980808193897, 35.188545211718]}, "properties": {"OBJECTID": 82, "MILEMARKER": "96"}}, {"type": "Feature", "id": 83, "geometry": {"type": "Point", "coordinates": [-97.74584938889734, 35.19746379520029]}, "properties": {"OBJECTID": 83, "MILEMARKER": "97"}}, {"type": "Feature", "id": 84, "geometry": {"type": "Point", "coordinates": [-97.73195104019602, 35.20644922983156]}, "properties": {"OBJECTID": 84, "MILEMARKER": "98"}}, {"type": "Feature", "id": 85, "geometry": {"type": "Point", "coordinates": [-97.71896101419654, 35.21543316942381]}, "properties": {"OBJECTID": 85, "MILEMARKER": "99"}}, {"type": "Feature", "id": 86, "geometry": {"type": "Point", "coordinates": [-97.70499572377057, 35.225044770686175]}, "properties": {"OBJECTID": 86, "MILEMARKER": "100"}}, {"type": "Feature", "id": 87, "geometry": {"type": "Point", "coordinates": [-97.6898829660108, 35.2328031430456]}, "properties": {"OBJECTID": 87, "MILEMARKER": "101"}}, {"type": "Feature", "id": 88, "geometry": {"type": "Point", "coordinates": [-97.67431445882865, 35.23971306912902]}, "properties": {"OBJECTID": 88, "MILEMARKER": "102"}}, {"type": "Feature", "id": 89, "geometry": {"type": "Point", "coordinates": [-97.71443958523645, 35.215833983190784]}, "properties": {"OBJECTID": 89, "MILEMARKER": "100"}}, {"type": "Feature", "id": 90, "geometry": {"type": "Point", "coordinates": [-97.69796976556434, 35.21105486275199]}, "properties": {"OBJECTID": 90, "MILEMARKER": "101"}}, {"type": "Feature", "id": 91, "geometry": {"type": "Point", "coordinates": [-97.68079280954362, 35.21210686849122]}, "properties": {"OBJECTID": 91, "MILEMARKER": "102"}}, {"type": "Feature", "id": 92, "geometry": {"type": "Point", "coordinates": [-97.13564052523101, 35.65328611706499]}, "properties": {"OBJECTID": 92, "MILEMARKER": "152"}}, {"type": "Feature", "id": 93, "geometry": {"type": "Point", "coordinates": [-97.11938756609106, 35.6583804967549]}, "properties": {"OBJECTID": 93, "MILEMARKER": "153"}}, {"type": "Feature", "id": 94, "geometry": {"type": "Point", "coordinates": [-97.10280424735716, 35.66358405144487]}, "properties": {"OBJECTID": 94, "MILEMARKER": "154"}}, {"type": "Feature", "id": 95, "geometry": {"type": "Point", "coordinates": [-97.08638396010815, 35.668731839672695]}, "properties": {"OBJECTID": 95, "MILEMARKER": "155"}}, {"type": "Feature", "id": 96, "geometry": {"type": "Point", "coordinates": [-97.07012413958084, 35.673818334018684]}, "properties": {"OBJECTID": 96, "MILEMARKER": "156"}}, {"type": "Feature", "id": 97, "geometry": {"type": "Point", "coordinates": [-97.05353734954903, 35.67902121000973]}, "properties": {"OBJECTID": 97, "MILEMARKER": "157"}}, {"type": "Feature", "id": 98, "geometry": {"type": "Point", "coordinates": [-97.03727418369944, 35.684104962528885]}, "properties": {"OBJECTID": 98, "MILEMARKER": "158"}}, {"type": "Feature", "id": 99, "geometry": {"type": "Point", "coordinates": [-97.02068241167477, 35.68930170362993]}, "properties": {"OBJECTID": 99, "MILEMARKER": "159"}}, {"type": "Feature", "id": 100, "geometry": {"type": "Point", "coordinates": [-97.00382981435024, 35.69339422287508]}, "properties": {"OBJECTID": 100, "MILEMARKER": "160"}}, {"type": "Feature", "id": 101, "geometry": {"type": "Point", "coordinates": [-96.9866893619477, 35.69723209027211]}, "properties": {"OBJECTID": 101, "MILEMARKER": "161"}}, {"type": "Feature", "id": 102, "geometry": {"type": "Point", "coordinates": [-96.96954925017457, 35.70107316011574]}, "properties": {"OBJECTID": 102, "MILEMARKER": "162"}}, {"type": "Feature", "id": 103, "geometry": {"type": "Point", "coordinates": [-96.95275347724629, 35.70484439866242]}, "properties": {"OBJECTID": 103, "MILEMARKER": "163"}}, {"type": "Feature", "id": 104, "geometry": {"type": "Point", "coordinates": [-96.93561485582106, 35.708694830165136]}, "properties": {"OBJECTID": 104, "MILEMARKER": "164"}}, {"type": "Feature", "id": 105, "geometry": {"type": "Point", "coordinates": [-96.91857142768684, 35.71227038288856]}, "properties": {"OBJECTID": 105, "MILEMARKER": "165"}}, {"type": "Feature", "id": 106, "geometry": {"type": "Point", "coordinates": [-96.90129165722628, 35.71568059915692]}, "properties": {"OBJECTID": 106, "MILEMARKER": "166"}}, {"type": "Feature", "id": 107, "geometry": {"type": "Point", "coordinates": [-96.88453568593336, 35.71900850125374]}, "properties": {"OBJECTID": 107, "MILEMARKER": "167"}}, {"type": "Feature", "id": 108, "geometry": {"type": "Point", "coordinates": [-96.86656996649992, 35.722577218579495]}, "properties": {"OBJECTID": 108, "MILEMARKER": "168"}}, {"type": "Feature", "id": 109, "geometry": {"type": "Point", "coordinates": [-96.84905831740012, 35.72581927257601]}, "properties": {"OBJECTID": 109, "MILEMARKER": "169"}}, {"type": "Feature", "id": 110, "geometry": {"type": "Point", "coordinates": [-96.83167454728176, 35.728868569021884]}, "properties": {"OBJECTID": 110, "MILEMARKER": "170"}}, {"type": "Feature", "id": 111, "geometry": {"type": "Point", "coordinates": [-97.41616957518512, 35.72966286718303]}, "properties": {"OBJECTID": 111, "MILEMARKER": "147"}}, {"type": "Feature", "id": 112, "geometry": {"type": "Point", "coordinates": [-97.4161866825967, 35.74388312527816]}, "properties": {"OBJECTID": 112, "MILEMARKER": "148"}}, {"type": "Feature", "id": 113, "geometry": {"type": "Point", "coordinates": [-97.41618994394845, 35.7585386580737]}, "properties": {"OBJECTID": 113, "MILEMARKER": "149"}}, {"type": "Feature", "id": 114, "geometry": {"type": "Point", "coordinates": [-97.41571902234072, 35.77347658426417]}, "properties": {"OBJECTID": 114, "MILEMARKER": "150"}}, {"type": "Feature", "id": 115, "geometry": {"type": "Point", "coordinates": [-97.41579743095873, 35.78900203743656]}, "properties": {"OBJECTID": 115, "MILEMARKER": "151"}}, {"type": "Feature", "id": 116, "geometry": {"type": "Point", "coordinates": [-97.41617074312659, 35.8013278899676]}, "properties": {"OBJECTID": 116, "MILEMARKER": "152"}}, {"type": "Feature", "id": 117, "geometry": {"type": "Point", "coordinates": [-97.41592876414002, 35.815390364980274]}, "properties": {"OBJECTID": 117, "MILEMARKER": "153"}}, {"type": "Feature", "id": 118, "geometry": {"type": "Point", "coordinates": [-97.40713912328137, 35.82731618585443]}, "properties": {"OBJECTID": 118, "MILEMARKER": "154"}}, {"type": "Feature", "id": 119, "geometry": {"type": "Point", "coordinates": [-97.39600475794539, 35.838492244688005]}, "properties": {"OBJECTID": 119, "MILEMARKER": "155"}}, {"type": "Feature", "id": 120, "geometry": {"type": "Point", "coordinates": [-97.39411959807533, 35.85265835870031]}, "properties": {"OBJECTID": 120, "MILEMARKER": "156"}}, {"type": "Feature", "id": 121, "geometry": {"type": "Point", "coordinates": [-97.3940820908388, 35.864556462944826]}, "properties": {"OBJECTID": 121, "MILEMARKER": "157"}}, {"type": "Feature", "id": 122, "geometry": {"type": "Point", "coordinates": [-97.39397229000917, 35.878775746952606]}, "properties": {"OBJECTID": 122, "MILEMARKER": "158"}}, {"type": "Feature", "id": 123, "geometry": {"type": "Point", "coordinates": [-97.39398190216185, 35.89328505182559]}, "properties": {"OBJECTID": 123, "MILEMARKER": "159"}}, {"type": "Feature", "id": 124, "geometry": {"type": "Point", "coordinates": [-97.39347456784415, 35.90762933270067]}, "properties": {"OBJECTID": 124, "MILEMARKER": "160"}}, {"type": "Feature", "id": 125, "geometry": {"type": "Point", "coordinates": [-97.5996393348836, 35.29511826738946]}, "properties": {"OBJECTID": 125, "MILEMARKER": "108"}}, {"type": "Feature", "id": 126, "geometry": {"type": "Point", "coordinates": [-97.3704779538392, 34.969148501563424]}, "properties": {"OBJECTID": 126, "MILEMARKER": "90"}}, {"type": "Feature", "id": 127, "geometry": {"type": "Point", "coordinates": [-97.37255657290196, 34.983124075335]}, "properties": {"OBJECTID": 127, "MILEMARKER": "91"}}, {"type": "Feature", "id": 128, "geometry": {"type": "Point", "coordinates": [-97.37468435284723, 34.99738712734346]}, "properties": {"OBJECTID": 128, "MILEMARKER": "92"}}, {"type": "Feature", "id": 129, "geometry": {"type": "Point", "coordinates": [-97.37570940193123, 35.011859829513334]}, "properties": {"OBJECTID": 129, "MILEMARKER": "93"}}, {"type": "Feature", "id": 130, "geometry": {"type": "Point", "coordinates": [-97.37574847916987, 35.02637520932318]}, "properties": {"OBJECTID": 130, "MILEMARKER": "94"}}, {"type": "Feature", "id": 131, "geometry": {"type": "Point", "coordinates": [-97.37587418586536, 35.04074478020197]}, "properties": {"OBJECTID": 131, "MILEMARKER": "95"}}, {"type": "Feature", "id": 132, "geometry": {"type": "Point", "coordinates": [-97.3837799796455, 35.05413542940601]}, "properties": {"OBJECTID": 132, "MILEMARKER": "96"}}, {"type": "Feature", "id": 133, "geometry": {"type": "Point", "coordinates": [-97.39458882258697, 35.06542746727339]}, "properties": {"OBJECTID": 133, "MILEMARKER": "97"}}, {"type": "Feature", "id": 134, "geometry": {"type": "Point", "coordinates": [-97.40541132196266, 35.0767098873554]}, "properties": {"OBJECTID": 134, "MILEMARKER": "98"}}, {"type": "Feature", "id": 135, "geometry": {"type": "Point", "coordinates": [-97.41622159008702, 35.088003270133186]}, "properties": {"OBJECTID": 135, "MILEMARKER": "99"}}, {"type": "Feature", "id": 136, "geometry": {"type": "Point", "coordinates": [-97.4269987256738, 35.09950165933739]}, "properties": {"OBJECTID": 136, "MILEMARKER": "100"}}, {"type": "Feature", "id": 137, "geometry": {"type": "Point", "coordinates": [-97.43745898035918, 35.110835581963514]}, "properties": {"OBJECTID": 137, "MILEMARKER": "101"}}, {"type": "Feature", "id": 138, "geometry": {"type": "Point", "coordinates": [-97.44809349023178, 35.12224392851626]}, "properties": {"OBJECTID": 138, "MILEMARKER": "102"}}, {"type": "Feature", "id": 139, "geometry": {"type": "Point", "coordinates": [-97.45889630065624, 35.133912926637535]}, "properties": {"OBJECTID": 139, "MILEMARKER": "103"}}, {"type": "Feature", "id": 140, "geometry": {"type": "Point", "coordinates": [-97.46948620683038, 35.145351150807564]}, "properties": {"OBJECTID": 140, "MILEMARKER": "104"}}, {"type": "Feature", "id": 141, "geometry": {"type": "Point", "coordinates": [-97.4801995911853, 35.156895062493135]}, "properties": {"OBJECTID": 141, "MILEMARKER": "105"}}, {"type": "Feature", "id": 142, "geometry": {"type": "Point", "coordinates": [-97.49079766210336, 35.16833003886475]}, "properties": {"OBJECTID": 142, "MILEMARKER": "106"}}, {"type": "Feature", "id": 143, "geometry": {"type": "Point", "coordinates": [-97.4934970436128, 35.1822927777075]}, "properties": {"OBJECTID": 143, "MILEMARKER": "107"}}, {"type": "Feature", "id": 144, "geometry": {"type": "Point", "coordinates": [-97.65795968619572, 35.246923771923925]}, "properties": {"OBJECTID": 144, "MILEMARKER": "103"}}, {"type": "Feature", "id": 145, "geometry": {"type": "Point", "coordinates": [-97.64422185689153, 35.255638741922496]}, "properties": {"OBJECTID": 145, "MILEMARKER": "104"}}, {"type": "Feature", "id": 146, "geometry": {"type": "Point", "coordinates": [-97.63171507752398, 35.26600923168692]}, "properties": {"OBJECTID": 146, "MILEMARKER": "105"}}, {"type": "Feature", "id": 147, "geometry": {"type": "Point", "coordinates": [-97.61576118238303, 35.27132420962151]}, "properties": {"OBJECTID": 147, "MILEMARKER": "106"}}, {"type": "Feature", "id": 148, "geometry": {"type": "Point", "coordinates": [-97.60209525206864, 35.27929968741025]}, "properties": {"OBJECTID": 148, "MILEMARKER": "107"}}, {"type": "Feature", "id": 149, "geometry": {"type": "Point", "coordinates": [-97.66409721147211, 35.213654592071954]}, "properties": {"OBJECTID": 149, "MILEMARKER": "103"}}, {"type": "Feature", "id": 150, "geometry": {"type": "Point", "coordinates": [-97.64661429404879, 35.21293670741088]}, "properties": {"OBJECTID": 150, "MILEMARKER": "104"}}, {"type": "Feature", "id": 151, "geometry": {"type": "Point", "coordinates": [-97.6323057237614, 35.2062095767242]}, "properties": {"OBJECTID": 151, "MILEMARKER": "105"}}, {"type": "Feature", "id": 152, "geometry": {"type": "Point", "coordinates": [-97.62439860062038, 35.19306873028303]}, "properties": {"OBJECTID": 152, "MILEMARKER": "106"}}, {"type": "Feature", "id": 153, "geometry": {"type": "Point", "coordinates": [-97.6111112731502, 35.184053330495395]}, "properties": {"OBJECTID": 153, "MILEMARKER": "107"}}, {"type": "Feature", "id": 154, "geometry": {"type": "Point", "coordinates": [-97.57639341331978, 35.39792273698104]}, "properties": {"OBJECTID": 154, "MILEMARKER": "116"}}, {"type": "Feature", "id": 155, "geometry": {"type": "Point", "coordinates": [-97.57852993736846, 35.412209711745845]}, "properties": {"OBJECTID": 155, "MILEMARKER": "117"}}, {"type": "Feature", "id": 156, "geometry": {"type": "Point", "coordinates": [-97.5758541666059, 35.42606909413168]}, "properties": {"OBJECTID": 156, "MILEMARKER": "118"}}, {"type": "Feature", "id": 157, "geometry": {"type": "Point", "coordinates": [-97.56977225314736, 35.43864300916466]}, "properties": {"OBJECTID": 157, "MILEMARKER": "119"}}, {"type": "Feature", "id": 158, "geometry": {"type": "Point", "coordinates": [-97.57137740780786, 35.452491333268846]}, "properties": {"OBJECTID": 158, "MILEMARKER": "120"}}, {"type": "Feature", "id": 159, "geometry": {"type": "Point", "coordinates": [-97.57914205012578, 35.47247074434527]}, "properties": {"OBJECTID": 159, "MILEMARKER": "121"}}, {"type": "Feature", "id": 160, "geometry": {"type": "Point", "coordinates": [-97.57955622133272, 35.48686947208719]}, "properties": {"OBJECTID": 160, "MILEMARKER": "122"}}, {"type": "Feature", "id": 161, "geometry": {"type": "Point", "coordinates": [-97.57754170255701, 35.50135846487978]}, "properties": {"OBJECTID": 161, "MILEMARKER": "123"}}, {"type": "Feature", "id": 162, "geometry": {"type": "Point", "coordinates": [-97.57156924648075, 35.51145048231066]}, "properties": {"OBJECTID": 162, "MILEMARKER": "124"}}, {"type": "Feature", "id": 163, "geometry": {"type": "Point", "coordinates": [-97.5538060878594, 35.51173676369517]}, "properties": {"OBJECTID": 163, "MILEMARKER": "125"}}, {"type": "Feature", "id": 164, "geometry": {"type": "Point", "coordinates": [-97.5423734387747, 35.52150966313971]}, "properties": {"OBJECTID": 164, "MILEMARKER": "126"}}, {"type": "Feature", "id": 165, "geometry": {"type": "Point", "coordinates": [-97.52724832353151, 35.527516854640204]}, "properties": {"OBJECTID": 165, "MILEMARKER": "127"}}, {"type": "Feature", "id": 166, "geometry": {"type": "Point", "coordinates": [-97.5097652079423, 35.529476795076924]}, "properties": {"OBJECTID": 166, "MILEMARKER": "128"}}, {"type": "Feature", "id": 167, "geometry": {"type": "Point", "coordinates": [-97.49033272004255, 35.53561579150291]}, "properties": {"OBJECTID": 167, "MILEMARKER": "129"}}, {"type": "Feature", "id": 168, "geometry": {"type": "Point", "coordinates": [-97.47404418802418, 35.537396192133635]}, "properties": {"OBJECTID": 168, "MILEMARKER": "130"}}, {"type": "Feature", "id": 169, "geometry": {"type": "Point", "coordinates": [-97.45684331716745, 35.54833508628798]}, "properties": {"OBJECTID": 169, "MILEMARKER": "134"}}, {"type": "Feature", "id": 170, "geometry": {"type": "Point", "coordinates": [-97.45288883623866, 35.56231714882568]}, "properties": {"OBJECTID": 170, "MILEMARKER": "135"}}, {"type": "Feature", "id": 171, "geometry": {"type": "Point", "coordinates": [-97.4455224447694, 35.57466598423944]}, "properties": {"OBJECTID": 171, "MILEMARKER": "136"}}, {"type": "Feature", "id": 172, "geometry": {"type": "Point", "coordinates": [-97.43739766611012, 35.58738936819056]}, "properties": {"OBJECTID": 172, "MILEMARKER": "137"}}, {"type": "Feature", "id": 173, "geometry": {"type": "Point", "coordinates": [-97.42933144443501, 35.59997530072545]}, "properties": {"OBJECTID": 173, "MILEMARKER": "138"}}, {"type": "Feature", "id": 174, "geometry": {"type": "Point", "coordinates": [-97.42484090828299, 35.614336152683535]}, "properties": {"OBJECTID": 174, "MILEMARKER": "139"}}, {"type": "Feature", "id": 175, "geometry": {"type": "Point", "coordinates": [-97.42476496511118, 35.62883188441725]}, "properties": {"OBJECTID": 175, "MILEMARKER": "140"}}, {"type": "Feature", "id": 176, "geometry": {"type": "Point", "coordinates": [-97.42471709274218, 35.642747853241396]}, "properties": {"OBJECTID": 176, "MILEMARKER": "141"}}, {"type": "Feature", "id": 177, "geometry": {"type": "Point", "coordinates": [-97.4233906346862, 35.65732243541691]}, "properties": {"OBJECTID": 177, "MILEMARKER": "142"}}, {"type": "Feature", "id": 178, "geometry": {"type": "Point", "coordinates": [-97.42012179654135, 35.67154645992375]}, "properties": {"OBJECTID": 178, "MILEMARKER": "143"}}, {"type": "Feature", "id": 179, "geometry": {"type": "Point", "coordinates": [-97.41623596334438, 35.68399923966993]}, "properties": {"OBJECTID": 179, "MILEMARKER": "144"}}, {"type": "Feature", "id": 180, "geometry": {"type": "Point", "coordinates": [-97.41614495822846, 35.69936264769214]}, "properties": {"OBJECTID": 180, "MILEMARKER": "145"}}, {"type": "Feature", "id": 181, "geometry": {"type": "Point", "coordinates": [-97.41616850503883, 35.71400309338261]}, "properties": {"OBJECTID": 181, "MILEMARKER": "146"}}, {"type": "Feature", "id": 182, "geometry": {"type": "Point", "coordinates": [-97.4949279501536, 35.38034157446038]}, "properties": {"OBJECTID": 182, "MILEMARKER": "121"}}, {"type": "Feature", "id": 183, "geometry": {"type": "Point", "coordinates": [-97.49496812839759, 35.39451073064242]}, "properties": {"OBJECTID": 183, "MILEMARKER": "122"}}, {"type": "Feature", "id": 184, "geometry": {"type": "Point", "coordinates": [-97.49287194286441, 35.40885735563937]}, "properties": {"OBJECTID": 184, "MILEMARKER": "123"}}, {"type": "Feature", "id": 185, "geometry": {"type": "Point", "coordinates": [-97.48755301319459, 35.421991997932345]}, "properties": {"OBJECTID": 185, "MILEMARKER": "124"}}, {"type": "Feature", "id": 186, "geometry": {"type": "Point", "coordinates": [-97.4861034533423, 35.436379526070645]}, "properties": {"OBJECTID": 186, "MILEMARKER": "125"}}, {"type": "Feature", "id": 187, "geometry": {"type": "Point", "coordinates": [-97.48788379655377, 35.45075266630017]}, "properties": {"OBJECTID": 187, "MILEMARKER": "126"}}, {"type": "Feature", "id": 188, "geometry": {"type": "Point", "coordinates": [-97.48712565926601, 35.462190595338505]}, "properties": {"OBJECTID": 188, "MILEMARKER": "127"}}, {"type": "Feature", "id": 189, "geometry": {"type": "Point", "coordinates": [-97.46968047808788, 35.46443287590594]}, "properties": {"OBJECTID": 189, "MILEMARKER": "128"}}, {"type": "Feature", "id": 190, "geometry": {"type": "Point", "coordinates": [-97.46552472847965, 35.477201315550836]}, "properties": {"OBJECTID": 190, "MILEMARKER": "129"}}, {"type": "Feature", "id": 191, "geometry": {"type": "Point", "coordinates": [-97.46519613297826, 35.49173086290667]}, "properties": {"OBJECTID": 191, "MILEMARKER": "130"}}, {"type": "Feature", "id": 192, "geometry": {"type": "Point", "coordinates": [-97.46098346373911, 35.50585601295019]}, "properties": {"OBJECTID": 192, "MILEMARKER": "131"}}, {"type": "Feature", "id": 193, "geometry": {"type": "Point", "coordinates": [-97.45936981728876, 35.52027073339504]}, "properties": {"OBJECTID": 193, "MILEMARKER": "132"}}, {"type": "Feature", "id": 194, "geometry": {"type": "Point", "coordinates": [-97.46038890610697, 35.534741422913775]}, "properties": {"OBJECTID": 194, "MILEMARKER": "133"}}, {"type": "Feature", "id": 195, "geometry": {"type": "Point", "coordinates": [-97.50286203407556, 35.46942362203406]}, "properties": {"OBJECTID": 195, "MILEMARKER": "1"}}, {"type": "Feature", "id": 196, "geometry": {"type": "Point", "coordinates": [-97.50992174754136, 35.48220370822477]}, "properties": {"OBJECTID": 196, "MILEMARKER": "2"}}, {"type": "Feature", "id": 197, "geometry": {"type": "Point", "coordinates": [-97.51359959130683, 35.49626935368776]}, "properties": {"OBJECTID": 197, "MILEMARKER": "3"}}, {"type": "Feature", "id": 198, "geometry": {"type": "Point", "coordinates": [-97.51493649078161, 35.51072973835417]}, "properties": {"OBJECTID": 198, "MILEMARKER": "4"}}, {"type": "Feature", "id": 199, "geometry": {"type": "Point", "coordinates": [-97.51541558003372, 35.524599995705515]}, "properties": {"OBJECTID": 199, "MILEMARKER": "5"}}, {"type": "Feature", "id": 200, "geometry": {"type": "Point", "coordinates": [-97.46002059154478, 35.4616938471434]}, "properties": {"OBJECTID": 200, "MILEMARKER": "154"}}, {"type": "Feature", "id": 201, "geometry": {"type": "Point", "coordinates": [-97.44430741188233, 35.45541087611688]}, "properties": {"OBJECTID": 201, "MILEMARKER": "155"}}, {"type": "Feature", "id": 202, "geometry": {"type": "Point", "coordinates": [-97.42899244833929, 35.448133855089715]}, "properties": {"OBJECTID": 202, "MILEMARKER": "156"}}, {"type": "Feature", "id": 203, "geometry": {"type": "Point", "coordinates": [-97.41426241488628, 35.43874479584003]}, "properties": {"OBJECTID": 203, "MILEMARKER": "157"}}, {"type": "Feature", "id": 204, "geometry": {"type": "Point", "coordinates": [-97.40064396864733, 35.43420250547044]}, "properties": {"OBJECTID": 204, "MILEMARKER": "158"}}, {"type": "Feature", "id": 205, "geometry": {"type": "Point", "coordinates": [-97.38120084211262, 35.43450512468386]}, "properties": {"OBJECTID": 205, "MILEMARKER": "159"}}, {"type": "Feature", "id": 206, "geometry": {"type": "Point", "coordinates": [-97.36487528912602, 35.429689533061165]}, "properties": {"OBJECTID": 206, "MILEMARKER": "160"}}, {"type": "Feature", "id": 207, "geometry": {"type": "Point", "coordinates": [-97.34886982389855, 35.424328045714226]}, "properties": {"OBJECTID": 207, "MILEMARKER": "161"}}, {"type": "Feature", "id": 208, "geometry": {"type": "Point", "coordinates": [-97.33257301413862, 35.41917085573924]}, "properties": {"OBJECTID": 208, "MILEMARKER": "162"}}, {"type": "Feature", "id": 209, "geometry": {"type": "Point", "coordinates": [-97.31694383193471, 35.41420515711286]}, "properties": {"OBJECTID": 209, "MILEMARKER": "163"}}, {"type": "Feature", "id": 210, "geometry": {"type": "Point", "coordinates": [-97.30045028020378, 35.40798546114226]}, "properties": {"OBJECTID": 210, "MILEMARKER": "164"}}, {"type": "Feature", "id": 211, "geometry": {"type": "Point", "coordinates": [-97.28624565580746, 35.40185563970018]}, "properties": {"OBJECTID": 211, "MILEMARKER": "165"}}, {"type": "Feature", "id": 212, "geometry": {"type": "Point", "coordinates": [-97.26908037637531, 35.39444057516612]}, "properties": {"OBJECTID": 212, "MILEMARKER": "166"}}, {"type": "Feature", "id": 213, "geometry": {"type": "Point", "coordinates": [-97.25346623995505, 35.38771603646392]}, "properties": {"OBJECTID": 213, "MILEMARKER": "167"}}, {"type": "Feature", "id": 214, "geometry": {"type": "Point", "coordinates": [-97.23671893443891, 35.384430781064964]}, "properties": {"OBJECTID": 214, "MILEMARKER": "168"}}, {"type": "Feature", "id": 215, "geometry": {"type": "Point", "coordinates": [-97.21960755012297, 35.384399101210604]}, "properties": {"OBJECTID": 215, "MILEMARKER": "169"}}, {"type": "Feature", "id": 216, "geometry": {"type": "Point", "coordinates": [-97.20196701969599, 35.384341813921964]}, "properties": {"OBJECTID": 216, "MILEMARKER": "170"}}, {"type": "Feature", "id": 217, "geometry": {"type": "Point", "coordinates": [-97.1852249528272, 35.383887051330504]}, "properties": {"OBJECTID": 217, "MILEMARKER": "171"}}, {"type": "Feature", "id": 218, "geometry": {"type": "Point", "coordinates": [-97.16759834717523, 35.38418513778395]}, "properties": {"OBJECTID": 218, "MILEMARKER": "172"}}, {"type": "Feature", "id": 219, "geometry": {"type": "Point", "coordinates": [-97.14960576626373, 35.38416163031923]}, "properties": {"OBJECTID": 219, "MILEMARKER": "173"}}, {"type": "Feature", "id": 220, "geometry": {"type": "Point", "coordinates": [-97.66284959117122, 35.46026417330368]}, "properties": {"OBJECTID": 220, "MILEMARKER": "142"}}, {"type": "Feature", "id": 221, "geometry": {"type": "Point", "coordinates": [-97.64508823058343, 35.460349069912695]}, "properties": {"OBJECTID": 221, "MILEMARKER": "143"}}, {"type": "Feature", "id": 222, "geometry": {"type": "Point", "coordinates": [-97.62715327164776, 35.460214950448695]}, "properties": {"OBJECTID": 222, "MILEMARKER": "144"}}, {"type": "Feature", "id": 223, "geometry": {"type": "Point", "coordinates": [-97.61010669540694, 35.460038481959096]}, "properties": {"OBJECTID": 223, "MILEMARKER": "145"}}, {"type": "Feature", "id": 224, "geometry": {"type": "Point", "coordinates": [-97.59305557382889, 35.46002175741127]}, "properties": {"OBJECTID": 224, "MILEMARKER": "146"}}, {"type": "Feature", "id": 225, "geometry": {"type": "Point", "coordinates": [-97.57512030193296, 35.460115395678315]}, "properties": {"OBJECTID": 225, "MILEMARKER": "147"}}, {"type": "Feature", "id": 226, "geometry": {"type": "Point", "coordinates": [-97.57423623781526, 35.379222380472214]}, "properties": {"OBJECTID": 226, "MILEMARKER": "114"}}, {"type": "Feature", "id": 227, "geometry": {"type": "Point", "coordinates": [-97.57400474488843, 35.393312568023525]}, "properties": {"OBJECTID": 227, "MILEMARKER": "115"}}, {"type": "Feature", "id": 228, "geometry": {"type": "Point", "coordinates": [-97.55419830486275, 35.39157150707004]}, "properties": {"OBJECTID": 228, "MILEMARKER": "1"}}, {"type": "Feature", "id": 229, "geometry": {"type": "Point", "coordinates": [-97.5366708541856, 35.39132781839848]}, "properties": {"OBJECTID": 229, "MILEMARKER": "2"}}, {"type": "Feature", "id": 230, "geometry": {"type": "Point", "coordinates": [-97.51858530927882, 35.391548756952886]}, "properties": {"OBJECTID": 230, "MILEMARKER": "3"}}, {"type": "Feature", "id": 231, "geometry": {"type": "Point", "coordinates": [-97.50068989662759, 35.39195959689287]}, "properties": {"OBJECTID": 231, "MILEMARKER": "4"}}, {"type": "Feature", "id": 232, "geometry": {"type": "Point", "coordinates": [-97.48335068544661, 35.391436203889356]}, "properties": {"OBJECTID": 232, "MILEMARKER": "5"}}, {"type": "Feature", "id": 233, "geometry": {"type": "Point", "coordinates": [-97.46631831170946, 35.39124055580319]}, "properties": {"OBJECTID": 233, "MILEMARKER": "6"}}, {"type": "Feature", "id": 234, "geometry": {"type": "Point", "coordinates": [-97.44715464195185, 35.39123072631242]}, "properties": {"OBJECTID": 234, "MILEMARKER": "7"}}, {"type": "Feature", "id": 235, "geometry": {"type": "Point", "coordinates": [-97.43171728511624, 35.39121384666317]}, "properties": {"OBJECTID": 235, "MILEMARKER": "8"}}, {"type": "Feature", "id": 236, "geometry": {"type": "Point", "coordinates": [-97.41496957990954, 35.389808742551295]}, "properties": {"OBJECTID": 236, "MILEMARKER": "9"}}, {"type": "Feature", "id": 237, "geometry": {"type": "Point", "coordinates": [-97.3968072902958, 35.388358858939384]}, "properties": {"OBJECTID": 237, "MILEMARKER": "10"}}, {"type": "Feature", "id": 238, "geometry": {"type": "Point", "coordinates": [-97.3795964014076, 35.388277076981765]}, "properties": {"OBJECTID": 238, "MILEMARKER": "11"}}, {"type": "Feature", "id": 239, "geometry": {"type": "Point", "coordinates": [-97.36045068487776, 35.388617119806916]}, "properties": {"OBJECTID": 239, "MILEMARKER": "12"}}, {"type": "Feature", "id": 240, "geometry": {"type": "Point", "coordinates": [-97.34305159403654, 35.39135763042338]}, "properties": {"OBJECTID": 240, "MILEMARKER": "13"}}, {"type": "Feature", "id": 241, "geometry": {"type": "Point", "coordinates": [-97.326218107345, 35.39547142295397]}, "properties": {"OBJECTID": 241, "MILEMARKER": "14"}}, {"type": "Feature", "id": 242, "geometry": {"type": "Point", "coordinates": [-97.30921404711071, 35.39962587500267]}, "properties": {"OBJECTID": 242, "MILEMARKER": "15"}}, {"type": "Feature", "id": 243, "geometry": {"type": "Point", "coordinates": [-97.29167051411986, 35.402839208972736]}, "properties": {"OBJECTID": 243, "MILEMARKER": "16"}}, {"type": "Feature", "id": 244, "geometry": {"type": "Point", "coordinates": [-97.41706268268604, 35.600756566749745]}, "properties": {"OBJECTID": 244, "MILEMARKER": "136"}}, {"type": "Feature", "id": 245, "geometry": {"type": "Point", "coordinates": [-97.39928111823266, 35.60422891429902]}, "properties": {"OBJECTID": 245, "MILEMARKER": "137"}}, {"type": "Feature", "id": 246, "geometry": {"type": "Point", "coordinates": [-97.38180808464706, 35.607623305400885]}, "properties": {"OBJECTID": 246, "MILEMARKER": "138"}}, {"type": "Feature", "id": 247, "geometry": {"type": "Point", "coordinates": [-97.36433787348254, 35.61102996630457]}, "properties": {"OBJECTID": 247, "MILEMARKER": "139"}}, {"type": "Feature", "id": 248, "geometry": {"type": "Point", "coordinates": [-97.34704351922286, 35.61441515633925]}, "properties": {"OBJECTID": 248, "MILEMARKER": "140"}}, {"type": "Feature", "id": 249, "geometry": {"type": "Point", "coordinates": [-97.33079285277987, 35.61761913536064]}, "properties": {"OBJECTID": 249, "MILEMARKER": "141"}}, {"type": "Feature", "id": 250, "geometry": {"type": "Point", "coordinates": [-97.31400816361429, 35.620875701148044]}, "properties": {"OBJECTID": 250, "MILEMARKER": "142"}}, {"type": "Feature", "id": 251, "geometry": {"type": "Point", "coordinates": [-97.29672392476354, 35.62430145087191]}, "properties": {"OBJECTID": 251, "MILEMARKER": "143"}}, {"type": "Feature", "id": 252, "geometry": {"type": "Point", "coordinates": [-97.2796609989787, 35.62785518323651]}, "properties": {"OBJECTID": 252, "MILEMARKER": "144"}}, {"type": "Feature", "id": 253, "geometry": {"type": "Point", "coordinates": [-97.26224755843809, 35.63146446505616]}, "properties": {"OBJECTID": 253, "MILEMARKER": "145"}}, {"type": "Feature", "id": 254, "geometry": {"type": "Point", "coordinates": [-97.24552783893883, 35.63494617493147]}, "properties": {"OBJECTID": 254, "MILEMARKER": "146"}}, {"type": "Feature", "id": 255, "geometry": {"type": "Point", "coordinates": [-97.22823927010154, 35.63835397440913]}, "properties": {"OBJECTID": 255, "MILEMARKER": "147"}}, {"type": "Feature", "id": 256, "geometry": {"type": "Point", "coordinates": [-97.2109192652388, 35.640961940729625]}, "properties": {"OBJECTID": 256, "MILEMARKER": "148"}}, {"type": "Feature", "id": 257, "geometry": {"type": "Point", "coordinates": [-97.19360037771011, 35.64357771923966]}, "properties": {"OBJECTID": 257, "MILEMARKER": "149"}}, {"type": "Feature", "id": 258, "geometry": {"type": "Point", "coordinates": [-97.17610717012961, 35.64622440090382]}, "properties": {"OBJECTID": 258, "MILEMARKER": "150"}}, {"type": "Feature", "id": 259, "geometry": {"type": "Point", "coordinates": [-97.15878148370801, 35.64881485481333]}, "properties": {"OBJECTID": 259, "MILEMARKER": "151"}}, {"type": "Feature", "id": 260, "geometry": {"type": "Point", "coordinates": [-97.65865829690266, 35.609924325411946]}, "properties": {"OBJECTID": 260, "MILEMARKER": "122"}}, {"type": "Feature", "id": 261, "geometry": {"type": "Point", "coordinates": [-97.64096027657513, 35.609433375370116]}, "properties": {"OBJECTID": 261, "MILEMARKER": "123"}}, {"type": "Feature", "id": 262, "geometry": {"type": "Point", "coordinates": [-97.623270948825, 35.60907850071224]}, "properties": {"OBJECTID": 262, "MILEMARKER": "124"}}, {"type": "Feature", "id": 263, "geometry": {"type": "Point", "coordinates": [-97.60593171404454, 35.60954090250033]}, "properties": {"OBJECTID": 263, "MILEMARKER": "125"}}, {"type": "Feature", "id": 264, "geometry": {"type": "Point", "coordinates": [-97.58804421450508, 35.60942919720156]}, "properties": {"OBJECTID": 264, "MILEMARKER": "126"}}, {"type": "Feature", "id": 265, "geometry": {"type": "Point", "coordinates": [-97.57015849679904, 35.60914294182681]}, "properties": {"OBJECTID": 265, "MILEMARKER": "127"}}, {"type": "Feature", "id": 266, "geometry": {"type": "Point", "coordinates": [-97.55262355348944, 35.60904740358737]}, "properties": {"OBJECTID": 266, "MILEMARKER": "128"}}, {"type": "Feature", "id": 267, "geometry": {"type": "Point", "coordinates": [-97.53507040134191, 35.60793800854177]}, "properties": {"OBJECTID": 267, "MILEMARKER": "129"}}, {"type": "Feature", "id": 268, "geometry": {"type": "Point", "coordinates": [-97.51832086440223, 35.60240958570508]}, "properties": {"OBJECTID": 268, "MILEMARKER": "130"}}, {"type": "Feature", "id": 269, "geometry": {"type": "Point", "coordinates": [-97.50121530913205, 35.59914013215534]}, "properties": {"OBJECTID": 269, "MILEMARKER": "131"}}, {"type": "Feature", "id": 270, "geometry": {"type": "Point", "coordinates": [-97.48403425123861, 35.60096231020943]}, "properties": {"OBJECTID": 270, "MILEMARKER": "132"}}, {"type": "Feature", "id": 271, "geometry": {"type": "Point", "coordinates": [-97.46579366172111, 35.601115735532574]}, "properties": {"OBJECTID": 271, "MILEMARKER": "133"}}, {"type": "Feature", "id": 272, "geometry": {"type": "Point", "coordinates": [-97.4480834122383, 35.60122700930749]}, "properties": {"OBJECTID": 272, "MILEMARKER": "134"}}, {"type": "Feature", "id": 273, "geometry": {"type": "Point", "coordinates": [-97.43320718637821, 35.601183524173834]}, "properties": {"OBJECTID": 273, "MILEMARKER": "135"}}, {"type": "Feature", "id": 274, "geometry": {"type": "Point", "coordinates": [-97.13001890844241, 35.38403793896458]}, "properties": {"OBJECTID": 274, "MILEMARKER": "174"}}, {"type": "Feature", "id": 275, "geometry": {"type": "Point", "coordinates": [-97.11323815504758, 35.38397174788481]}, "properties": {"OBJECTID": 275, "MILEMARKER": "175"}}, {"type": "Feature", "id": 276, "geometry": {"type": "Point", "coordinates": [-97.09594750551489, 35.38374480669864]}, "properties": {"OBJECTID": 276, "MILEMARKER": "176"}}, {"type": "Feature", "id": 277, "geometry": {"type": "Point", "coordinates": [-97.07831029540498, 35.38345311957783]}, "properties": {"OBJECTID": 277, "MILEMARKER": "177"}}, {"type": "Feature", "id": 278, "geometry": {"type": "Point", "coordinates": [-97.06285015597568, 35.38001544426606]}, "properties": {"OBJECTID": 278, "MILEMARKER": "178"}}, {"type": "Feature", "id": 279, "geometry": {"type": "Point", "coordinates": [-97.04440312871647, 35.3763998662696]}, "properties": {"OBJECTID": 279, "MILEMARKER": "179"}}, {"type": "Feature", "id": 280, "geometry": {"type": "Point", "coordinates": [-97.02585461557412, 35.379335387052045]}, "properties": {"OBJECTID": 280, "MILEMARKER": "180"}}, {"type": "Feature", "id": 281, "geometry": {"type": "Point", "coordinates": [-97.01132120150928, 35.38178194106866]}, "properties": {"OBJECTID": 281, "MILEMARKER": "181"}}, {"type": "Feature", "id": 282, "geometry": {"type": "Point", "coordinates": [-96.99438512135168, 35.38360745526683]}, "properties": {"OBJECTID": 282, "MILEMARKER": "182"}}, {"type": "Feature", "id": 283, "geometry": {"type": "Point", "coordinates": [-96.97672150872624, 35.38372502775468]}, "properties": {"OBJECTID": 283, "MILEMARKER": "183"}}, {"type": "Feature", "id": 284, "geometry": {"type": "Point", "coordinates": [-96.95923707481604, 35.38370323721573]}, "properties": {"OBJECTID": 284, "MILEMARKER": "184"}}, {"type": "Feature", "id": 285, "geometry": {"type": "Point", "coordinates": [-96.9414063806409, 35.383720579587546]}, "properties": {"OBJECTID": 285, "MILEMARKER": "185"}}, {"type": "Feature", "id": 286, "geometry": {"type": "Point", "coordinates": [-96.92409731748059, 35.383815670706895]}, "properties": {"OBJECTID": 286, "MILEMARKER": "186"}}, {"type": "Feature", "id": 287, "geometry": {"type": "Point", "coordinates": [-96.90498660968831, 35.38374017486218]}, "properties": {"OBJECTID": 287, "MILEMARKER": "187"}}, {"type": "Feature", "id": 288, "geometry": {"type": "Point", "coordinates": [-96.88728749384548, 35.384467389793386]}, "properties": {"OBJECTID": 288, "MILEMARKER": "188"}}, {"type": "Feature", "id": 289, "geometry": {"type": "Point", "coordinates": [-96.86975507978504, 35.38751760394956]}, "properties": {"OBJECTID": 289, "MILEMARKER": "189"}}, {"type": "Feature", "id": 290, "geometry": {"type": "Point", "coordinates": [-96.85289627790766, 35.390167685320606]}, "properties": {"OBJECTID": 290, "MILEMARKER": "190"}}, {"type": "Feature", "id": 291, "geometry": {"type": "Point", "coordinates": [-96.83552212190551, 35.387438629805814]}, "properties": {"OBJECTID": 291, "MILEMARKER": "191"}}, {"type": "Feature", "id": 292, "geometry": {"type": "Point", "coordinates": [-97.71220487702801, 35.45729872170949]}, "properties": {"OBJECTID": 292, "MILEMARKER": "110"}}, {"type": "Feature", "id": 293, "geometry": {"type": "Point", "coordinates": [-97.19063086249577, 35.5044699852389]}, "properties": {"OBJECTID": 293, "MILEMARKER": "139"}}, {"type": "Feature", "id": 294, "geometry": {"type": "Point", "coordinates": [-97.20056965615505, 35.44913893769434]}, "properties": {"OBJECTID": 294, "MILEMARKER": "135"}}, {"type": "Feature", "id": 295, "geometry": {"type": "Point", "coordinates": [-97.68711029951143, 35.41639287526015]}, "properties": {"OBJECTID": 295, "MILEMARKER": "106"}}, {"type": "Feature", "id": 296, "geometry": {"type": "Point", "coordinates": [-97.71750406346148, 35.44408580015765]}, "properties": {"OBJECTID": 296, "MILEMARKER": "109"}}, {"type": "Feature", "id": 297, "geometry": {"type": "Point", "coordinates": [-97.20529969891413, 35.560040111662516]}, "properties": {"OBJECTID": 297, "MILEMARKER": "143"}}, {"type": "Feature", "id": 298, "geometry": {"type": "Point", "coordinates": [-97.19048665255433, 35.51897180869669]}, "properties": {"OBJECTID": 298, "MILEMARKER": "140"}}, {"type": "Feature", "id": 299, "geometry": {"type": "Point", "coordinates": [-97.70406342264607, 35.43532272599349]}, "properties": {"OBJECTID": 299, "MILEMARKER": "108"}}, {"type": "Feature", "id": 300, "geometry": {"type": "Point", "coordinates": [-97.19372099187066, 35.53299371246321]}, "properties": {"OBJECTID": 300, "MILEMARKER": "141"}}, {"type": "Feature", "id": 301, "geometry": {"type": "Point", "coordinates": [-97.20143528013098, 35.47793893078056]}, "properties": {"OBJECTID": 301, "MILEMARKER": "137"}}, {"type": "Feature", "id": 302, "geometry": {"type": "Point", "coordinates": [-97.20037948451876, 35.434635243740544]}, "properties": {"OBJECTID": 302, "MILEMARKER": "134"}}, {"type": "Feature", "id": 303, "geometry": {"type": "Point", "coordinates": [-97.20162597726734, 35.42016561205278]}, "properties": {"OBJECTID": 303, "MILEMARKER": "133"}}, {"type": "Feature", "id": 304, "geometry": {"type": "Point", "coordinates": [-97.2034754316597, 35.617858547722896]}, "properties": {"OBJECTID": 304, "MILEMARKER": "147"}}, {"type": "Feature", "id": 305, "geometry": {"type": "Point", "coordinates": [-97.65218494067189, 35.41295693885405]}, "properties": {"OBJECTID": 305, "MILEMARKER": "104"}}, {"type": "Feature", "id": 306, "geometry": {"type": "Point", "coordinates": [-97.20145763741465, 35.40578422836563]}, "properties": {"OBJECTID": 306, "MILEMARKER": "132"}}, {"type": "Feature", "id": 307, "geometry": {"type": "Point", "coordinates": [-97.19219426139162, 35.490134603332564]}, "properties": {"OBJECTID": 307, "MILEMARKER": "138"}}, {"type": "Feature", "id": 308, "geometry": {"type": "Point", "coordinates": [-97.1927146862818, 35.393357740631686]}, "properties": {"OBJECTID": 308, "MILEMARKER": "131"}}, {"type": "Feature", "id": 309, "geometry": {"type": "Point", "coordinates": [-97.20511862865415, 35.58903695777863]}, "properties": {"OBJECTID": 309, "MILEMARKER": "145"}}, {"type": "Feature", "id": 310, "geometry": {"type": "Point", "coordinates": [-97.66943419216972, 35.41514034387163]}, "properties": {"OBJECTID": 310, "MILEMARKER": "105"}}, {"type": "Feature", "id": 311, "geometry": {"type": "Point", "coordinates": [-97.70178823446389, 35.421953942785166]}, "properties": {"OBJECTID": 311, "MILEMARKER": "107"}}, {"type": "Feature", "id": 313, "geometry": {"type": "Point", "coordinates": [-97.20164391667632, 35.54593092664592]}, "properties": {"OBJECTID": 313, "MILEMARKER": "142"}}, {"type": "Feature", "id": 314, "geometry": {"type": "Point", "coordinates": [-97.20524016397599, 35.57453536334177]}, "properties": {"OBJECTID": 314, "MILEMARKER": "144"}}, {"type": "Feature", "id": 315, "geometry": {"type": "Point", "coordinates": [-97.19310013577054, 35.629483432804]}, "properties": {"OBJECTID": 315, "MILEMARKER": "148"}}, {"type": "Feature", "id": 316, "geometry": {"type": "Point", "coordinates": [-97.20495999884875, 35.603538303393584]}, "properties": {"OBJECTID": 316, "MILEMARKER": "146"}}, {"type": "Feature", "id": 317, "geometry": {"type": "Point", "coordinates": [-97.20237228050301, 35.4635365138213]}, "properties": {"OBJECTID": 317, "MILEMARKER": "136"}}]}