{"type": "FeatureCollection", "features": [{"type": "Feature", "geometry": {"type": "Point", "coordinates": [-97.13289321800968, 35.304116733262035]}, "properties": {"STATUS": "FOUND"}}, {"type": "Feature", "geometry": {"type": "Point", "coordinates": [-97.13174935296921, 35.31858415164514]}, "properties": {"STATUS": "FOUND"}}, {"type": "Feature", "geometry": {"type": "Point", "coordinates": [-97.13279821899089, 35.33317785112226]}, "properties": {"STATUS": "FOUND"}}, {"type": "Feature", "geometry": {"type": "Point", "coordinates": [-97.1331823642365, 35.34779638123564]}, "properties": {"STATUS": "FOUND"}}, {"type": "Feature", "geometry": {"type": "Point", "coordinates": [-97.12911804895421, 35.362598193262535]}, "properties": {"STATUS": "FOUND"}}, {"type": "Feature", "geometry": {"type": "Point", "coordinates": [-97.12826342120012, 35.37679142040014]}, "properties": {"STATUS": "FOUND"}}, {"type": "Feature", "geometry": {"type": "Point", "coordinates": [-97.12664330265629, 35.391312310697636]}, "properties": {"STATUS": "FOUND"}}, {"type": "Feature", "geometry": {"type": "Point", "coordinates": [-97.15877794879165, 35.40591048899632]}, "properties": {"STATUS": "FOUND"}}, {"type": "Feature", "geometry": {"type": "Point", "coordinates": [-97.15965021848028, 35.42077045933445]}, "properties": {"STATUS": "FOUND"}}, {"type": "Feature", "geometry": {"type": "Point", "coordinates": [-97.17741657339644, 35.28973901506709]}, "properties": {"STATUS": "FOUND"}}, {"type": "Feature", "geometry": {"type": "Point", "coordinates": [-97.17696616336842, 35.30331702379189]}, "properties": {"STATUS": "FOUND"}}, {"type": "Feature", "geometry": {"type": "Point", "coordinates": [-97.17730431088432, 35.31898768121626]}, "properties": {"STATUS": "FOUND"}}, {"type": "Feature", "geometry": {"type": "Point", "coordinates": [-97.177455482447, 35.34795839531533]}, "properties": {"STATUS": "FOUND"}}, {"type": "Feature", "geometry": {"type": "Point", "coordinates": [-97.17743282389561, 35.36939171206094]}, "properties": {"STATUS": "FOUND"}}, {"type": "Feature", "geometry": {"type": "Point", "coordinates": [-97.19517184807306, 35.42064481673006]}, "properties": {"STATUS": "FOUND"}}, {"type": "Feature", "geometry": {"type": "Point", "coordinates": [-97.19449397407539, 35.43536991788733]}, "properties": {"STATUS": "FOUND"}}, {"type": "Feature", "geometry": {"type": "Point", "coordinates": [-97.21256979820522, 35.30434857149254]}, "properties": {"STATUS": "FOUND"}}, {"type": "Feature", "geometry": {"type": "Point", "coordinates": [-97.21270421025967, 35.318934137810764]}, "properties": {"STATUS": "FOUND"}}, {"type": "Feature", "geometry": {"type": "Point", "coordinates": [-97.21251433358297, 35.333620283789664]}, "properties": {"STATUS": "FOUND"}}, {"type": "Feature", "geometry": {"type": "Point", "coordinates": [-97.21299078602652, 35.348184153958435]}, "properties": {"STATUS": "FOUND"}}, {"type": "Feature", "geometry": {"type": "Point", "coordinates": [-97.21323171272174, 35.39168156211914]}, "properties": {"STATUS": "FOUND"}}, {"type": "Feature", "geometry": {"type": "Point", "coordinates": [-97.21449286643147, 35.42059065218405]}, "properties": {"STATUS": "FOUND"}}, {"type": "Feature", "geometry": {"type": "Point", "coordinates": [-97.21198713275184, 35.59422725429144]}, "properties": {"STATUS": "FOUND"}}, {"type": "Feature", "geometry": {"type": "Point", "coordinates": [-97.21244117722695, 35.60887235396043]}, "properties": {"STATUS": "FOUND"}}, {"type": "Feature", "geometry": {"type": "Point", "coordinates": [-97.21226530803212, 35.62375829450128]}, "properties": {"STATUS": "FOUND"}}, {"type": "Feature", "geometry": {"type": "Point", "coordinates": [-97.21276654872335, 35.63781087308319]}, "properties": {"STATUS": "FOUND"}}, {"type": "Feature", "geometry": {"type": "Point", "coordinates": [-97.25203376367195, 35.31948300366612]}, "properties": {"STATUS": "FOUND"}}, {"type": "Feature", "geometry": {"type": "Point", "coordinates": [-97.25249146861205, 35.348429210345195]}, "properties": {"STATUS": "FOUND"}}, {"type": "Feature", "geometry": {"type": "Point", "coordinates": [-97.25410919980783, 35.420829976197645]}, "properties": {"STATUS": "FOUND"}}, {"type": "Feature", "geometry": {"type": "Point", "coordinates": [-97.24678578686562, 35.43511807024884]}, "properties": {"STATUS": "FOUND"}}, {"type": "Feature", "geometry": {"type": "Point", "coordinates": [-97.27392731055723, 35.565907435055394]}, "properties": {"STATUS": "FOUND"}}, {"type": "Feature", "geometry": {"type": "Point", "coordinates": [-97.26512939612759, 35.65291477848912]}, "properties": {"STATUS": "FOUND"}}, {"type": "Feature", "geometry": {"type": "Point", "coordinates": [-97.26440825103526, 35.666989405951064]}, "properties": {"STATUS": "FOUND"}}, {"type": "Feature", "geometry": {"type": "Point", "coordinates": [-97.26484406986661, 35.681662807924496]}, "properties": {"STATUS": "FOUND"}}, {"type": "Feature", "geometry": {"type": "Point", "coordinates": [-97.29144863008845, 35.34847323148313]}, "properties": {"STATUS": "FOUND"}}, {"type": "Feature", "geometry": {"type": "Point", "coordinates": [-97.29197989650201, 35.36301214056801]}, "properties": {"STATUS": "FOUND"}}, {"type": "Feature", "geometry": {"type": "Point", "coordinates": [-97.28972435443698, 35.37714130256962]}, "properties": {"STATUS": "FOUND"}}, {"type": "Feature", "geometry": {"type": "Point", "coordinates": [-97.28870385375318, 35.406248109482384]}, "properties": {"STATUS": "FOUND"}}, {"type": "Feature", "geometry": {"type": "Point", "coordinates": [-97.28293626377857, 35.435420585636635]}, "properties": {"STATUS": "FOUND"}}, {"type": "Feature", "geometry": {"type": "Point", "coordinates": [-97.28262693477504, 35.49271574445954]}, "properties": {"STATUS": "FOUND"}}, {"type": "Feature", "geometry": {"type": "Point", "coordinates": [-97.28304559367524, 35.507460018165474]}, "properties": {"STATUS": "FOUND"}}, {"type": "Feature", "geometry": {"type": "Point", "coordinates": [-97.28223054317851, 35.52224789643663]}, "properties": {"STATUS": "FOUND"}}, {"type": "Feature", "geometry": {"type": "Point", "coordinates": [-97.29033581055148, 35.536584454493436]}, "properties": {"STATUS": "FOUND"}}, {"type": "Feature", "geometry": {"type": "Point", "coordinates": [-97.291532541891, 35.56584891789036]}, "properties": {"STATUS": "FOUND"}}, {"type": "Feature", "geometry": {"type": "Point", "coordinates": [-97.28297490735686, 35.62360961766347]}, "properties": {"STATUS": "FOUND"}}, {"type": "Feature", "geometry": {"type": "Point", "coordinates": [-97.30040172126208, 35.30498397175339]}, "properties": {"STATUS": "FOUND"}}, {"type": "Feature", "geometry": {"type": "Point", "coordinates": [-97.30013743765457, 35.33387319530113]}, "properties": {"STATUS": "FOUND"}}, {"type": "Feature", "geometry": {"type": "Point", "coordinates": [-97.30007609430706, 35.49331742282356]}, "properties": {"STATUS": "FOUND"}}, {"type": "Feature", "geometry": {"type": "Point", "coordinates": [-97.30051653121768, 35.65281019561616]}, "properties": {"STATUS": "FOUND"}}, {"type": "Feature", "geometry": {"type": "Point", "coordinates": [-97.31812066021656, 35.30520002918031]}, "properties": {"STATUS": "FOUND"}}, {"type": "Feature", "geometry": {"type": "Point", "coordinates": [-97.31825998552245, 35.56569317978012]}, "properties": {"STATUS": "FOUND"}}, {"type": "Feature", "geometry": {"type": "Point", "coordinates": [-97.31818832355168, 35.580104705580894]}, "properties": {"STATUS": "FOUND"}}, {"type": "Feature", "geometry": {"type": "Point", "coordinates": [-97.31792793535483, 35.609120956378476]}, "properties": {"STATUS": "FOUND"}}, {"type": "Feature", "geometry": {"type": "Point", "coordinates": [-97.32820472878332, 35.334074812538034]}, "properties": {"STATUS": "FOUND"}}, {"type": "Feature", "geometry": {"type": "Point", "coordinates": [-97.33143387865705, 35.391719186152784]}, "properties": {"STATUS": "FOUND"}}, {"type": "Feature", "geometry": {"type": "Point", "coordinates": [-97.33175379758136, 35.536616733161694]}, "properties": {"STATUS": "FOUND"}}, {"type": "Feature", "geometry": {"type": "Point", "coordinates": [-97.3367722281382, 35.27634626187759]}, "properties": {"STATUS": "FOUND"}}, {"type": "Feature", "geometry": {"type": "Point", "coordinates": [-97.33499274999694, 35.42055043083813]}, "properties": {"STATUS": "FOUND"}}, {"type": "Feature", "geometry": {"type": "Point", "coordinates": [-97.33600826430174, 35.435278945216375]}, "properties": {"STATUS": "FOUND"}}, {"type": "Feature", "geometry": {"type": "Point", "coordinates": [-97.33614977754905, 35.45003441642871]}, "properties": {"STATUS": "FOUND"}}, {"type": "Feature", "geometry": {"type": "Point", "coordinates": [-97.33549111688338, 35.46391469992754]}, "properties": {"STATUS": "FOUND"}}, {"type": "Feature", "geometry": {"type": "Point", "coordinates": [-97.33540312357677, 35.47871228534943]}, "properties": {"STATUS": "FOUND"}}, {"type": "Feature", "geometry": {"type": "Point", "coordinates": [-97.33548520592942, 35.49315653477381]}, "properties": {"STATUS": "FOUND"}}, {"type": "Feature", "geometry": {"type": "Point", "coordinates": [-97.33558722697734, 35.50776802412111]}, "properties": {"STATUS": "FOUND"}}, {"type": "Feature", "geometry": {"type": "Point", "coordinates": [-97.33854769971717, 35.62348056310619]}, "properties": {"STATUS": "FOUND"}}, {"type": "Feature", "geometry": {"type": "Point", "coordinates": [-97.33588502882375, 35.638056469701496]}, "properties": {"STATUS": "FOUND"}}, {"type": "Feature", "geometry": {"type": "Point", "coordinates": [-97.35310557143325, 35.30516644059486]}, "properties": {"STATUS": "FOUND"}}, {"type": "Feature", "geometry": {"type": "Point", "coordinates": [-97.35370655448618, 35.596503408890484]}, "properties": {"STATUS": "FOUND"}}, {"type": "Feature", "geometry": {"type": "Point", "coordinates": [-97.35403457046999, 35.638051826091456]}, "properties": {"STATUS": "FOUND"}}, {"type": "Feature", "geometry": {"type": "Point", "coordinates": [-97.3707866691737, 35.34845046455094]}, "properties": {"STATUS": "FOUND"}}, {"type": "Feature", "geometry": {"type": "Point", "coordinates": [-97.37080961848264, 35.38619018757908]}, "properties": {"STATUS": "FOUND"}}, {"type": "Feature", "geometry": {"type": "Point", "coordinates": [-97.3710642791244, 35.42097247857122]}, "properties": {"STATUS": "FOUND"}}, {"type": "Feature", "geometry": {"type": "Point", "coordinates": [-97.37039280300031, 35.44958426102614]}, "properties": {"STATUS": "FOUND"}}, {"type": "Feature", "geometry": {"type": "Point", "coordinates": [-97.37104631195243, 35.478661601801754]}, "properties": {"STATUS": "FOUND"}}, {"type": "Feature", "geometry": {"type": "Point", "coordinates": [-97.3732635073506, 35.53654260435403]}, "properties": {"STATUS": "FOUND"}}, {"type": "Feature", "geometry": {"type": "Point", "coordinates": [-97.39158021433612, 35.30536135146907]}, "properties": {"STATUS": "FOUND"}}, {"type": "Feature", "geometry": {"type": "Point", "coordinates": [-97.38590221878782, 35.565602126603956]}, "properties": {"STATUS": "FOUND"}}, {"type": "Feature", "geometry": {"type": "Point", "coordinates": [-97.39205178623442, 35.60934819133377]}, "properties": {"STATUS": "FOUND"}}, {"type": "Feature", "geometry": {"type": "Point", "coordinates": [-97.38902284690376, 35.638062189251]}, "properties": {"STATUS": "FOUND"}}, {"type": "Feature", "geometry": {"type": "Point", "coordinates": [-97.40576144650441, 35.33451991812434]}, "properties": {"STATUS": "FOUND"}}, {"type": "Feature", "geometry": {"type": "Point", "coordinates": [-97.40584775177867, 35.34841107890524]}, "properties": {"STATUS": "FOUND"}}, {"type": "Feature", "geometry": {"type": "Point", "coordinates": [-97.41792923803457, 35.37742523451433]}, "properties": {"STATUS": "FOUND"}}, {"type": "Feature", "geometry": {"type": "Point", "coordinates": [-97.40580826258434, 35.39213748743969]}, "properties": {"STATUS": "FOUND"}}, {"type": "Feature", "geometry": {"type": "Point", "coordinates": [-97.40579371557075, 35.47849205111849]}, "properties": {"STATUS": "FOUND"}}, {"type": "Feature", "geometry": {"type": "Point", "coordinates": [-97.40622849589978, 35.507559241329936]}, "properties": {"STATUS": "FOUND"}}, {"type": "Feature", "geometry": {"type": "Point", "coordinates": [-97.40415485612576, 35.53667010456541]}, "properties": {"STATUS": "FOUND"}}, {"type": "Feature", "geometry": {"type": "Point", "coordinates": [-97.43209857284818, 35.305357489304534]}, "properties": {"STATUS": "FOUND"}}, {"type": "Feature", "geometry": {"type": "Point", "coordinates": [-97.4250993626178, 35.5726943810146]}, "properties": {"STATUS": "FOUND"}}, {"type": "Feature", "geometry": {"type": "Point", "coordinates": [-97.44121354106713, 35.319346992130214]}, "properties": {"STATUS": "FOUND"}}, {"type": "Feature", "geometry": {"type": "Point", "coordinates": [-97.44153322821403, 35.33394382996858]}, "properties": {"STATUS": "FOUND"}}, {"type": "Feature", "geometry": {"type": "Point", "coordinates": [-97.44148136385607, 35.37721721630438]}, "properties": {"STATUS": "FOUND"}}, {"type": "Feature", "geometry": {"type": "Point", "coordinates": [-97.45196010137388, 35.40642165323728]}, "properties": {"STATUS": "FOUND"}}, {"type": "Feature", "geometry": {"type": "Point", "coordinates": [-97.4460407790374, 35.43514374481672]}, "properties": {"STATUS": "FOUND"}}, {"type": "Feature", "geometry": {"type": "Point", "coordinates": [-97.44655115290146, 35.507845108561305]}, "properties": {"STATUS": "FOUND"}}, {"type": "Feature", "geometry": {"type": "Point", "coordinates": [-97.44470150679638, 35.522351525792914]}, "properties": {"STATUS": "FOUND"}}, {"type": "Feature", "geometry": {"type": "Point", "coordinates": [-97.44318916953344, 35.53700466165542]}, "properties": {"STATUS": "FOUND"}}, {"type": "Feature", "geometry": {"type": "Point", "coordinates": [-97.45940364563845, 35.36303293003631]}, "properties": {"STATUS": "FOUND"}}, {"type": "Feature", "geometry": {"type": "Point", "coordinates": [-97.47045789336124, 35.56569485836092]}, "properties": {"STATUS": "FOUND"}}, {"type": "Feature", "geometry": {"type": "Point", "coordinates": [-97.48477265861611, 35.39189971944492]}, "properties": {"STATUS": "FOUND"}}, {"type": "Feature", "geometry": {"type": "Point", "coordinates": [-97.47267616096222, 35.44272976517696]}, "properties": {"STATUS": "FOUND"}}, {"type": "Feature", "geometry": {"type": "Point", "coordinates": [-97.48330030937483, 35.480100914017584]}, "properties": {"STATUS": "FOUND"}}, {"type": "Feature", "geometry": {"type": "Point", "coordinates": [-97.49386970744301, 35.50771658491423]}, "properties": {"STATUS": "FOUND"}}, {"type": "Feature", "geometry": {"type": "Point", "coordinates": [-97.51226327486799, 35.29083922425279]}, "properties": {"STATUS": "FOUND"}}, {"type": "Feature", "geometry": {"type": "Point", "coordinates": [-97.50902872946213, 35.565691287192266]}, "properties": {"STATUS": "FOUND"}}, {"type": "Feature", "geometry": {"type": "Point", "coordinates": [-97.50942773671765, 35.60898874303679]}, "properties": {"STATUS": "FOUND"}}, {"type": "Feature", "geometry": {"type": "Point", "coordinates": [-97.50847516050581, 35.65287385680301]}, "properties": {"STATUS": "FOUND"}}, {"type": "Feature", "geometry": {"type": "Point", "coordinates": [-97.52306434316084, 35.39105392934243]}, "properties": {"STATUS": "FOUND"}}, {"type": "Feature", "geometry": {"type": "Point", "coordinates": [-97.52234464363447, 35.42086497393138]}, "properties": {"STATUS": "FOUND"}}, {"type": "Feature", "geometry": {"type": "Point", "coordinates": [-97.52247546852749, 35.44952660711525]}, "properties": {"STATUS": "FOUND"}}, {"type": "Feature", "geometry": {"type": "Point", "coordinates": [-97.5254204470197, 35.508020447429686]}, "properties": {"STATUS": "FOUND"}}, {"type": "Feature", "geometry": {"type": "Point", "coordinates": [-97.52283620070861, 35.5369460053869]}, "properties": {"STATUS": "FOUND"}}, {"type": "Feature", "geometry": {"type": "Point", "coordinates": [-97.55049045703305, 35.58004201316579]}, "properties": {"STATUS": "FOUND"}}, {"type": "Feature", "geometry": {"type": "Point", "coordinates": [-97.55779851434853, 35.68207050849086]}, "properties": {"STATUS": "FOUND"}}, {"type": "Feature", "geometry": {"type": "Point", "coordinates": [-97.5615771360576, 35.39169990056744]}, "properties": {"STATUS": "FOUND"}}, {"type": "Feature", "geometry": {"type": "Point", "coordinates": [-97.56185754433498, 35.4207904527909]}, "properties": {"STATUS": "FOUND"}}, {"type": "Feature", "geometry": {"type": "Point", "coordinates": [-97.56007024620243, 35.449785307163424]}, "properties": {"STATUS": "FOUND"}}, {"type": "Feature", "geometry": {"type": "Point", "coordinates": [-97.58246031233095, 35.290765565380134]}, "properties": {"STATUS": "FOUND"}}, {"type": "Feature", "geometry": {"type": "Point", "coordinates": [-97.58027786130313, 35.31944281802696]}, "properties": {"STATUS": "FOUND"}}, {"type": "Feature", "geometry": {"type": "Point", "coordinates": [-97.58511901379981, 35.58184386187686]}, "properties": {"STATUS": "FOUND"}}, {"type": "Feature", "geometry": {"type": "Point", "coordinates": [-97.593941259942, 35.66764324653033]}, "properties": {"STATUS": "FOUND"}}, {"type": "Feature", "geometry": {"type": "Point", "coordinates": [-97.59564118171629, 35.68218360229073]}, "properties": {"STATUS": "FOUND"}}, {"type": "Feature", "geometry": {"type": "Point", "coordinates": [-97.601076142529, 35.406432382780814]}, "properties": {"STATUS": "FOUND"}}, {"type": "Feature", "geometry": {"type": "Point", "coordinates": [-97.60075459684847, 35.4506380595367]}, "properties": {"STATUS": "FOUND"}}, {"type": "Feature", "geometry": {"type": "Point", "coordinates": [-97.59920105200193, 35.47890605113691]}, "properties": {"STATUS": "FOUND"}}, {"type": "Feature", "geometry": {"type": "Point", "coordinates": [-97.59886688560697, 35.507720316125365]}, "properties": {"STATUS": "FOUND"}}, {"type": "Feature", "geometry": {"type": "Point", "coordinates": [-97.60134904806685, 35.522513793058486]}, "properties": {"STATUS": "FOUND"}}, {"type": "Feature", "geometry": {"type": "Point", "coordinates": [-97.59919108221422, 35.5369037068139]}, "properties": {"STATUS": "FOUND"}}, {"type": "Feature", "geometry": {"type": "Point", "coordinates": [-97.6035342689044, 35.65302848371785]}, "properties": {"STATUS": "FOUND"}}, {"type": "Feature", "geometry": {"type": "Point", "coordinates": [-97.62358675607081, 35.580046165789234]}, "properties": {"STATUS": "FOUND"}}, {"type": "Feature", "geometry": {"type": "Point", "coordinates": [-97.62525805290291, 35.63859094406442]}, "properties": {"STATUS": "FOUND"}}, {"type": "Feature", "geometry": {"type": "Point", "coordinates": [-97.625464463805, 35.653110311141354]}, "properties": {"STATUS": "FOUND"}}, {"type": "Feature", "geometry": {"type": "Point", "coordinates": [-97.63735380428169, 35.34842429849348]}, "properties": {"STATUS": "FOUND"}}, {"type": "Feature", "geometry": {"type": "Point", "coordinates": [-97.63787589011751, 35.420793521805535]}, "properties": {"STATUS": "FOUND"}}, {"type": "Feature", "geometry": {"type": "Point", "coordinates": [-97.6378758911097, 35.46430706117122]}, "properties": {"STATUS": "FOUND"}}, {"type": "Feature", "geometry": {"type": "Point", "coordinates": [-97.63876617839828, 35.478981061262125]}, "properties": {"STATUS": "FOUND"}}, {"type": "Feature", "geometry": {"type": "Point", "coordinates": [-97.63866905124564, 35.49326380957009]}, "properties": {"STATUS": "FOUND"}}, {"type": "Feature", "geometry": {"type": "Point", "coordinates": [-97.64058267973714, 35.50808387075634]}, "properties": {"STATUS": "FOUND"}}, {"type": "Feature", "geometry": {"type": "Point", "coordinates": [-97.63780709305435, 35.53707969287583]}, "properties": {"STATUS": "FOUND"}}, {"type": "Feature", "geometry": {"type": "Point", "coordinates": [-97.65308451431248, 35.3055297623982]}, "properties": {"STATUS": "FOUND"}}, {"type": "Feature", "geometry": {"type": "Point", "coordinates": [-97.66336672383152, 35.507665316534386]}, "properties": {"STATUS": "FOUND"}}, {"type": "Feature", "geometry": {"type": "Point", "coordinates": [-97.66460378468149, 35.58033469078083]}, "properties": {"STATUS": "FOUND"}}, {"type": "Feature", "geometry": {"type": "Point", "coordinates": [-97.66467375490102, 35.609224608748114]}, "properties": {"STATUS": "FOUND"}}, {"type": "Feature", "geometry": {"type": "Point", "coordinates": [-97.66567974269047, 35.653029652763614]}, "properties": {"STATUS": "FOUND"}}, {"type": "Feature", "geometry": {"type": "Point", "coordinates": [-97.68113604941985, 35.32010135976241]}, "properties": {"STATUS": "FOUND"}}, {"type": "Feature", "geometry": {"type": "Point", "coordinates": [-97.67558379716712, 35.36262959177424]}, "properties": {"STATUS": "FOUND"}}, {"type": "Feature", "geometry": {"type": "Point", "coordinates": [-97.6795377235994, 35.39155234313482]}, "properties": {"STATUS": "FOUND"}}, {"type": "Feature", "geometry": {"type": "Point", "coordinates": [-97.67844633284646, 35.42077912347313]}, "properties": {"STATUS": "FOUND"}}, {"type": "Feature", "geometry": {"type": "Point", "coordinates": [-97.67317029581585, 35.46419311690956]}, "properties": {"STATUS": "FOUND"}}, {"type": "Feature", "geometry": {"type": "Point", "coordinates": [-97.69773712094518, 35.36288841637985]}, "properties": {"STATUS": "FOUND"}}, {"type": "Feature", "geometry": {"type": "Point", "coordinates": [-97.71492380552012, 35.39156430925634]}, "properties": {"STATUS": "FOUND"}}, {"type": "Feature", "geometry": {"type": "Point", "coordinates": [-97.71450136565414, 35.406272889560405]}, "properties": {"STATUS": "FOUND"}}, {"type": "Feature", "geometry": {"type": "Point", "coordinates": [-97.72298397470813, 35.43517777060973]}, "properties": {"STATUS": "FOUND"}}, {"type": "Feature", "geometry": {"type": "Point", "coordinates": [-97.71510348446147, 35.449671429532785]}, "properties": {"STATUS": "FOUND"}}, {"type": "Feature", "geometry": {"type": "Point", "coordinates": [-97.71506677675136, 35.47874983987785]}, "properties": {"STATUS": "FOUND"}}, {"type": "Feature", "geometry": {"type": "Point", "coordinates": [-97.71472018659833, 35.52238839187211]}, "properties": {"STATUS": "FOUND"}}, {"type": "Feature", "geometry": {"type": "Point", "coordinates": [-97.71567668332251, 35.53690583484692]}, "properties": {"STATUS": "FOUND"}}, {"type": "Feature", "geometry": {"type": "Point", "coordinates": [-97.70115418766561, 35.56573197876147]}, "properties": {"STATUS": "FOUND"}}, {"type": "Feature", "geometry": {"type": "Point", "coordinates": [-97.69943358595052, 35.638405123577435]}, "properties": {"STATUS": "FOUND"}}, {"type": "Feature", "geometry": {"type": "Point", "coordinates": [-97.75948762814978, 35.3199728196993]}, "properties": {"STATUS": "FOUND"}}, {"type": "Feature", "geometry": {"type": "Point", "coordinates": [-97.7525245835483, 35.34832663746232]}, "properties": {"STATUS": "FOUND"}}, {"type": "Feature", "geometry": {"type": "Point", "coordinates": [-97.75375249794132, 35.36284146104863]}, "properties": {"STATUS": "FOUND"}}, {"type": "Feature", "geometry": {"type": "Point", "coordinates": [-97.75587636536656, 35.39159607224679]}, "properties": {"STATUS": "FOUND"}}, {"type": "Feature", "geometry": {"type": "Point", "coordinates": [-97.7538405191704, 35.4500117982241]}, "properties": {"STATUS": "FOUND"}}, {"type": "Feature", "geometry": {"type": "Point", "coordinates": [-97.75819195050637, 35.52245912000661]}, "properties": {"STATUS": "FOUND"}}, {"type": "Feature", "geometry": {"type": "Point", "coordinates": [-97.74375448008196, 35.55123075805047]}, "properties": {"STATUS": "FOUND"}}, {"type": "Feature", "geometry": {"type": "Point", "coordinates": [-97.73861163120321, 35.58014247435352]}, "properties": {"STATUS": "FOUND"}}, {"type": "Feature", "geometry": {"type": "Point", "coordinates": [-97.73796016710408, 35.60909797263797]}, "properties": {"STATUS": "FOUND"}}, {"type": "Feature", "geometry": {"type": "Point", "coordinates": [-97.7782297223863, 35.56566272840688]}, "properties": {"STATUS": "FOUND"}}, {"type": "Feature", "geometry": {"type": "Point", "coordinates": [-97.77958158140724, 35.609129106129615]}, "properties": {"STATUS": "FOUND"}}, {"type": "Feature", "geometry": {"type": "Point", "coordinates": [-97.79544401927448, 35.37585128554702]}, "properties": {"STATUS": "FOUND"}}, {"type": "Feature", "geometry": {"type": "Point", "coordinates": [-97.792535181775, 35.42061074870542]}, "properties": {"STATUS": "FOUND"}}, {"type": "Feature", "geometry": {"type": "Point", "coordinates": [-97.7915694375412, 35.449840820411076]}, "properties": {"STATUS": "FOUND"}}, {"type": "Feature", "geometry": {"type": "Point", "coordinates": [-97.79413756282106, 35.464471949479154]}, "properties": {"STATUS": "FOUND"}}, {"type": "Feature", "geometry": {"type": "Point", "coordinates": [-97.79324372858969, 35.47883212967955]}, "properties": {"STATUS": "FOUND"}}, {"type": "Feature", "geometry": {"type": "Point", "coordinates": [-97.79214234751207, 35.49333237517548]}, "properties": {"STATUS": "FOUND"}}, {"type": "Feature", "geometry": {"type": "Point", "coordinates": [-97.81620572947642, 35.55119516032575]}, "properties": {"STATUS": "FOUND"}}, {"type": "Feature", "geometry": {"type": "Point", "coordinates": [-97.81622535326782, 35.59488252899061]}, "properties": {"STATUS": "FOUND"}}, {"type": "Feature", "geometry": {"type": "Point", "coordinates": [-97.81600360146321, 35.62384915830973]}, "properties": {"STATUS": "FOUND"}}, {"type": "Feature", "geometry": {"type": "Point", "coordinates": [-97.8160913180986, 35.63834039282497]}, "properties": {"STATUS": "FOUND"}}, {"type": "Feature", "geometry": {"type": "Point", "coordinates": [-97.83062280497974, 35.36270887456743]}, "properties": {"STATUS": "FOUND"}}, {"type": "Feature", "geometry": {"type": "Point", "coordinates": [-97.83051430462858, 35.391734974785265]}, "properties": {"STATUS": "FOUND"}}, {"type": "Feature", "geometry": {"type": "Point", "coordinates": [-97.83013844402126, 35.4060950475078]}, "properties": {"STATUS": "FOUND"}}, {"type": "Feature", "geometry": {"type": "Point", "coordinates": [-97.83070407810479, 35.42064375120359]}, "properties": {"STATUS": "FOUND"}}, {"type": "Feature", "geometry": {"type": "Point", "coordinates": [-97.83114389341657, 35.43529773622839]}, "properties": {"STATUS": "FOUND"}}, {"type": "Feature", "geometry": {"type": "Point", "coordinates": [-97.83094516858372, 35.44983399250478]}, "properties": {"STATUS": "FOUND"}}, {"type": "Feature", "geometry": {"type": "Point", "coordinates": [-97.83104044509545, 35.47863139839489]}, "properties": {"STATUS": "FOUND"}}, {"type": "Feature", "geometry": {"type": "Point", "coordinates": [-97.83071437301447, 35.49349126862108]}, "properties": {"STATUS": "FOUND"}}, {"type": "Feature", "geometry": {"type": "Point", "coordinates": [-97.83126747890437, 35.50792097418412]}, "properties": {"STATUS": "FOUND"}}, {"type": "Feature", "geometry": {"type": "Point", "coordinates": [-97.5384674798493, 35.30516371995287]}, "properties": {"STATUS": "FOUND"}}, {"type": "Feature", "geometry": {"type": "Point", "coordinates": [-97.72445636201972, 35.36309188854079]}, "properties": {"STATUS": "FOUND"}}, {"type": "Feature", "geometry": {"type": "Point", "coordinates": [-97.58382758862318, 35.44584731682222]}, "properties": {"STATUS": "FOUND"}}, {"type": "Feature", "geometry": {"type": "Point", "coordinates": [-97.59644087946035, 35.553423348144314]}, "properties": {"STATUS": "FOUND"}}, {"type": "Feature", "geometry": {"type": "Point", "coordinates": [-97.60052583052548, 35.4490482496671]}, "properties": {"STATUS": "FOUND"}}, {"type": "Feature", "geometry": {"type": "Point", "coordinates": [-97.54011443897309, 35.458515201286964]}, "properties": {"STATUS": "FOUND"}}, {"type": "Feature", "geometry": {"type": "Point", "coordinates": [-97.4946118520322, 35.45939504263979]}, "properties": {"STATUS": "FOUND"}}, {"type": "Feature", "geometry": {"type": "Point", "coordinates": [-97.48439351396246, 35.42820512093495]}, "properties": {"STATUS": "FOUND"}}, {"type": "Feature", "geometry": {"type": "Point", "coordinates": [-97.33631122172594, 35.3674557180892]}, "properties": {"STATUS": "FOUND"}}]}