{"type": "FeatureCollection", "features": [{"type": "Feature", "id": 2062223, "geometry": {"type": "Point", "coordinates": [-97.47806446928287, 35.392404718245366]}, "properties": {"OBJECTID": 2062223, "Worktype": "Road Construction", "Startdate": "08/14/2023", "Enddate": "12/31/2026", "Worklocation": "S EASTERN AVE & E I-240 SERVICE RD", "workzonenumber": "WZ-2023-01321", "Northbound": "No", "Southbound": "No", "Eastbound": "No", "Westbound": "No", "Roadclosure": "Yes", "LaneClosure": "No", "SideWalkClosure": "No", "RightOfWayWork": "No"}}, {"type": "Feature", "id": 2189178, "geometry": {"type": "Point", "coordinates": [-97.51710947852197, 35.47413486748716]}, "properties": {"OBJECTID": 2189178, "Worktype": "Building Demolition", "Startdate": "05/05/2025", "Enddate": "01/30/2027", "Worklocation": "211 NW 6th Street, Oklahoma City, OK 73102", "workzonenumber": "WZ-2024-02243", "Northbound": "No", "Southbound": "No", "Eastbound": "No", "Westbound": "WB: 1", "Roadclosure": "No", "LaneClosure": "Yes", "SideWalkClosure": "Yes", "RightOfWayWork": "Yes"}}, {"type": "Feature", "id": 2243688, "geometry": {"type": "Point", "coordinates": [-97.51804169338241, 35.46970323188376]}, "properties": {"OBJECTID": 2243688, "Worktype": "Building Construction", "Startdate": "06/16/2025", "Enddate": "12/31/2026", "Worklocation": "N Harvey Ave between Robert S Kerr Ave and Park Ave & Robert S Kerr Ave Between N Harvey and N Hudson    217 N Harvey Ave", "workzonenumber": "WZ-2025-01091", "Northbound": "No", "Southbound": "No", "Eastbound": "No", "Westbound": "No", "Roadclosure": "Yes", "LaneClosure": "No", "SideWalkClosure": "Yes", "RightOfWayWork": "Yes"}}, {"type": "Feature", "id": 2247697, "geometry": {"type": "Point", "coordinates": [-97.51976383902874, 35.47969551643489]}, "properties": {"OBJECTID": 2247697, "Worktype": "Building Construction", "Startdate": "06/18/2025", "Enddate": "01/01/2027", "Worklocation": "1135 N HUDSON AVE, OKLAHOMA CITY 73103", "workzonenumber": "WZ-2025-01556", "Northbound": "No", "Southbound": "No", "Eastbound": "No", "Westbound": "No", "Roadclosure": "No", "LaneClosure": "No", "SideWalkClosure": "Yes", "RightOfWayWork": "Yes"}}, {"type": "Feature", "id": 2255694, "geometry": {"type": "Point", "coordinates": [-97.5169657424575, 35.47414797795426]}, "properties": {"OBJECTID": 2255694, "Worktype": "Building Demolition", "Startdate": "05/05/2025", "Enddate": "01/30/2027", "Worklocation": "211 NW 6th Street, Oklahoma City, OK 73102", "workzonenumber": "WZ-2024-02243", "Northbound": "No", "Southbound": "No", "Eastbound": "No", "Westbound": "WB: 1", "Roadclosure": "No", "LaneClosure": "Yes", "SideWalkClosure": "Yes", "RightOfWayWork": "Yes"}}, {"type": "Feature", "id": 2260899, "geometry": {"type": "Point", "coordinates": [-97.52426900929603, 35.477325330059465]}, "properties": {"OBJECTID": 2260899, "Worktype": "Building Construction", "Startdate": "08/25/2025", "Enddate": "03/01/2027", "Worklocation": "NW 9TH ST & N LEE AVE", "workzonenumber": "WZ-2025-01940", "Northbound": "No", "Southbound": "No", "Eastbound": "No", "Westbound": "No", "Roadclosure": "No", "LaneClosure": "No", "SideWalkClosure": "Yes", "RightOfWayWork": "Yes"}}, {"type": "Feature", "id": 2262492, "geometry": {"type": "Point", "coordinates": [-97.5479520594402, 35.46896870298079]}, "properties": {"OBJECTID": 2262492, "Worktype": "Utility Maintenance and Repair", "Startdate": "08/13/2025", "Enddate": "08/13/2026", "Worklocation": "NW 1ST ST & N PENNSYLVANIA AVE", "workzonenumber": "WZ-2025-01968", "Northbound": "No", "Southbound": "SB: 1", "Eastbound": "No", "Westbound": "No", "Roadclosure": "No", "LaneClosure": "Yes", "SideWalkClosure": "No", "RightOfWayWork": "Yes"}}, {"type": "Feature", "id": 2265292, "geometry": {"type": "Point", "coordinates": [-97.51323006861622, 35.48267483468332]}, "properties": {"OBJECTID": 2265292, "Worktype": "Building Construction", "Startdate": "08/22/2025", "Enddate": "12/31/2026", "Worklocation": "13 NW 13th St", "workzonenumber": "WZ-2025-01108", "Northbound": "No", "Southbound": "No", "Eastbound": "No", "Westbound": "No", "Roadclosure": "No", "LaneClosure": "No", "SideWalkClosure": "Yes", "RightOfWayWork": "Yes"}}, {"type": "Feature", "id": 2265691, "geometry": {"type": "Point", "coordinates": [-97.54026393426591, 35.512277735524734]}, "properties": {"OBJECTID": 2265691, "Worktype": "Street Repair", "Startdate": "09/02/2025", "Enddate": "09/22/2026", "Worklocation": "NW 36th St, N Pennsylvania Ave, NW Expressway & Classen Blvd", "workzonenumber": "WZ-2025-02038", "Northbound": "NB: 1", "Southbound": "SB: 1", "Eastbound": "EB: 1", "Westbound": "No", "Roadclosure": "No", "LaneClosure": "Yes", "SideWalkClosure": "No", "RightOfWayWork": "Yes"}}, {"type": "Feature", "id": 2278902, "geometry": {"type": "Point", "coordinates": [-97.56729474331392, 35.63930534953343]}, "properties": {"OBJECTID": 2278902, "Worktype": "Building Construction", "Startdate": "10/08/2025", "Enddate": "10/09/2026", "Worklocation": "16505 N May Ave", "workzonenumber": "WZ-2025-02298", "Northbound": "No", "Southbound": "SB: 1", "Eastbound": "No", "Westbound": "No", "Roadclosure": "No", "LaneClosure": "Yes", "SideWalkClosure": "Yes", "RightOfWayWork": "Yes"}}, {"type": "Feature", "id": 2283715, "geometry": {"type": "Point", "coordinates": [-97.61909450340099, 35.435294524128345]}, "properties": {"OBJECTID": 2283715, "Worktype": "Road Construction", "Startdate": "11/03/2025", "Enddate": "11/06/2026", "Worklocation": "SW 29TH ST & S MACARTHUR BLVD", "workzonenumber": "WZ-2025-02439", "Northbound": "No", "Southbound": "No", "Eastbound": "No", "Westbound": "No", "Roadclosure": "No", "LaneClosure": "No", "SideWalkClosure": "No", "RightOfWayWork": "Yes"}}, {"type": "Feature", "id": 2283716, "geometry": {"type": "Point", "coordinates": [-97.6362588531855, 35.435218302372505]}, "properties": {"OBJECTID": 2283716, "Worktype": "Road Construction", "Startdate": "11/03/2025", "Enddate": "11/06/2026", "Worklocation": "SW 29TH ST & S MACARTHUR BLVD", "workzonenumber": "WZ-2025-02439", "Northbound": "No", "Southbound": "No", "Eastbound": "No", "Westbound": "No", "Roadclosure": "No", "LaneClosure": "No", "SideWalkClosure": "No", "RightOfWayWork": "Yes"}}, {"type": "Feature", "id": 2285717, "geometry": {"type": "Point", "coordinates": [-97.5174643635417, 35.47353951989145]}, "properties": {"OBJECTID": 2285717, "Worktype": "Building Construction", "Startdate": "12/17/2025", "Enddate": "04/09/2027", "Worklocation": "620 N Harvey", "workzonenumber": "WZ-2025-02457", "Northbound": "No", "Southbound": "No", "Eastbound": "No", "Westbound": "No", "Roadclosure": "No", "LaneClosure": "No", "SideWalkClosure": "No", "RightOfWayWork": "Yes"}}, {"type": "Feature", "id": 2298160, "geometry": {"type": "Point", "coordinates": [-97.52971226233734, 35.493205600811926]}, "properties": {"OBJECTID": 2298160, "Worktype": "Road Construction", "Startdate": "01/12/2026", "Enddate": "12/01/2026", "Worklocation": "N WESTERN AVE & NW 23RD ST", "workzonenumber": "WZ-2025-02753", "Northbound": "No", "Southbound": "No", "Eastbound": "EB: 2", "Westbound": "WB: 2", "Roadclosure": "Yes", "LaneClosure": "Yes", "SideWalkClosure": "Yes", "RightOfWayWork": "Yes"}}, {"type": "Feature", "id": 2298161, "geometry": {"type": "Point", "coordinates": [-97.5140846836525, 35.49331546341229]}, "properties": {"OBJECTID": 2298161, "Worktype": "Road Construction", "Startdate": "01/12/2026", "Enddate": "12/01/2026", "Worklocation": "N WESTERN AVE & NW 23RD ST", "workzonenumber": "WZ-2025-02753", "Northbound": "No", "Southbound": "No", "Eastbound": "EB: 2", "Westbound": "WB: 2", "Roadclosure": "Yes", "LaneClosure": "Yes", "SideWalkClosure": "Yes", "RightOfWayWork": "Yes"}}, {"type": "Feature", "id": 2303370, "geometry": {"type": "Point", "coordinates": [-97.76034716805171, 35.470190625849916]}, "properties": {"OBJECTID": 2303370, "Worktype": "Utility Maintenance and Repair", "Startdate": "01/22/2026", "Enddate": "08/21/2026", "Worklocation": "NW 4TH TERRACE AND N CEMETERY RD", "workzonenumber": "WZ-2026-00073", "Northbound": "No", "Southbound": "No", "Eastbound": "No", "Westbound": "No", "Roadclosure": "No", "LaneClosure": "No", "SideWalkClosure": "No", "RightOfWayWork": "Yes"}}, {"type": "Feature", "id": 2306572, "geometry": {"type": "Point", "coordinates": [-97.55296254597138, 35.452991929914766]}, "properties": {"OBJECTID": 2306572, "Worktype": "Street/Sidewalk Repair", "Startdate": "02/23/2026", "Enddate": "11/01/2026", "Worklocation": "S YOUNGS BLVD & EXCHANGE AVE", "workzonenumber": "WZ-2026-00135", "Northbound": "NB: 1", "Southbound": "SB: 1", "Eastbound": "EB: 1", "Westbound": "WB: 1", "Roadclosure": "No", "LaneClosure": "Yes", "SideWalkClosure": "Yes", "RightOfWayWork": "Yes"}}, {"type": "Feature", "id": 2306573, "geometry": {"type": "Point", "coordinates": [-97.55454876586455, 35.45302283015416]}, "properties": {"OBJECTID": 2306573, "Worktype": "Street/Sidewalk Repair", "Startdate": "02/23/2026", "Enddate": "11/01/2026", "Worklocation": "S YOUNGS BLVD & EXCHANGE AVE", "workzonenumber": "WZ-2026-00135", "Northbound": "NB: 1", "Southbound": "SB: 1", "Eastbound": "EB: 1", "Westbound": "WB: 1", "Roadclosure": "No", "LaneClosure": "Yes", "SideWalkClosure": "Yes", "RightOfWayWork": "Yes"}}, {"type": "Feature", "id": 2306574, "geometry": {"type": "Point", "coordinates": [-97.55434082081895, 35.451741325305676]}, "properties": {"OBJECTID": 2306574, "Worktype": "Street/Sidewalk Repair", "Startdate": "02/23/2026", "Enddate": "11/01/2026", "Worklocation": "S YOUNGS BLVD & EXCHANGE AVE", "workzonenumber": "WZ-2026-00135", "Northbound": "NB: 1", "Southbound": "SB: 1", "Eastbound": "EB: 1", "Westbound": "WB: 1", "Roadclosure": "No", "LaneClosure": "Yes", "SideWalkClosure": "Yes", "RightOfWayWork": "Yes"}}, {"type": "Feature", "id": 2306575, "geometry": {"type": "Point", "coordinates": [-97.54821513561205, 35.452918512022826]}, "properties": {"OBJECTID": 2306575, "Worktype": "Street/Sidewalk Repair", "Startdate": "02/23/2026", "Enddate": "11/01/2026", "Worklocation": "S YOUNGS BLVD & EXCHANGE AVE", "workzonenumber": "WZ-2026-00135", "Northbound": "NB: 1", "Southbound": "SB: 1", "Eastbound": "EB: 1", "Westbound": "WB: 1", "Roadclosure": "No", "LaneClosure": "Yes", "SideWalkClosure": "Yes", "RightOfWayWork": "Yes"}}, {"type": "Feature", "id": 2306578, "geometry": {"type": "Point", "coordinates": [-97.6510321121101, 35.5882892887838]}, "properties": {"OBJECTID": 2306578, "Worktype": "Utility Maintenance and Repair", "Startdate": "02/02/2026", "Enddate": "08/28/2026", "Worklocation": "MATTHEWS AVE & NW 113TH ST", "workzonenumber": "WZ-2026-00137", "Northbound": "No", "Southbound": "No", "Eastbound": "No", "Westbound": "No", "Roadclosure": "Yes", "LaneClosure": "No", "SideWalkClosure": "No", "RightOfWayWork": "Yes"}}, {"type": "Feature", "id": 2306579, "geometry": {"type": "Point", "coordinates": [-97.65378816594986, 35.58714065093279]}, "properties": {"OBJECTID": 2306579, "Worktype": "Utility Maintenance and Repair", "Startdate": "02/02/2026", "Enddate": "08/28/2026", "Worklocation": "MATTHEWS AVE & NW 113TH ST", "workzonenumber": "WZ-2026-00137", "Northbound": "No", "Southbound": "No", "Eastbound": "No", "Westbound": "No", "Roadclosure": "Yes", "LaneClosure": "No", "SideWalkClosure": "No", "RightOfWayWork": "Yes"}}, {"type": "Feature", "id": 2310586, "geometry": {"type": "Point", "coordinates": [-97.49422099280203, 35.500436552695376]}, "properties": {"OBJECTID": 2310586, "Worktype": "Sidewalk Repair", "Startdate": "02/19/2026", "Enddate": "08/14/2026", "Worklocation": "N KELLEY AVE & NE 30TH ST", "workzonenumber": "WZ-2026-00260", "Northbound": "No", "Southbound": "No", "Eastbound": "EB: 1", "Westbound": "No", "Roadclosure": "No", "LaneClosure": "Yes", "SideWalkClosure": "Yes", "RightOfWayWork": "No"}}, {"type": "Feature", "id": 2311392, "geometry": {"type": "Point", "coordinates": [-97.68859752915179, 35.579991855509405]}, "properties": {"OBJECTID": 2311392, "Worktype": "Road Construction", "Startdate": "02/23/2026", "Enddate": "11/02/2026", "Worklocation": "NW EXPRESSWAY & N I-344 HWY", "workzonenumber": "WZ-2026-00288", "Northbound": "No", "Southbound": "No", "Eastbound": "EB: 1", "Westbound": "WB: 1", "Roadclosure": "No", "LaneClosure": "Yes", "SideWalkClosure": "No", "RightOfWayWork": "Yes"}}, {"type": "Feature", "id": 2311785, "geometry": {"type": "Point", "coordinates": [-97.35344450557206, 35.420651080720205]}, "properties": {"OBJECTID": 2311785, "Worktype": "Road Construction", "Startdate": "03/02/2026", "Enddate": "10/30/2026", "Worklocation": "S POST RD & SE 44TH ST", "workzonenumber": "WZ-2026-00293", "Northbound": "NB: 1", "Southbound": "SB: 1", "Eastbound": "EB: 1", "Westbound": "WB: 1", "Roadclosure": "No", "LaneClosure": "Yes", "SideWalkClosure": "No", "RightOfWayWork": "Yes"}}, {"type": "Feature", "id": 2311786, "geometry": {"type": "Point", "coordinates": [-97.35316296487684, 35.40634798897762]}, "properties": {"OBJECTID": 2311786, "Worktype": "Road Construction", "Startdate": "03/02/2026", "Enddate": "10/30/2026", "Worklocation": "S POST RD & SE 44TH ST", "workzonenumber": "WZ-2026-00293", "Northbound": "NB: 1", "Southbound": "SB: 1", "Eastbound": "EB: 1", "Westbound": "WB: 1", "Roadclosure": "No", "LaneClosure": "Yes", "SideWalkClosure": "No", "RightOfWayWork": "Yes"}}, {"type": "Feature", "id": 2312987, "geometry": {"type": "Point", "coordinates": [-97.521009274539, 35.49346313028355]}, "properties": {"OBJECTID": 2312987, "Worktype": "Road Construction", "Startdate": "02/26/2026", "Enddate": "12/30/2026", "Worklocation": "N WALKER AVE & NW 23RD ST", "workzonenumber": "WZ-2026-00311", "Northbound": "NB: 1", "Southbound": "SB: 1", "Eastbound": "No", "Westbound": "No", "Roadclosure": "No", "LaneClosure": "Yes", "SideWalkClosure": "Yes", "RightOfWayWork": "No"}}, {"type": "Feature", "id": 2312988, "geometry": {"type": "Point", "coordinates": [-97.52104258427765, 35.502343854537166]}, "properties": {"OBJECTID": 2312988, "Worktype": "Road Construction", "Startdate": "02/26/2026", "Enddate": "12/30/2026", "Worklocation": "N WALKER AVE & NW 23RD ST", "workzonenumber": "WZ-2026-00311", "Northbound": "NB: 1", "Southbound": "SB: 1", "Eastbound": "No", "Westbound": "No", "Roadclosure": "No", "LaneClosure": "Yes", "SideWalkClosure": "Yes", "RightOfWayWork": "No"}}, {"type": "Feature", "id": 2312990, "geometry": {"type": "Point", "coordinates": [-97.57776392777679, 35.53130043200408]}, "properties": {"OBJECTID": 2312990, "Worktype": "Road Construction", "Startdate": "03/02/2026", "Enddate": "08/24/2026", "Worklocation": "NW EXPRESSWAY & LAKE HEFNER PKWY", "workzonenumber": "WZ-2026-00281", "Northbound": "No", "Southbound": "No", "Eastbound": "EB: 1", "Westbound": "WB: 1", "Roadclosure": "No", "LaneClosure": "Yes", "SideWalkClosure": "Yes", "RightOfWayWork": "No"}}, {"type": "Feature", "id": 2312991, "geometry": {"type": "Point", "coordinates": [-97.57808424599806, 35.53176290695885]}, "properties": {"OBJECTID": 2312991, "Worktype": "Road Construction", "Startdate": "03/02/2026", "Enddate": "08/24/2026", "Worklocation": "NW EXPRESSWAY & LAKE HEFNER PKWY", "workzonenumber": "WZ-2026-00281", "Northbound": "No", "Southbound": "No", "Eastbound": "EB: 1", "Westbound": "WB: 1", "Roadclosure": "No", "LaneClosure": "Yes", "SideWalkClosure": "Yes", "RightOfWayWork": "No"}}, {"type": "Feature", "id": 2313782, "geometry": {"type": "Point", "coordinates": [-97.5858386519633, 35.61545481951843]}, "properties": {"OBJECTID": 2313782, "Worktype": "Building Construction", "Startdate": "03/02/2026", "Enddate": "05/31/2027", "Worklocation": "14201 N PORTLAND AVE", "workzonenumber": "WZ-2026-00332", "Northbound": "No", "Southbound": "SB: 1", "Eastbound": "No", "Westbound": "No", "Roadclosure": "No", "LaneClosure": "Yes", "SideWalkClosure": "No", "RightOfWayWork": "Yes"}}, {"type": "Feature", "id": 2313790, "geometry": {"type": "Point", "coordinates": [-97.66091146015819, 35.59227006191178]}, "properties": {"OBJECTID": 2313790, "Worktype": "Utility Maintenance and Repair", "Startdate": "03/09/2026", "Enddate": "08/28/2026", "Worklocation": "NW 119TH ST & WINDMILL RD", "workzonenumber": "WZ-2026-00343", "Northbound": "No", "Southbound": "SB: 1", "Eastbound": "No", "Westbound": "No", "Roadclosure": "No", "LaneClosure": "Yes", "SideWalkClosure": "Yes", "RightOfWayWork": "No"}}, {"type": "Feature", "id": 2314190, "geometry": {"type": "Point", "coordinates": [-97.59251253925981, 35.5342970968874]}, "properties": {"OBJECTID": 2314190, "Worktype": "Utility Maintenance and Repair", "Startdate": "03/16/2026", "Enddate": "08/31/2026", "Worklocation": "N TULSA AVE & NW 62ND ST", "workzonenumber": "WZ-2026-00348", "Northbound": "NB: 1", "Southbound": "SB: 1", "Eastbound": "No", "Westbound": "No", "Roadclosure": "No", "LaneClosure": "Yes", "SideWalkClosure": "Yes", "RightOfWayWork": "Yes"}}, {"type": "Feature", "id": 2314599, "geometry": {"type": "Point", "coordinates": [-97.48675100784645, 35.495562990557865]}, "properties": {"OBJECTID": 2314599, "Worktype": "Street/Sidewalk Repair", "Startdate": "03/03/2026", "Enddate": "08/14/2026", "Worklocation": "FONSHILL AVE & NE 25TH ST", "workzonenumber": "WZ-2026-00360", "Northbound": "No", "Southbound": "No", "Eastbound": "No", "Westbound": "No", "Roadclosure": "No", "LaneClosure": "No", "SideWalkClosure": "Yes", "RightOfWayWork": "No"}}, {"type": "Feature", "id": 2316999, "geometry": {"type": "Point", "coordinates": [-97.51977592495255, 35.47908467512481]}, "properties": {"OBJECTID": 2316999, "Worktype": "Building Construction", "Startdate": "03/12/2026", "Enddate": "09/30/2026", "Worklocation": "1135 N Hudson Ave OKC, OK 73103", "workzonenumber": "WZ-2026-00443", "Northbound": "No", "Southbound": "No", "Eastbound": "No", "Westbound": "WB: 1", "Roadclosure": "No", "LaneClosure": "Yes", "SideWalkClosure": "No", "RightOfWayWork": "No"}}, {"type": "Feature", "id": 2318204, "geometry": {"type": "Point", "coordinates": [-97.63905661221217, 35.61006133974425]}, "properties": {"OBJECTID": 2318204, "Worktype": "Road Construction", "Startdate": "03/23/2026", "Enddate": "02/05/2027", "Worklocation": "W MEMORIAL RD & N COUNCIL RD", "workzonenumber": "WZ-2026-00492", "Northbound": "NB: 1", "Southbound": "No", "Eastbound": "EB: 1", "Westbound": "WB: 1", "Roadclosure": "No", "LaneClosure": "Yes", "SideWalkClosure": "Yes", "RightOfWayWork": "Yes"}}, {"type": "Feature", "id": 2318205, "geometry": {"type": "Point", "coordinates": [-97.65574142674879, 35.609199445933626]}, "properties": {"OBJECTID": 2318205, "Worktype": "Road Construction", "Startdate": "03/23/2026", "Enddate": "02/05/2027", "Worklocation": "W MEMORIAL RD & N COUNCIL RD", "workzonenumber": "WZ-2026-00492", "Northbound": "NB: 1", "Southbound": "No", "Eastbound": "EB: 1", "Westbound": "WB: 1", "Roadclosure": "No", "LaneClosure": "Yes", "SideWalkClosure": "Yes", "RightOfWayWork": "Yes"}}, {"type": "Feature", "id": 2318601, "geometry": {"type": "Point", "coordinates": [-97.5312275394504, 35.559563556910874]}, "properties": {"OBJECTID": 2318601, "Worktype": "Utility Maintenance and Repair", "Startdate": "03/30/2026", "Enddate": "10/30/2026", "Worklocation": "N WESTERN AVE & NW 87TH ST", "workzonenumber": "WZ-2026-00496", "Northbound": "NB: 2", "Southbound": "No", "Eastbound": "No", "Westbound": "No", "Roadclosure": "No", "LaneClosure": "Yes", "SideWalkClosure": "Yes", "RightOfWayWork": "Yes"}}, {"type": "Feature", "id": 2318602, "geometry": {"type": "Point", "coordinates": [-97.53135763487559, 35.56442212090048]}, "properties": {"OBJECTID": 2318602, "Worktype": "Utility Maintenance and Repair", "Startdate": "03/30/2026", "Enddate": "10/30/2026", "Worklocation": "N WESTERN AVE & NW 87TH ST", "workzonenumber": "WZ-2026-00496", "Northbound": "NB: 2", "Southbound": "No", "Eastbound": "No", "Westbound": "No", "Roadclosure": "No", "LaneClosure": "Yes", "SideWalkClosure": "Yes", "RightOfWayWork": "Yes"}}, {"type": "Feature", "id": 2320602, "geometry": {"type": "Point", "coordinates": [-97.52990034880084, 35.43626097617721]}, "properties": {"OBJECTID": 2320602, "Worktype": "Street Repair", "Startdate": "03/23/2026", "Enddate": "09/18/2026", "Worklocation": "S WESTERN AVE & SW 28TH ST", "workzonenumber": "WZ-2026-00536", "Northbound": "No", "Southbound": "SB: 1", "Eastbound": "EB: 1", "Westbound": "No", "Roadclosure": "No", "LaneClosure": "Yes", "SideWalkClosure": "No", "RightOfWayWork": "Yes"}}, {"type": "Feature", "id": 2322604, "geometry": {"type": "Point", "coordinates": [-97.74240376587404, 35.464177304742705]}, "properties": {"OBJECTID": 2322604, "Worktype": "Building Construction", "Startdate": "04/13/2026", "Enddate": "08/03/2026", "Worklocation": "W RENO AVE & S CZECH HALL RD", "workzonenumber": "WZ-2026-00592", "Northbound": "No", "Southbound": "No", "Eastbound": "No", "Westbound": "No", "Roadclosure": "No", "LaneClosure": "No", "SideWalkClosure": "No", "RightOfWayWork": "Yes"}}, {"type": "Feature", "id": 2322605, "geometry": {"type": "Point", "coordinates": [-97.5500094627481, 35.66743068436941]}, "properties": {"OBJECTID": 2322605, "Worktype": "Building Construction", "Startdate": "04/01/2026", "Enddate": "08/31/2026", "Worklocation": "2124 NW 192ND ST", "workzonenumber": "WZ-2026-00593", "Northbound": "No", "Southbound": "No", "Eastbound": "No", "Westbound": "No", "Roadclosure": "No", "LaneClosure": "No", "SideWalkClosure": "Yes", "RightOfWayWork": "Yes"}}, {"type": "Feature", "id": 2325409, "geometry": {"type": "Point", "coordinates": [-97.56351449551742, 35.43497516276926]}, "properties": {"OBJECTID": 2325409, "Worktype": "Driveway Repair", "Startdate": "04/08/2026", "Enddate": "08/28/2026", "Worklocation": "SW 29TH ST & S ROSS AVE", "workzonenumber": "WZ-2026-00657", "Northbound": "No", "Southbound": "No", "Eastbound": "No", "Westbound": "No", "Roadclosure": "No", "LaneClosure": "No", "SideWalkClosure": "No", "RightOfWayWork": "Yes"}}, {"type": "Feature", "id": 2325411, "geometry": {"type": "Point", "coordinates": [-97.55014247416916, 35.42092992343726]}, "properties": {"OBJECTID": 2325411, "Worktype": "Driveway Repair", "Startdate": "04/08/2026", "Enddate": "08/28/2026", "Worklocation": "SW 29TH ST & S ROSS AVE", "workzonenumber": "WZ-2026-00657", "Northbound": "No", "Southbound": "No", "Eastbound": "No", "Westbound": "No", "Roadclosure": "No", "LaneClosure": "No", "SideWalkClosure": "No", "RightOfWayWork": "Yes"}}, {"type": "Feature", "id": 2325412, "geometry": {"type": "Point", "coordinates": [-97.56135953337709, 35.4208864458045]}, "properties": {"OBJECTID": 2325412, "Worktype": "Driveway Repair", "Startdate": "04/08/2026", "Enddate": "08/28/2026", "Worklocation": "SW 29TH ST & S ROSS AVE", "workzonenumber": "WZ-2026-00657", "Northbound": "No", "Southbound": "No", "Eastbound": "No", "Westbound": "No", "Roadclosure": "No", "LaneClosure": "No", "SideWalkClosure": "No", "RightOfWayWork": "Yes"}}, {"type": "Feature", "id": 2325803, "geometry": {"type": "Point", "coordinates": [-97.48538647723474, 35.50787261953831]}, "properties": {"OBJECTID": 2325803, "Worktype": "Street Repair", "Startdate": "04/09/2026", "Enddate": "08/31/2026", "Worklocation": "NE 36TH ST & N PROSPECT AVE", "workzonenumber": "WZ-2026-00664", "Northbound": "NB: 1", "Southbound": "SB: 1", "Eastbound": "EB: 1", "Westbound": "WB: 1", "Roadclosure": "No", "LaneClosure": "Yes", "SideWalkClosure": "Yes", "RightOfWayWork": "No"}}, {"type": "Feature", "id": 2325804, "geometry": {"type": "Point", "coordinates": [-97.48543570358562, 35.522011867191544]}, "properties": {"OBJECTID": 2325804, "Worktype": "Street Repair", "Startdate": "04/09/2026", "Enddate": "08/31/2026", "Worklocation": "NE 36TH ST & N PROSPECT AVE", "workzonenumber": "WZ-2026-00664", "Northbound": "NB: 1", "Southbound": "SB: 1", "Eastbound": "EB: 1", "Westbound": "WB: 1", "Roadclosure": "No", "LaneClosure": "Yes", "SideWalkClosure": "Yes", "RightOfWayWork": "No"}}, {"type": "Feature", "id": 2326206, "geometry": {"type": "Point", "coordinates": [-97.4411798954718, 35.385325834416996]}, "properties": {"OBJECTID": 2326206, "Worktype": "Utility Maintenance and Repair", "Startdate": "04/13/2026", "Enddate": "08/06/2026", "Worklocation": "S SUNNYLANE RD AND SE 81ST ST", "workzonenumber": "WZ-2026-00673", "Northbound": "No", "Southbound": "No", "Eastbound": "No", "Westbound": "No", "Roadclosure": "No", "LaneClosure": "No", "SideWalkClosure": "No", "RightOfWayWork": "Yes"}}, {"type": "Feature", "id": 2326615, "geometry": {"type": "Point", "coordinates": [-97.51127942274124, 35.45948708961658]}, "properties": {"OBJECTID": 2326615, "Worktype": "Utility Maintenance and Repair", "Startdate": "04/27/2026", "Enddate": "09/04/2026", "Worklocation": "SW 7th St at S EK Gaylord Blvd Bridge to S Santa Fe Ave", "workzonenumber": "WZ-2026-00671", "Northbound": "No", "Southbound": "No", "Eastbound": "No", "Westbound": "No", "Roadclosure": "Yes", "LaneClosure": "No", "SideWalkClosure": "No", "RightOfWayWork": "Yes"}}, {"type": "Feature", "id": 2329813, "geometry": {"type": "Point", "coordinates": [-97.54731136507233, 35.29127825576207]}, "properties": {"OBJECTID": 2329813, "Worktype": "Miscellaneous", "Startdate": "04/27/2026", "Enddate": "08/31/2026", "Worklocation": "SW 179TH ST & S PENNSYLVANIA AVE", "workzonenumber": "WZ-2026-00771", "Northbound": "No", "Southbound": "No", "Eastbound": "No", "Westbound": "No", "Roadclosure": "No", "LaneClosure": "No", "SideWalkClosure": "No", "RightOfWayWork": "Yes"}}, {"type": "Feature", "id": 2332212, "geometry": {"type": "Point", "coordinates": [-97.37051156375533, 35.420699497642225]}, "properties": {"OBJECTID": 2332212, "Worktype": "Road Construction", "Startdate": "05/01/2026", "Enddate": "09/30/2026", "Worklocation": "SE 44TH ST & S DOUGLAS BLVD", "workzonenumber": "WZ-2026-00842", "Northbound": "No", "Southbound": "No", "Eastbound": "EB: 1", "Westbound": "No", "Roadclosure": "No", "LaneClosure": "Yes", "SideWalkClosure": "No", "RightOfWayWork": "Yes"}}, {"type": "Feature", "id": 2333017, "geometry": {"type": "Point", "coordinates": [-97.47705743174703, 35.42913704024098]}, "properties": {"OBJECTID": 2333017, "Worktype": "Road Construction", "Startdate": "05/18/2026", "Enddate": "12/04/2026", "Worklocation": "S EASTERN AVE BETWEEN SE 59TH ST & SE Grand Blvd", "workzonenumber": "WZ-2026-00862", "Northbound": "No", "Southbound": "SB: 1", "Eastbound": "No", "Westbound": "No", "Roadclosure": "No", "LaneClosure": "Yes", "SideWalkClosure": "Yes", "RightOfWayWork": "Yes"}}, {"type": "Feature", "id": 2333018, "geometry": {"type": "Point", "coordinates": [-97.47709674416072, 35.42171575443902]}, "properties": {"OBJECTID": 2333018, "Worktype": "Road Construction", "Startdate": "05/18/2026", "Enddate": "12/04/2026", "Worklocation": "S EASTERN AVE BETWEEN SE 59TH ST & SE Grand Blvd", "workzonenumber": "WZ-2026-00862", "Northbound": "No", "Southbound": "SB: 1", "Eastbound": "No", "Westbound": "No", "Roadclosure": "No", "LaneClosure": "Yes", "SideWalkClosure": "Yes", "RightOfWayWork": "Yes"}}, {"type": "Feature", "id": 2333019, "geometry": {"type": "Point", "coordinates": [-97.47695914875358, 35.407451049287]}, "properties": {"OBJECTID": 2333019, "Worktype": "Road Construction", "Startdate": "05/18/2026", "Enddate": "12/04/2026", "Worklocation": "S EASTERN AVE BETWEEN SE 59TH ST & SE Grand Blvd", "workzonenumber": "WZ-2026-00862", "Northbound": "No", "Southbound": "SB: 1", "Eastbound": "No", "Westbound": "No", "Roadclosure": "No", "LaneClosure": "Yes", "SideWalkClosure": "Yes", "RightOfWayWork": "Yes"}}, {"type": "Feature", "id": 2333021, "geometry": {"type": "Point", "coordinates": [-97.51967846132634, 35.44959037239054]}, "properties": {"OBJECTID": 2333021, "Worktype": "Miscellaneous", "Startdate": "06/29/2026", "Enddate": "01/08/2027", "Worklocation": "400 SW 15th Street", "workzonenumber": "WZ-2026-00866", "Northbound": "No", "Southbound": "No", "Eastbound": "No", "Westbound": "No", "Roadclosure": "No", "LaneClosure": "No", "SideWalkClosure": "Yes", "RightOfWayWork": "No"}}, {"type": "Feature", "id": 2333839, "geometry": {"type": "Point", "coordinates": [-97.15975978983832, 35.39361820768011]}, "properties": {"OBJECTID": 2333839, "Worktype": "Road Construction", "Startdate": "05/11/2026", "Enddate": "11/02/2026", "Worklocation": "S HARRAH RD BETWEEN E I-40 HWY & BOOKER AVE", "workzonenumber": "WZ-2026-00907", "Northbound": "No", "Southbound": "SB: 1", "Eastbound": "No", "Westbound": "No", "Roadclosure": "No", "LaneClosure": "Yes", "SideWalkClosure": "No", "RightOfWayWork": "Yes"}}, {"type": "Feature", "id": 2335029, "geometry": {"type": "Point", "coordinates": [-97.56592673007137, 35.52627523854629]}, "properties": {"OBJECTID": 2335029, "Worktype": "Road Construction", "Startdate": "05/25/2026", "Enddate": "08/13/2027", "Worklocation": "NW EXPRESSWAY & N MAY AVE", "workzonenumber": "WZ-2026-00928", "Northbound": "NB: 1", "Southbound": "SB: 1", "Eastbound": "EB: 1", "Westbound": "WB: 1", "Roadclosure": "No", "LaneClosure": "Yes", "SideWalkClosure": "Yes", "RightOfWayWork": "Yes"}}, {"type": "Feature", "id": 2335030, "geometry": {"type": "Point", "coordinates": [-97.56559506843392, 35.526145267818066]}, "properties": {"OBJECTID": 2335030, "Worktype": "Road Construction", "Startdate": "05/25/2026", "Enddate": "08/13/2027", "Worklocation": "NW EXPRESSWAY & N MAY AVE", "workzonenumber": "WZ-2026-00928", "Northbound": "NB: 1", "Southbound": "SB: 1", "Eastbound": "EB: 1", "Westbound": "WB: 1", "Roadclosure": "No", "LaneClosure": "Yes", "SideWalkClosure": "Yes", "RightOfWayWork": "Yes"}}, {"type": "Feature", "id": 2335031, "geometry": {"type": "Point", "coordinates": [-97.56600204753448, 35.52124438283198]}, "properties": {"OBJECTID": 2335031, "Worktype": "Road Construction", "Startdate": "05/20/2026", "Enddate": "10/01/2026", "Worklocation": "NW 49TH ST & N MAY AVE", "workzonenumber": "WZ-2026-00929", "Northbound": "NB: 1", "Southbound": "SB: 1", "Eastbound": "EB: 1", "Westbound": "WB: 1", "Roadclosure": "No", "LaneClosure": "Yes", "SideWalkClosure": "No", "RightOfWayWork": "No"}}, {"type": "Feature", "id": 2335033, "geometry": {"type": "Point", "coordinates": [-97.57436695356913, 35.516285071214895]}, "properties": {"OBJECTID": 2335033, "Worktype": "Road Construction", "Startdate": "05/20/2026", "Enddate": "10/01/2026", "Worklocation": "NW 49TH ST & N MAY AVE", "workzonenumber": "WZ-2026-00929", "Northbound": "NB: 1", "Southbound": "SB: 1", "Eastbound": "EB: 1", "Westbound": "WB: 1", "Roadclosure": "No", "LaneClosure": "Yes", "SideWalkClosure": "No", "RightOfWayWork": "No"}}, {"type": "Feature", "id": 2335042, "geometry": {"type": "Point", "coordinates": [-97.36950981482276, 35.43417927813751]}, "properties": {"OBJECTID": 2335042, "Worktype": "Utility Maintenance and Repair", "Startdate": "05/11/2026", "Enddate": "08/20/2026", "Worklocation": "SE 29TH ST & S DOUGLAS BLVD                                                           SE 29TH ST AND EAGLE RD", "workzonenumber": "WZ-2026-00913", "Northbound": "No", "Southbound": "No", "Eastbound": "No", "Westbound": "No", "Roadclosure": "No", "LaneClosure": "No", "SideWalkClosure": "No", "RightOfWayWork": "Yes"}}, {"type": "Feature", "id": 2336233, "geometry": {"type": "Point", "coordinates": [-97.51329245616444, 35.46201708885547]}, "properties": {"OBJECTID": 2336233, "Worktype": "Utility Maintenance and Repair", "Startdate": "05/19/2026", "Enddate": "08/10/2026", "Worklocation": "W OKLAHOMA CITY BLVD BETWEEN S BROADWAY AVE & S E K GAYLORD BLVD & S E K GAYLORD BLVD TO PARKING GARAGE", "workzonenumber": "WZ-2026-00956", "Northbound": "No", "Southbound": "SB: 1", "Eastbound": "EB: 1", "Westbound": "No", "Roadclosure": "No", "LaneClosure": "Yes", "SideWalkClosure": "Yes", "RightOfWayWork": "Yes"}}, {"type": "Feature", "id": 2336632, "geometry": {"type": "Point", "coordinates": [-97.52213102987874, 35.47892771431593]}, "properties": {"OBJECTID": 2336632, "Worktype": "Building Construction", "Startdate": "05/21/2026", "Enddate": "02/12/2027", "Worklocation": "West side of Classen Dr /N Walker Ave Roundabout", "workzonenumber": "WZ-2026-00970", "Northbound": "No", "Southbound": "No", "Eastbound": "No", "Westbound": "No", "Roadclosure": "No", "LaneClosure": "No", "SideWalkClosure": "Yes", "RightOfWayWork": "Yes"}}, {"type": "Feature", "id": 2337042, "geometry": {"type": "Point", "coordinates": [-97.52108078153161, 35.46756999982295]}, "properties": {"OBJECTID": 2337042, "Worktype": "Building Construction", "Startdate": "05/27/2026", "Enddate": "11/30/2026", "Worklocation": "430/434 W Main St", "workzonenumber": "WZ-2026-00967", "Northbound": "No", "Southbound": "No", "Eastbound": "No", "Westbound": "No", "Roadclosure": "No", "LaneClosure": "No", "SideWalkClosure": "Yes", "RightOfWayWork": "Yes"}}, {"type": "Feature", "id": 2337439, "geometry": {"type": "Point", "coordinates": [-97.47657667220683, 35.50435876981221]}, "properties": {"OBJECTID": 2337439, "Worktype": "Utility Maintenance and Repair", "Startdate": "05/26/2026", "Enddate": "09/30/2026", "Worklocation": "3500 N MARTIN LUTHER KING AVE", "workzonenumber": "WZ-2026-01002", "Northbound": "NB: 1", "Southbound": "SB: 1", "Eastbound": "No", "Westbound": "No", "Roadclosure": "No", "LaneClosure": "Yes", "SideWalkClosure": "No", "RightOfWayWork": "Yes"}}, {"type": "Feature", "id": 2337440, "geometry": {"type": "Point", "coordinates": [-97.53981528825767, 35.50903098527626]}, "properties": {"OBJECTID": 2337440, "Worktype": "Utility Maintenance and Repair", "Startdate": "06/01/2026", "Enddate": "12/01/2026", "Worklocation": "N GEORGIA AVE & NW 37TH ST", "workzonenumber": "WZ-2026-01004", "Northbound": "No", "Southbound": "No", "Eastbound": "No", "Westbound": "No", "Roadclosure": "No", "LaneClosure": "No", "SideWalkClosure": "Yes", "RightOfWayWork": "Yes"}}, {"type": "Feature", "id": 2339438, "geometry": {"type": "Point", "coordinates": [-97.55436319198718, 35.43513267649564]}, "properties": {"OBJECTID": 2339438, "Worktype": "Road Construction", "Startdate": "06/02/2026", "Enddate": "12/31/2026", "Worklocation": "S AGNEW AVE & SW 29TH ST", "workzonenumber": "WZ-2026-01032", "Northbound": "No", "Southbound": "No", "Eastbound": "EB: 1", "Westbound": "WB: 1", "Roadclosure": "No", "LaneClosure": "Yes", "SideWalkClosure": "No", "RightOfWayWork": "No"}}, {"type": "Feature", "id": 2339439, "geometry": {"type": "Point", "coordinates": [-97.55444554280756, 35.434285118938334]}, "properties": {"OBJECTID": 2339439, "Worktype": "Road Construction", "Startdate": "06/02/2026", "Enddate": "12/31/2026", "Worklocation": "S AGNEW AVE & SW 29TH ST", "workzonenumber": "WZ-2026-01032", "Northbound": "No", "Southbound": "No", "Eastbound": "EB: 1", "Westbound": "WB: 1", "Roadclosure": "No", "LaneClosure": "Yes", "SideWalkClosure": "No", "RightOfWayWork": "No"}}, {"type": "Feature", "id": 2339837, "geometry": {"type": "Point", "coordinates": [-97.65418128700718, 35.47862165604822]}, "properties": {"OBJECTID": 2339837, "Worktype": "Utility Maintenance and Repair", "Startdate": "06/04/2026", "Enddate": "08/30/2026", "Worklocation": "NW 10TH ST AND N COUNCIL RD", "workzonenumber": "WZ-2026-01039", "Northbound": "No", "Southbound": "No", "Eastbound": "No", "Westbound": "No", "Roadclosure": "No", "LaneClosure": "No", "SideWalkClosure": "No", "RightOfWayWork": "Yes"}}, {"type": "Feature", "id": 2339840, "geometry": {"type": "Point", "coordinates": [-97.53330956175084, 35.611742729402145]}, "properties": {"OBJECTID": 2339840, "Worktype": "Utility Maintenance and Repair", "Startdate": "06/02/2026", "Enddate": "08/06/2026", "Worklocation": "NW 138TH ST AND CHICKASAW DR", "workzonenumber": "WZ-2026-01044", "Northbound": "No", "Southbound": "No", "Eastbound": "No", "Westbound": "No", "Roadclosure": "No", "LaneClosure": "No", "SideWalkClosure": "No", "RightOfWayWork": "Yes"}}, {"type": "Feature", "id": 2340237, "geometry": {"type": "Point", "coordinates": [-97.50907182444581, 35.47013180652139]}, "properties": {"OBJECTID": 2340237, "Worktype": "Building Demolition", "Startdate": "06/02/2026", "Enddate": "12/31/2026", "Worklocation": "123 NE 2ND ST", "workzonenumber": "WZ-2026-01047", "Northbound": "No", "Southbound": "SB: 1", "Eastbound": "No", "Westbound": "No", "Roadclosure": "No", "LaneClosure": "Yes", "SideWalkClosure": "Yes", "RightOfWayWork": "Yes"}}, {"type": "Feature", "id": 2340240, "geometry": {"type": "Point", "coordinates": [-97.63677705157801, 35.4790888974643]}, "properties": {"OBJECTID": 2340240, "Worktype": "Utility Maintenance and Repair", "Startdate": "06/02/2026", "Enddate": "08/03/2026", "Worklocation": "NW 10TH & N. ROCKWELL", "workzonenumber": "WZ-2026-01051", "Northbound": "No", "Southbound": "SB: 1", "Eastbound": "No", "Westbound": "No", "Roadclosure": "No", "LaneClosure": "Yes", "SideWalkClosure": "No", "RightOfWayWork": "No"}}, {"type": "Feature", "id": 2340242, "geometry": {"type": "Point", "coordinates": [-97.51620145105568, 35.46511641176635]}, "properties": {"OBJECTID": 2340242, "Worktype": "Building Construction", "Startdate": "06/08/2026", "Enddate": "06/08/2027", "Worklocation": "RON NORICK BLVD BETWEEN W RENO AVE & W SHERIDAN AVE", "workzonenumber": "WZ-2026-00684", "Northbound": "NB: 2", "Southbound": "No", "Eastbound": "No", "Westbound": "No", "Roadclosure": "No", "LaneClosure": "Yes", "SideWalkClosure": "No", "RightOfWayWork": "Yes"}}, {"type": "Feature", "id": 2341852, "geometry": {"type": "Point", "coordinates": [-97.5334667452244, 35.5223587156589]}, "properties": {"OBJECTID": 2341852, "Worktype": "Road Construction", "Startdate": "06/22/2026", "Enddate": "04/30/2027", "Worklocation": "NW 50TH ST & CLASSEN CIR", "workzonenumber": "WZ-2026-01089", "Northbound": "No", "Southbound": "No", "Eastbound": "No", "Westbound": "No", "Roadclosure": "Yes", "LaneClosure": "No", "SideWalkClosure": "No", "RightOfWayWork": "No"}}, {"type": "Feature", "id": 2342648, "geometry": {"type": "Point", "coordinates": [-97.58340013500965, 35.43511679548031]}, "properties": {"OBJECTID": 2342648, "Worktype": "Utility Maintenance and Repair", "Startdate": "06/11/2026", "Enddate": "08/31/2026", "Worklocation": "SW 29th St & S Portland Ave", "workzonenumber": "WZ-2026-01107", "Northbound": "No", "Southbound": "SB: 1", "Eastbound": "No", "Westbound": "No", "Roadclosure": "No", "LaneClosure": "Yes", "SideWalkClosure": "No", "RightOfWayWork": "Yes"}}, {"type": "Feature", "id": 2342650, "geometry": {"type": "Point", "coordinates": [-97.55523732361301, 35.34103326377032]}, "properties": {"OBJECTID": 2342650, "Worktype": "Utility Maintenance and Repair", "Startdate": "06/10/2026", "Enddate": "08/24/2026", "Worklocation": "S LESLIE WAY & SW 127TH ST", "workzonenumber": "WZ-2026-01110", "Northbound": "No", "Southbound": "No", "Eastbound": "No", "Westbound": "No", "Roadclosure": "No", "LaneClosure": "No", "SideWalkClosure": "No", "RightOfWayWork": "Yes"}}, {"type": "Feature", "id": 2343058, "geometry": {"type": "Point", "coordinates": [-97.76022497859381, 35.4645498863956]}, "properties": {"OBJECTID": 2343058, "Worktype": "Road Construction", "Startdate": "06/15/2026", "Enddate": "07/27/2027", "Worklocation": "S CEMETERY RD & W RENO AVE", "workzonenumber": "WZ-2026-01118", "Northbound": "NB: 1", "Southbound": "SB: 1", "Eastbound": "No", "Westbound": "No", "Roadclosure": "No", "LaneClosure": "Yes", "SideWalkClosure": "Yes", "RightOfWayWork": "Yes"}}, {"type": "Feature", "id": 2343059, "geometry": {"type": "Point", "coordinates": [-97.76031952395161, 35.47869309270647]}, "properties": {"OBJECTID": 2343059, "Worktype": "Road Construction", "Startdate": "06/15/2026", "Enddate": "07/27/2027", "Worklocation": "S CEMETERY RD & W RENO AVE", "workzonenumber": "WZ-2026-01118", "Northbound": "NB: 1", "Southbound": "SB: 1", "Eastbound": "No", "Westbound": "No", "Roadclosure": "No", "LaneClosure": "Yes", "SideWalkClosure": "Yes", "RightOfWayWork": "Yes"}}, {"type": "Feature", "id": 2343060, "geometry": {"type": "Point", "coordinates": [-97.38831582073057, 35.319580513789454]}, "properties": {"OBJECTID": 2343060, "Worktype": "Road Construction", "Startdate": "06/10/2026", "Enddate": "08/31/2026", "Worklocation": "SE 149TH ST & S MIDWEST BLVD", "workzonenumber": "WZ-2026-01120", "Northbound": "NB: 1", "Southbound": "SB: 1", "Eastbound": "No", "Westbound": "No", "Roadclosure": "No", "LaneClosure": "Yes", "SideWalkClosure": "No", "RightOfWayWork": "Yes"}}, {"type": "Feature", "id": 2343061, "geometry": {"type": "Point", "coordinates": [-97.38829610828685, 35.29089779536774]}, "properties": {"OBJECTID": 2343061, "Worktype": "Road Construction", "Startdate": "06/10/2026", "Enddate": "08/31/2026", "Worklocation": "SE 149TH ST & S MIDWEST BLVD", "workzonenumber": "WZ-2026-01120", "Northbound": "NB: 1", "Southbound": "SB: 1", "Eastbound": "No", "Westbound": "No", "Roadclosure": "No", "LaneClosure": "Yes", "SideWalkClosure": "No", "RightOfWayWork": "Yes"}}, {"type": "Feature", "id": 2344254, "geometry": {"type": "Point", "coordinates": [-97.55659409322742, 35.46714903922511]}, "properties": {"OBJECTID": 2344254, "Worktype": "Utility Maintenance and Repair", "Startdate": "06/15/2026", "Enddate": "08/12/2026", "Worklocation": "NW 1ST TER & N VILLA AVE", "workzonenumber": "WZ-2026-01141", "Northbound": "No", "Southbound": "No", "Eastbound": "No", "Westbound": "No", "Roadclosure": "No", "LaneClosure": "No", "SideWalkClosure": "No", "RightOfWayWork": "Yes"}}, {"type": "Feature", "id": 2344255, "geometry": {"type": "Point", "coordinates": [-97.54777554269936, 35.409043425775856]}, "properties": {"OBJECTID": 2344255, "Worktype": "Utility Maintenance and Repair", "Startdate": "06/17/2026", "Enddate": "10/30/2026", "Worklocation": "SW 56TH ST & S PENNSYLVANIA AVE", "workzonenumber": "WZ-2026-01138", "Northbound": "No", "Southbound": "No", "Eastbound": "No", "Westbound": "No", "Roadclosure": "No", "LaneClosure": "No", "SideWalkClosure": "Yes", "RightOfWayWork": "No"}}, {"type": "Feature", "id": 2344260, "geometry": {"type": "Point", "coordinates": [-97.52471894000799, 35.49442294463203]}, "properties": {"OBJECTID": 2344260, "Worktype": "Utility Maintenance and Repair", "Startdate": "06/17/2026", "Enddate": "08/31/2026", "Worklocation": "NW 24th St and N Lee Ave to N GUERNSEY AVE", "workzonenumber": "WZ-2026-01149", "Northbound": "No", "Southbound": "No", "Eastbound": "No", "Westbound": "No", "Roadclosure": "No", "LaneClosure": "No", "SideWalkClosure": "Yes", "RightOfWayWork": "Yes"}}, {"type": "Feature", "id": 2344262, "geometry": {"type": "Point", "coordinates": [-97.583290601418, 35.49352363125519]}, "properties": {"OBJECTID": 2344262, "Worktype": "Road Construction", "Startdate": "06/22/2026", "Enddate": "12/31/2026", "Worklocation": "N PORTLAND AVE & NW 23RD ST", "workzonenumber": "WZ-2026-01150", "Northbound": "NB: 1", "Southbound": "SB: 1", "Eastbound": "No", "Westbound": "No", "Roadclosure": "Yes", "LaneClosure": "Yes", "SideWalkClosure": "Yes", "RightOfWayWork": "Yes"}}, {"type": "Feature", "id": 2344263, "geometry": {"type": "Point", "coordinates": [-97.58349008785093, 35.507614509952816]}, "properties": {"OBJECTID": 2344263, "Worktype": "Road Construction", "Startdate": "06/22/2026", "Enddate": "12/31/2026", "Worklocation": "N PORTLAND AVE & NW 23RD ST", "workzonenumber": "WZ-2026-01150", "Northbound": "NB: 1", "Southbound": "SB: 1", "Eastbound": "No", "Westbound": "No", "Roadclosure": "Yes", "LaneClosure": "Yes", "SideWalkClosure": "Yes", "RightOfWayWork": "Yes"}}, {"type": "Feature", "id": 2344267, "geometry": {"type": "Point", "coordinates": [-97.60148423967934, 35.4784442387931]}, "properties": {"OBJECTID": 2344267, "Worktype": "Utility Maintenance and Repair", "Startdate": "06/17/2026", "Enddate": "08/07/2026", "Worklocation": "NW 10TH ST AND N MERIDIAN AVE", "workzonenumber": "WZ-2026-01156", "Northbound": "No", "Southbound": "No", "Eastbound": "No", "Westbound": "No", "Roadclosure": "No", "LaneClosure": "No", "SideWalkClosure": "No", "RightOfWayWork": "Yes"}}, {"type": "Feature", "id": 2344649, "geometry": {"type": "Point", "coordinates": [-97.47692758811264, 35.37752310051369]}, "properties": {"OBJECTID": 2344649, "Worktype": "Utility Maintenance and Repair", "Startdate": "06/17/2026", "Enddate": "08/07/2026", "Worklocation": "S EASTERN AVE & SE 89TH ST", "workzonenumber": "WZ-2026-01158", "Northbound": "NB: 1", "Southbound": "SB: 1", "Eastbound": "No", "Westbound": "No", "Roadclosure": "Yes", "LaneClosure": "Yes", "SideWalkClosure": "No", "RightOfWayWork": "No"}}, {"type": "Feature", "id": 2344654, "geometry": {"type": "Point", "coordinates": [-97.72483415532652, 35.464588200340884]}, "properties": {"OBJECTID": 2344654, "Worktype": "Road Construction", "Startdate": "06/22/2026", "Enddate": "09/30/2026", "Worklocation": "S MUSTANG RD & W RENO AVE", "workzonenumber": "WZ-2026-01163", "Northbound": "NB: 1", "Southbound": "SB: 1", "Eastbound": "EB: 1", "Westbound": "WB: 1", "Roadclosure": "No", "LaneClosure": "Yes", "SideWalkClosure": "Yes", "RightOfWayWork": "Yes"}}, {"type": "Feature", "id": 2345050, "geometry": {"type": "Point", "coordinates": [-97.44153473777746, 35.503311324683764]}, "properties": {"OBJECTID": 2345050, "Worktype": "Utility Maintenance and Repair", "Startdate": "06/17/2026", "Enddate": "08/07/2026", "Worklocation": "N COLTRANE RD & NE 32ND ST", "workzonenumber": "WZ-2026-01166", "Northbound": "No", "Southbound": "No", "Eastbound": "No", "Westbound": "No", "Roadclosure": "No", "LaneClosure": "No", "SideWalkClosure": "No", "RightOfWayWork": "Yes"}}, {"type": "Feature", "id": 2345459, "geometry": {"type": "Point", "coordinates": [-97.5288236247496, 35.47860100699371]}, "properties": {"OBJECTID": 2345459, "Worktype": "Street/Sidewalk Repair", "Startdate": "06/22/2026", "Enddate": "03/26/2027", "Worklocation": "N CLASSEN BLVD & NW 10TH ST", "workzonenumber": "WZ-2026-01178", "Northbound": "NB: 1", "Southbound": "SB: 1", "Eastbound": "EB: 1", "Westbound": "WB: 1", "Roadclosure": "No", "LaneClosure": "Yes", "SideWalkClosure": "Yes", "RightOfWayWork": "Yes"}}, {"type": "Feature", "id": 2345460, "geometry": {"type": "Point", "coordinates": [-97.52908021118215, 35.466669529253195]}, "properties": {"OBJECTID": 2345460, "Worktype": "Street/Sidewalk Repair", "Startdate": "06/22/2026", "Enddate": "03/26/2027", "Worklocation": "N CLASSEN BLVD & NW 10TH ST", "workzonenumber": "WZ-2026-01178", "Northbound": "NB: 1", "Southbound": "SB: 1", "Eastbound": "EB: 1", "Westbound": "WB: 1", "Roadclosure": "No", "LaneClosure": "Yes", "SideWalkClosure": "Yes", "RightOfWayWork": "Yes"}}, {"type": "Feature", "id": 2345464, "geometry": {"type": "Point", "coordinates": [-97.56192573895763, 35.4261567741879]}, "properties": {"OBJECTID": 2345464, "Worktype": "Utility Maintenance and Repair", "Startdate": "06/18/2026", "Enddate": "08/07/2026", "Worklocation": "SW 36TH ST AND S MILLER AVE", "workzonenumber": "WZ-2026-01179", "Northbound": "No", "Southbound": "No", "Eastbound": "No", "Westbound": "No", "Roadclosure": "No", "LaneClosure": "No", "SideWalkClosure": "No", "RightOfWayWork": "Yes"}}, {"type": "Feature", "id": 2345465, "geometry": {"type": "Point", "coordinates": [-97.61274519686387, 35.493664957668734]}, "properties": {"OBJECTID": 2345465, "Worktype": "Utility Maintenance and Repair", "Startdate": "06/19/2026", "Enddate": "08/13/2026", "Worklocation": "NW 23RD ST AND DITTMER RD", "workzonenumber": "WZ-2026-01180", "Northbound": "No", "Southbound": "No", "Eastbound": "No", "Westbound": "No", "Roadclosure": "No", "LaneClosure": "No", "SideWalkClosure": "No", "RightOfWayWork": "Yes"}}, {"type": "Feature", "id": 2345866, "geometry": {"type": "Point", "coordinates": [-97.54936278349075, 35.65173549723781]}, "properties": {"OBJECTID": 2345866, "Worktype": "Utility Maintenance and Repair", "Startdate": "06/23/2026", "Enddate": "08/14/2026", "Worklocation": "N PENNSYLVANIA AVE & NW 176TH TER", "workzonenumber": "WZ-2026-01190", "Northbound": "No", "Southbound": "No", "Eastbound": "No", "Westbound": "No", "Roadclosure": "No", "LaneClosure": "No", "SideWalkClosure": "No", "RightOfWayWork": "Yes"}}, {"type": "Feature", "id": 2345868, "geometry": {"type": "Point", "coordinates": [-97.63642276393936, 35.40611819026904]}, "properties": {"OBJECTID": 2345868, "Worktype": "Utility Maintenance and Repair", "Startdate": "06/24/2026", "Enddate": "08/20/2026", "Worklocation": "S ROCKWELL AVE & SW 59TH ST", "workzonenumber": "WZ-2026-01192", "Northbound": "No", "Southbound": "No", "Eastbound": "No", "Westbound": "No", "Roadclosure": "No", "LaneClosure": "No", "SideWalkClosure": "No", "RightOfWayWork": "Yes"}}, {"type": "Feature", "id": 2346260, "geometry": {"type": "Point", "coordinates": [-97.46558977461794, 35.48943833988959]}, "properties": {"OBJECTID": 2346260, "Worktype": "Utility Maintenance and Repair", "Startdate": "06/24/2026", "Enddate": "08/20/2026", "Worklocation": "NE SUCCESS ST AND NE GRAND BLVD", "workzonenumber": "WZ-2026-01199", "Northbound": "No", "Southbound": "No", "Eastbound": "No", "Westbound": "No", "Roadclosure": "No", "LaneClosure": "No", "SideWalkClosure": "No", "RightOfWayWork": "Yes"}}, {"type": "Feature", "id": 2346261, "geometry": {"type": "Point", "coordinates": [-97.54469768825102, 35.40611283658834]}, "properties": {"OBJECTID": 2346261, "Worktype": "Utility Maintenance and Repair", "Startdate": "06/24/2026", "Enddate": "08/20/2026", "Worklocation": "SW 59TH ST & S KENTUCKY AVE", "workzonenumber": "WZ-2026-01198", "Northbound": "No", "Southbound": "No", "Eastbound": "No", "Westbound": "No", "Roadclosure": "No", "LaneClosure": "No", "SideWalkClosure": "No", "RightOfWayWork": "Yes"}}, {"type": "Feature", "id": 2346267, "geometry": {"type": "Point", "coordinates": [-97.56824579232129, 35.49857984784547]}, "properties": {"OBJECTID": 2346267, "Worktype": "Utility Maintenance and Repair", "Startdate": "06/25/2026", "Enddate": "08/31/2026", "Worklocation": "NW 28th St from Drexel Ave east to N May Ave", "workzonenumber": "WZ-2026-01205", "Northbound": "No", "Southbound": "No", "Eastbound": "No", "Westbound": "No", "Roadclosure": "No", "LaneClosure": "No", "SideWalkClosure": "Yes", "RightOfWayWork": "Yes"}}, {"type": "Feature", "id": 2347461, "geometry": {"type": "Point", "coordinates": [-97.72488639954932, 35.45402895955121]}, "properties": {"OBJECTID": 2347461, "Worktype": "Utility Maintenance and Repair", "Startdate": "07/01/2026", "Enddate": "08/03/2026", "Worklocation": "SW 11TH ST & S MUSTANG RD", "workzonenumber": "WZ-2026-01235", "Northbound": "No", "Southbound": "No", "Eastbound": "No", "Westbound": "No", "Roadclosure": "No", "LaneClosure": "No", "SideWalkClosure": "No", "RightOfWayWork": "Yes"}}, {"type": "Feature", "id": 2347463, "geometry": {"type": "Point", "coordinates": [-97.53920908634153, 35.427815793707886]}, "properties": {"OBJECTID": 2347463, "Worktype": "Utility Maintenance and Repair", "Startdate": "07/01/2026", "Enddate": "08/10/2026", "Worklocation": "S BLACKWELDER AVE & SW GRAND BLVD", "workzonenumber": "WZ-2026-01238", "Northbound": "No", "Southbound": "No", "Eastbound": "No", "Westbound": "No", "Roadclosure": "No", "LaneClosure": "No", "SideWalkClosure": "No", "RightOfWayWork": "Yes"}}, {"type": "Feature", "id": 2348265, "geometry": {"type": "Point", "coordinates": [-97.72727833516132, 35.56549940205762]}, "properties": {"OBJECTID": 2348265, "Worktype": "Road Construction", "Startdate": "07/07/2026", "Enddate": "08/17/2026", "Worklocation": "N MUSTANG RD & W BRITTON RD", "workzonenumber": "WZ-2026-01251", "Northbound": "No", "Southbound": "No", "Eastbound": "No", "Westbound": "No", "Roadclosure": "Yes", "LaneClosure": "No", "SideWalkClosure": "No", "RightOfWayWork": "Yes"}}, {"type": "Feature", "id": 2348267, "geometry": {"type": "Point", "coordinates": [-97.4243961589367, 35.53096672597358]}, "properties": {"OBJECTID": 2348267, "Worktype": "Building Construction", "Startdate": "07/06/2026", "Enddate": "09/07/2026", "Worklocation": "5801 N SOONER RD", "workzonenumber": "WZ-2026-01253", "Northbound": "No", "Southbound": "No", "Eastbound": "No", "Westbound": "No", "Roadclosure": "No", "LaneClosure": "No", "SideWalkClosure": "No", "RightOfWayWork": "Yes"}}, {"type": "Feature", "id": 2348268, "geometry": {"type": "Point", "coordinates": [-97.4248929300016, 35.510721068489445]}, "properties": {"OBJECTID": 2348268, "Worktype": "Building Construction", "Startdate": "07/06/2026", "Enddate": "09/07/2026", "Worklocation": "3925 N SOONER RD", "workzonenumber": "WZ-2026-01254", "Northbound": "No", "Southbound": "No", "Eastbound": "No", "Westbound": "No", "Roadclosure": "No", "LaneClosure": "No", "SideWalkClosure": "No", "RightOfWayWork": "Yes"}}, {"type": "Feature", "id": 2348270, "geometry": {"type": "Point", "coordinates": [-97.49462488505202, 35.48547682374492]}, "properties": {"OBJECTID": 2348270, "Worktype": "Street/Sidewalk Repair", "Startdate": "07/02/2026", "Enddate": "08/14/2026", "Worklocation": "N KELLEY AVE & NE 16TH ST", "workzonenumber": "WZ-2026-01245", "Northbound": "No", "Southbound": "No", "Eastbound": "No", "Westbound": "WB: 1", "Roadclosure": "No", "LaneClosure": "Yes", "SideWalkClosure": "Yes", "RightOfWayWork": "No"}}, {"type": "Feature", "id": 2348277, "geometry": {"type": "Point", "coordinates": [-97.51614740188184, 35.4579784769215]}, "properties": {"OBJECTID": 2348277, "Worktype": "Road Construction", "Startdate": "07/06/2026", "Enddate": "12/20/2026", "Worklocation": "S ROBINSON AVE BETWEEN SW 7TH ST & SW GRAND BLVD", "workzonenumber": "WZ-2026-01260", "Northbound": "NB: 1", "Southbound": "SB: 1", "Eastbound": "No", "Westbound": "No", "Roadclosure": "No", "LaneClosure": "Yes", "SideWalkClosure": "Yes", "RightOfWayWork": "Yes"}}, {"type": "Feature", "id": 2348278, "geometry": {"type": "Point", "coordinates": [-97.51617120176905, 35.44958811855156]}, "properties": {"OBJECTID": 2348278, "Worktype": "Road Construction", "Startdate": "07/06/2026", "Enddate": "12/20/2026", "Worklocation": "S ROBINSON AVE BETWEEN SW 7TH ST & SW GRAND BLVD", "workzonenumber": "WZ-2026-01260", "Northbound": "NB: 1", "Southbound": "SB: 1", "Eastbound": "No", "Westbound": "No", "Roadclosure": "No", "LaneClosure": "Yes", "SideWalkClosure": "Yes", "RightOfWayWork": "Yes"}}, {"type": "Feature", "id": 2348279, "geometry": {"type": "Point", "coordinates": [-97.51617136657664, 35.43923315404686]}, "properties": {"OBJECTID": 2348279, "Worktype": "Road Construction", "Startdate": "07/06/2026", "Enddate": "12/20/2026", "Worklocation": "S ROBINSON AVE BETWEEN SW 7TH ST & SW GRAND BLVD", "workzonenumber": "WZ-2026-01260", "Northbound": "NB: 1", "Southbound": "SB: 1", "Eastbound": "No", "Westbound": "No", "Roadclosure": "No", "LaneClosure": "Yes", "SideWalkClosure": "Yes", "RightOfWayWork": "Yes"}}, {"type": "Feature", "id": 2348280, "geometry": {"type": "Point", "coordinates": [-97.5161820277047, 35.428275957714064]}, "properties": {"OBJECTID": 2348280, "Worktype": "Road Construction", "Startdate": "07/06/2026", "Enddate": "12/20/2026", "Worklocation": "S ROBINSON AVE BETWEEN SW 7TH ST & SW GRAND BLVD", "workzonenumber": "WZ-2026-01260", "Northbound": "NB: 1", "Southbound": "SB: 1", "Eastbound": "No", "Westbound": "No", "Roadclosure": "No", "LaneClosure": "Yes", "SideWalkClosure": "Yes", "RightOfWayWork": "Yes"}}, {"type": "Feature", "id": 2349069, "geometry": {"type": "Point", "coordinates": [-97.5211381670409, 35.41887873951247]}, "properties": {"OBJECTID": 2349069, "Worktype": "Street Repair", "Startdate": "07/06/2026", "Enddate": "08/06/2026", "Worklocation": "S WALKER AVE & SW 46TH ST", "workzonenumber": "WZ-2026-01270", "Northbound": "No", "Southbound": "No", "Eastbound": "No", "Westbound": "WB: 1", "Roadclosure": "No", "LaneClosure": "Yes", "SideWalkClosure": "No", "RightOfWayWork": "No"}}, {"type": "Feature", "id": 2349868, "geometry": {"type": "Point", "coordinates": [-97.74241253803973, 35.45901256096545]}, "properties": {"OBJECTID": 2349868, "Worktype": "Utility Maintenance and Repair", "Startdate": "07/09/2026", "Enddate": "08/31/2026", "Worklocation": "SW 4TH ST & S CZECH HALL RD", "workzonenumber": "WZ-2026-01284", "Northbound": "No", "Southbound": "No", "Eastbound": "No", "Westbound": "No", "Roadclosure": "No", "LaneClosure": "No", "SideWalkClosure": "Yes", "RightOfWayWork": "No"}}, {"type": "Feature", "id": 2349869, "geometry": {"type": "Point", "coordinates": [-97.4958046343407, 35.4499174002049]}, "properties": {"OBJECTID": 2349869, "Worktype": "Street Repair", "Startdate": "07/20/2026", "Enddate": "08/03/2026", "Worklocation": "921 SE 15TH ST", "workzonenumber": "WZ-2026-01283", "Northbound": "No", "Southbound": "No", "Eastbound": "EB: 1", "Westbound": "WB: 1", "Roadclosure": "No", "LaneClosure": "Yes", "SideWalkClosure": "No", "RightOfWayWork": "Yes"}}, {"type": "Feature", "id": 2349873, "geometry": {"type": "Point", "coordinates": [-97.72712735701944, 35.59408261429747]}, "properties": {"OBJECTID": 2349873, "Worktype": "Utility Maintenance and Repair", "Startdate": "07/09/2026", "Enddate": "08/10/2026", "Worklocation": "N MUSTANG RD & NW 121ST PL", "workzonenumber": "WZ-2026-01289", "Northbound": "No", "Southbound": "No", "Eastbound": "No", "Westbound": "No", "Roadclosure": "No", "LaneClosure": "No", "SideWalkClosure": "No", "RightOfWayWork": "Yes"}}, {"type": "Feature", "id": 2350270, "geometry": {"type": "Point", "coordinates": [-97.49898387589991, 35.49305698851699]}, "properties": {"OBJECTID": 2350270, "Worktype": "Building Construction", "Startdate": "07/09/2026", "Enddate": "08/14/2026", "Worklocation": "NE 23RD ST & N PHILLIPS AVE", "workzonenumber": "WZ-2026-01291", "Northbound": "No", "Southbound": "No", "Eastbound": "No", "Westbound": "No", "Roadclosure": "No", "LaneClosure": "No", "SideWalkClosure": "Yes", "RightOfWayWork": "No"}}, {"type": "Feature", "id": 2350273, "geometry": {"type": "Point", "coordinates": [-97.67408897942093, 35.58528567971539]}, "properties": {"OBJECTID": 2350273, "Worktype": "Utility Maintenance and Repair", "Startdate": "07/10/2026", "Enddate": "08/10/2026", "Worklocation": "11301 N COUNTY LINE RD", "workzonenumber": "WZ-2026-01294", "Northbound": "No", "Southbound": "No", "Eastbound": "No", "Westbound": "No", "Roadclosure": "No", "LaneClosure": "No", "SideWalkClosure": "No", "RightOfWayWork": "Yes"}}, {"type": "Feature", "id": 2350283, "geometry": {"type": "Point", "coordinates": [-97.54786704549626, 35.31981981407232]}, "properties": {"OBJECTID": 2350283, "Worktype": "Utility Maintenance and Repair", "Startdate": "07/10/2026", "Enddate": "08/31/2026", "Worklocation": "SW 149TH ST AND S PENNSYLVANIA AVE", "workzonenumber": "WZ-2026-01302", "Northbound": "No", "Southbound": "No", "Eastbound": "No", "Westbound": "No", "Roadclosure": "No", "LaneClosure": "No", "SideWalkClosure": "No", "RightOfWayWork": "Yes"}}, {"type": "Feature", "id": 2350286, "geometry": {"type": "Point", "coordinates": [-97.52500740601273, 35.50794030534972]}, "properties": {"OBJECTID": 2350286, "Worktype": "Utility Maintenance and Repair", "Startdate": "07/10/2026", "Enddate": "08/31/2026", "Worklocation": "3700 N SHARTEL AVE", "workzonenumber": "WZ-2026-01307", "Northbound": "No", "Southbound": "No", "Eastbound": "No", "Westbound": "No", "Roadclosure": "No", "LaneClosure": "No", "SideWalkClosure": "No", "RightOfWayWork": "Yes"}}, {"type": "Feature", "id": 2350681, "geometry": {"type": "Point", "coordinates": [-97.57854328445096, 35.36322488783044]}, "properties": {"OBJECTID": 2350681, "Worktype": "Utility Maintenance and Repair", "Startdate": "07/14/2026", "Enddate": "08/13/2026", "Worklocation": "3421 SW 104TH ST", "workzonenumber": "WZ-2026-01323", "Northbound": "No", "Southbound": "No", "Eastbound": "No", "Westbound": "No", "Roadclosure": "No", "LaneClosure": "No", "SideWalkClosure": "No", "RightOfWayWork": "Yes"}}, {"type": "Feature", "id": 2350682, "geometry": {"type": "Point", "coordinates": [-97.7341069245548, 35.59465447912886]}, "properties": {"OBJECTID": 2350682, "Worktype": "Utility Maintenance and Repair", "Startdate": "07/14/2026", "Enddate": "08/17/2026", "Worklocation": "NW 122ND ST AND ROYAL COACH DR", "workzonenumber": "WZ-2026-01325", "Northbound": "No", "Southbound": "No", "Eastbound": "No", "Westbound": "No", "Roadclosure": "No", "LaneClosure": "No", "SideWalkClosure": "No", "RightOfWayWork": "Yes"}}, {"type": "Feature", "id": 2350686, "geometry": {"type": "Point", "coordinates": [-97.67784272893054, 35.424477075243104]}, "properties": {"OBJECTID": 2350686, "Worktype": "Utility Maintenance and Repair", "Startdate": "07/13/2026", "Enddate": "08/05/2026", "Worklocation": "9340 SW 40TH ST", "workzonenumber": "WZ-2026-01324", "Northbound": "No", "Southbound": "No", "Eastbound": "No", "Westbound": "No", "Roadclosure": "No", "LaneClosure": "No", "SideWalkClosure": "No", "RightOfWayWork": "Yes"}}, {"type": "Feature", "id": 2350687, "geometry": {"type": "Point", "coordinates": [-97.55205054684987, 35.520950854900654]}, "properties": {"OBJECTID": 2350687, "Worktype": "Street/Sidewalk Repair", "Startdate": "07/14/2026", "Enddate": "08/07/2026", "Worklocation": "2200 NW 50th St", "workzonenumber": "WZ-2026-01320", "Northbound": "NB: 1", "Southbound": "No", "Eastbound": "EB: 1", "Westbound": "No", "Roadclosure": "No", "LaneClosure": "Yes", "SideWalkClosure": "Yes", "RightOfWayWork": "Yes"}}, {"type": "Feature", "id": 2350688, "geometry": {"type": "Point", "coordinates": [-97.5519081625803, 35.52220955729041]}, "properties": {"OBJECTID": 2350688, "Worktype": "Street/Sidewalk Repair", "Startdate": "07/14/2026", "Enddate": "08/07/2026", "Worklocation": "2200 NW 50th St", "workzonenumber": "WZ-2026-01320", "Northbound": "NB: 1", "Southbound": "No", "Eastbound": "EB: 1", "Westbound": "No", "Roadclosure": "No", "LaneClosure": "Yes", "SideWalkClosure": "Yes", "RightOfWayWork": "Yes"}}, {"type": "Feature", "id": 2350689, "geometry": {"type": "Point", "coordinates": [-97.45940804377115, 35.449674892587765]}, "properties": {"OBJECTID": 2350689, "Worktype": "Utility Maintenance and Repair", "Startdate": "07/14/2026", "Enddate": "08/13/2026", "Worklocation": "SE 15TH ST & S BRYANT AVE", "workzonenumber": "WZ-2026-01330", "Northbound": "No", "Southbound": "No", "Eastbound": "No", "Westbound": "No", "Roadclosure": "No", "LaneClosure": "No", "SideWalkClosure": "No", "RightOfWayWork": "Yes"}}, {"type": "Feature", "id": 2350690, "geometry": {"type": "Point", "coordinates": [-97.53465178379011, 35.500457080278736]}, "properties": {"OBJECTID": 2350690, "Worktype": "Utility Maintenance and Repair", "Startdate": "07/20/2026", "Enddate": "08/20/2026", "Worklocation": "N CLASSEN BLVD & NW 30TH ST", "workzonenumber": "WZ-2026-01157", "Northbound": "No", "Southbound": "No", "Eastbound": "No", "Westbound": "No", "Roadclosure": "No", "LaneClosure": "No", "SideWalkClosure": "No", "RightOfWayWork": "Yes"}}, {"type": "Feature", "id": 2351082, "geometry": {"type": "Point", "coordinates": [-97.54738983056448, 35.363408179978094]}, "properties": {"OBJECTID": 2351082, "Worktype": "Utility Maintenance and Repair", "Startdate": "07/16/2026", "Enddate": "08/17/2026", "Worklocation": "S PENNSYLVANIA AVE & SW 104TH ST", "workzonenumber": "WZ-2026-01335", "Northbound": "No", "Southbound": "No", "Eastbound": "No", "Westbound": "No", "Roadclosure": "No", "LaneClosure": "No", "SideWalkClosure": "No", "RightOfWayWork": "Yes"}}, {"type": "Feature", "id": 2351088, "geometry": {"type": "Point", "coordinates": [-97.54774777844376, 35.406338550557535]}, "properties": {"OBJECTID": 2351088, "Worktype": "Utility Maintenance and Repair", "Startdate": "07/17/2026", "Enddate": "08/17/2026", "Worklocation": "SW 59TH ST AND S PENN AVE", "workzonenumber": "WZ-2026-01342", "Northbound": "No", "Southbound": "No", "Eastbound": "No", "Westbound": "No", "Roadclosure": "No", "LaneClosure": "No", "SideWalkClosure": "No", "RightOfWayWork": "Yes"}}, {"type": "Feature", "id": 2351483, "geometry": {"type": "Point", "coordinates": [-97.51331368457323, 35.464100277717016]}, "properties": {"OBJECTID": 2351483, "Worktype": "Utility Maintenance and Repair", "Startdate": "07/21/2026", "Enddate": "08/04/2026", "Worklocation": "2 W Reno Ave      S EK Gaylord Blvd", "workzonenumber": "WZ-2026-01188", "Northbound": "No", "Southbound": "SB: 1", "Eastbound": "No", "Westbound": "No", "Roadclosure": "No", "LaneClosure": "Yes", "SideWalkClosure": "Yes", "RightOfWayWork": "Yes"}}, {"type": "Feature", "id": 2351882, "geometry": {"type": "Point", "coordinates": [-97.52831543690064, 35.48340980823048]}, "properties": {"OBJECTID": 2351882, "Worktype": "Dumpster/Storage", "Startdate": "07/21/2026", "Enddate": "08/04/2026", "Worklocation": "928 NW 14TH ST", "workzonenumber": "WZ-2026-01355", "Northbound": "No", "Southbound": "No", "Eastbound": "EB: 1", "Westbound": "No", "Roadclosure": "No", "LaneClosure": "Yes", "SideWalkClosure": "No", "RightOfWayWork": "No"}}, {"type": "Feature", "id": 2351887, "geometry": {"type": "Point", "coordinates": [-97.47681836331839, 35.377328028634786]}, "properties": {"OBJECTID": 2351887, "Worktype": "Utility Maintenance and Repair", "Startdate": "06/17/2026", "Enddate": "08/07/2026", "Worklocation": "S EASTERN AVE & SE 89TH ST", "workzonenumber": "WZ-2026-01158", "Northbound": "NB: 1", "Southbound": "SB: 1", "Eastbound": "No", "Westbound": "No", "Roadclosure": "Yes", "LaneClosure": "Yes", "SideWalkClosure": "No", "RightOfWayWork": "No"}}, {"type": "Feature", "id": 2352284, "geometry": {"type": "Point", "coordinates": [-97.52745694390345, 35.436269117756524]}, "properties": {"OBJECTID": 2352284, "Worktype": "Utility Maintenance and Repair", "Startdate": "07/20/2026", "Enddate": "08/04/2026", "Worklocation": "728 SW 28TH ST", "workzonenumber": "WZ-2026-01364", "Northbound": "No", "Southbound": "No", "Eastbound": "EB: 1", "Westbound": "No", "Roadclosure": "No", "LaneClosure": "Yes", "SideWalkClosure": "No", "RightOfWayWork": "No"}}, {"type": "Feature", "id": 2352286, "geometry": {"type": "Point", "coordinates": [-97.66363469553556, 35.449792621724725]}, "properties": {"OBJECTID": 2352286, "Worktype": "Building Construction", "Startdate": "07/20/2026", "Enddate": "08/03/2026", "Worklocation": "8500 SW 15th St.", "workzonenumber": "WZ-2026-01367", "Northbound": "No", "Southbound": "No", "Eastbound": "EB: 1", "Westbound": "No", "Roadclosure": "No", "LaneClosure": "Yes", "SideWalkClosure": "No", "RightOfWayWork": "Yes"}}, {"type": "Feature", "id": 2352288, "geometry": {"type": "Point", "coordinates": [-97.51409314636, 35.62378154274656]}, "properties": {"OBJECTID": 2352288, "Worktype": "Road Construction", "Startdate": "07/23/2026", "Enddate": "09/01/2026", "Worklocation": "NW 150TH ST & N SANTA FE AVE", "workzonenumber": "WZ-2026-01366", "Northbound": "No", "Southbound": "No", "Eastbound": "EB: 1", "Westbound": "WB: 1", "Roadclosure": "No", "LaneClosure": "Yes", "SideWalkClosure": "No", "RightOfWayWork": "No"}}, {"type": "Feature", "id": 2352289, "geometry": {"type": "Point", "coordinates": [-97.5309580329868, 35.623459847034745]}, "properties": {"OBJECTID": 2352289, "Worktype": "Road Construction", "Startdate": "07/23/2026", "Enddate": "09/01/2026", "Worklocation": "NW 150TH ST & N SANTA FE AVE", "workzonenumber": "WZ-2026-01366", "Northbound": "No", "Southbound": "No", "Eastbound": "EB: 1", "Westbound": "WB: 1", "Roadclosure": "No", "LaneClosure": "Yes", "SideWalkClosure": "No", "RightOfWayWork": "No"}}, {"type": "Feature", "id": 2352681, "geometry": {"type": "Point", "coordinates": [-97.50673294589465, 35.43931359111676]}, "properties": {"OBJECTID": 2352681, "Worktype": "Utility Maintenance and Repair", "Startdate": "07/21/2026", "Enddate": "08/24/2026", "Worklocation": "S CENTRAL AVE AND SE 25TH ST", "workzonenumber": "WZ-2026-01368", "Northbound": "No", "Southbound": "No", "Eastbound": "No", "Westbound": "No", "Roadclosure": "No", "LaneClosure": "No", "SideWalkClosure": "No", "RightOfWayWork": "Yes"}}, {"type": "Feature", "id": 2352684, "geometry": {"type": "Point", "coordinates": [-97.51719596681448, 35.43624370222122]}, "properties": {"OBJECTID": 2352684, "Worktype": "Utility Maintenance and Repair", "Startdate": "07/20/2026", "Enddate": "08/04/2026", "Worklocation": "221 SW 28TH ST", "workzonenumber": "WZ-2026-01371", "Northbound": "No", "Southbound": "No", "Eastbound": "No", "Westbound": "No", "Roadclosure": "No", "LaneClosure": "No", "SideWalkClosure": "No", "RightOfWayWork": "Yes"}}, {"type": "Feature", "id": 2352686, "geometry": {"type": "Point", "coordinates": [-97.51313164064035, 35.55477074255988]}, "properties": {"OBJECTID": 2352686, "Worktype": "Building Construction", "Startdate": "07/20/2026", "Enddate": "08/07/2026", "Worklocation": "8200 Broadway Ext", "workzonenumber": "WZ-2026-01373", "Northbound": "No", "Southbound": "No", "Eastbound": "No", "Westbound": "No", "Roadclosure": "No", "LaneClosure": "No", "SideWalkClosure": "Yes", "RightOfWayWork": "Yes"}}, {"type": "Feature", "id": 2353083, "geometry": {"type": "Point", "coordinates": [-97.22988714083506, 35.60888096418345]}, "properties": {"OBJECTID": 2353083, "Worktype": "Street Repair", "Startdate": "07/21/2026", "Enddate": "09/21/2026", "Worklocation": "N Triple X Rd & E Memorial Rd", "workzonenumber": "WZ-2026-01390", "Northbound": "No", "Southbound": "No", "Eastbound": "No", "Westbound": "No", "Roadclosure": "Yes", "LaneClosure": "No", "SideWalkClosure": "No", "RightOfWayWork": "Yes"}}, {"type": "Feature", "id": 2353084, "geometry": {"type": "Point", "coordinates": [-97.54622659576128, 35.48289005956822]}, "properties": {"OBJECTID": 2353084, "Worktype": "Utility Maintenance and Repair", "Startdate": "07/21/2026", "Enddate": "08/05/2026", "Worklocation": "2003 NW 13TH ST", "workzonenumber": "WZ-2026-01391", "Northbound": "No", "Southbound": "No", "Eastbound": "EB: 1", "Westbound": "WB: 1", "Roadclosure": "No", "LaneClosure": "Yes", "SideWalkClosure": "No", "RightOfWayWork": "Yes"}}, {"type": "Feature", "id": 2353085, "geometry": {"type": "Point", "coordinates": [-97.777377221196, 35.405981954853985]}, "properties": {"OBJECTID": 2353085, "Worktype": "Utility Maintenance and Repair", "Startdate": "07/22/2026", "Enddate": "08/03/2026", "Worklocation": "5901 S FRISCO RD", "workzonenumber": "WZ-2026-01392", "Northbound": "No", "Southbound": "No", "Eastbound": "No", "Westbound": "No", "Roadclosure": "No", "LaneClosure": "No", "SideWalkClosure": "No", "RightOfWayWork": "Yes"}}, {"type": "Feature", "id": 2353086, "geometry": {"type": "Point", "coordinates": [-97.51920283394881, 35.43625224774757]}, "properties": {"OBJECTID": 2353086, "Worktype": "Utility Maintenance and Repair", "Startdate": "07/22/2026", "Enddate": "08/06/2026", "Worklocation": "323 SW 28TH ST", "workzonenumber": "WZ-2026-01393", "Northbound": "No", "Southbound": "No", "Eastbound": "EB: 1", "Westbound": "WB: 1", "Roadclosure": "No", "LaneClosure": "Yes", "SideWalkClosure": "No", "RightOfWayWork": "No"}}, {"type": "Feature", "id": 2353088, "geometry": {"type": "Point", "coordinates": [-97.52413603455958, 35.461538712905]}, "properties": {"OBJECTID": 2353088, "Worktype": "Utility Maintenance and Repair", "Startdate": "07/22/2026", "Enddate": "08/14/2026", "Worklocation": "402 S LEE AVE", "workzonenumber": "WZ-2026-01395", "Northbound": "No", "Southbound": "No", "Eastbound": "No", "Westbound": "No", "Roadclosure": "No", "LaneClosure": "No", "SideWalkClosure": "No", "RightOfWayWork": "Yes"}}, {"type": "Feature", "id": 2353090, "geometry": {"type": "Point", "coordinates": [-97.52362477535249, 35.49745402992747]}, "properties": {"OBJECTID": 2353090, "Worktype": "Dumpster/Storage", "Startdate": "07/21/2026", "Enddate": "08/04/2026", "Worklocation": "624 NW 27TH ST", "workzonenumber": "WZ-2026-01397", "Northbound": "No", "Southbound": "No", "Eastbound": "EB: 1", "Westbound": "No", "Roadclosure": "No", "LaneClosure": "Yes", "SideWalkClosure": "No", "RightOfWayWork": "No"}}, {"type": "Feature", "id": 2353482, "geometry": {"type": "Point", "coordinates": [-97.65691370938136, 35.56586002046743]}, "properties": {"OBJECTID": 2353482, "Worktype": "Building Construction", "Startdate": "07/24/2026", "Enddate": "08/24/2026", "Worklocation": "INTERSECTION OF N COUNCIL RD & NW EXPW", "workzonenumber": "WZ-2026-01405", "Northbound": "No", "Southbound": "No", "Eastbound": "No", "Westbound": "No", "Roadclosure": "No", "LaneClosure": "No", "SideWalkClosure": "No", "RightOfWayWork": "Yes"}}, {"type": "Feature", "id": 2353483, "geometry": {"type": "Point", "coordinates": [-97.550608667506, 35.59471836677725]}, "properties": {"OBJECTID": 2353483, "Worktype": "Utility Maintenance and Repair", "Startdate": "07/24/2026", "Enddate": "08/28/2026", "Worklocation": "2107 NW 122nd St", "workzonenumber": "WZ-2026-01406", "Northbound": "No", "Southbound": "No", "Eastbound": "EB: 1", "Westbound": "No", "Roadclosure": "No", "LaneClosure": "Yes", "SideWalkClosure": "Yes", "RightOfWayWork": "No"}}, {"type": "Feature", "id": 2353484, "geometry": {"type": "Point", "coordinates": [-97.53124382602138, 35.57991409971647]}, "properties": {"OBJECTID": 2353484, "Worktype": "Utility Maintenance and Repair", "Startdate": "07/23/2026", "Enddate": "08/24/2026", "Worklocation": "W HEFNER RD AND N WESTERN AVE", "workzonenumber": "WZ-2026-00851", "Northbound": "No", "Southbound": "No", "Eastbound": "No", "Westbound": "No", "Roadclosure": "No", "LaneClosure": "No", "SideWalkClosure": "No", "RightOfWayWork": "Yes"}}, {"type": "Feature", "id": 2353485, "geometry": {"type": "Point", "coordinates": [-97.5199501853474, 35.49019566308043]}, "properties": {"OBJECTID": 2353485, "Worktype": "Dumpster/Storage", "Startdate": "07/28/2026", "Enddate": "08/11/2026", "Worklocation": "419 NW 20TH ST", "workzonenumber": "WZ-2026-01407", "Northbound": "No", "Southbound": "No", "Eastbound": "No", "Westbound": "WB: 1", "Roadclosure": "No", "LaneClosure": "Yes", "SideWalkClosure": "No", "RightOfWayWork": "No"}}, {"type": "Feature", "id": 2353487, "geometry": {"type": "Point", "coordinates": [-97.55644303630488, 35.52518634512251]}, "properties": {"OBJECTID": 2353487, "Worktype": "Driveway Repair", "Startdate": "07/22/2026", "Enddate": "08/05/2026", "Worklocation": "2432 NW 54th ST", "workzonenumber": "WZ-2026-01409", "Northbound": "NB: 1", "Southbound": "No", "Eastbound": "No", "Westbound": "No", "Roadclosure": "No", "LaneClosure": "Yes", "SideWalkClosure": "No", "RightOfWayWork": "Yes"}}, {"type": "Feature", "id": 2353882, "geometry": {"type": "Point", "coordinates": [-97.55786445048648, 35.50769988299589]}, "properties": {"OBJECTID": 2353882, "Worktype": "Utility Maintenance and Repair", "Startdate": "07/23/2026", "Enddate": "08/06/2026", "Worklocation": "2525 NW 36TH ST", "workzonenumber": "WZ-2026-01413", "Northbound": "No", "Southbound": "No", "Eastbound": "No", "Westbound": "WB: 1", "Roadclosure": "No", "LaneClosure": "Yes", "SideWalkClosure": "No", "RightOfWayWork": "Yes"}}, {"type": "Feature", "id": 2353883, "geometry": {"type": "Point", "coordinates": [-97.55241712176593, 35.49099465236001]}, "properties": {"OBJECTID": 2353883, "Worktype": "Utility Maintenance and Repair", "Startdate": "07/23/2026", "Enddate": "08/06/2026", "Worklocation": "2301 NW 21ST ST", "workzonenumber": "WZ-2026-01412", "Northbound": "No", "Southbound": "No", "Eastbound": "No", "Westbound": "WB: 1", "Roadclosure": "No", "LaneClosure": "Yes", "SideWalkClosure": "No", "RightOfWayWork": "Yes"}}, {"type": "Feature", "id": 2353884, "geometry": {"type": "Point", "coordinates": [-97.54853105975772, 35.487977419421995]}, "properties": {"OBJECTID": 2353884, "Worktype": "Utility Maintenance and Repair", "Startdate": "07/23/2026", "Enddate": "08/06/2026", "Worklocation": "2112 NW 18TH ST", "workzonenumber": "WZ-2026-01411", "Northbound": "No", "Southbound": "No", "Eastbound": "EB: 1", "Westbound": "No", "Roadclosure": "No", "LaneClosure": "Yes", "SideWalkClosure": "No", "RightOfWayWork": "Yes"}}, {"type": "Feature", "id": 2353885, "geometry": {"type": "Point", "coordinates": [-97.51298421403376, 35.46699228469466]}, "properties": {"OBJECTID": 2353885, "Worktype": "Miscellaneous", "Startdate": "07/28/2026", "Enddate": "08/31/2026", "Worklocation": "1 N E.K. Gaylord", "workzonenumber": "WZ-2026-01415", "Northbound": "No", "Southbound": "SB: 1", "Eastbound": "No", "Westbound": "No", "Roadclosure": "No", "LaneClosure": "Yes", "SideWalkClosure": "Yes", "RightOfWayWork": "Yes"}}, {"type": "Feature", "id": 2353887, "geometry": {"type": "Point", "coordinates": [-97.47094806893757, 35.435412187988554]}, "properties": {"OBJECTID": 2353887, "Worktype": "Street Repair", "Startdate": "07/23/2026", "Enddate": "08/05/2026", "Worklocation": "2301 SE 29th ST", "workzonenumber": "WZ-2026-01416", "Northbound": "No", "Southbound": "No", "Eastbound": "EB: 1", "Westbound": "No", "Roadclosure": "No", "LaneClosure": "Yes", "SideWalkClosure": "No", "RightOfWayWork": "Yes"}}, {"type": "Feature", "id": 2353888, "geometry": {"type": "Point", "coordinates": [-97.58324063132474, 35.536982062328775]}, "properties": {"OBJECTID": 2353888, "Worktype": "Utility Maintenance and Repair", "Startdate": "07/27/2026", "Enddate": "08/03/2026", "Worklocation": "N PORTLAND AVE AND NW 63RD ST", "workzonenumber": "WZ-2026-01418", "Northbound": "No", "Southbound": "No", "Eastbound": "No", "Westbound": "No", "Roadclosure": "No", "LaneClosure": "No", "SideWalkClosure": "No", "RightOfWayWork": "Yes"}}, {"type": "Feature", "id": 2353889, "geometry": {"type": "Point", "coordinates": [-97.6291097738254, 35.62338758892133]}, "properties": {"OBJECTID": 2353889, "Worktype": "Utility Maintenance and Repair", "Startdate": "07/27/2026", "Enddate": "08/31/2026", "Worklocation": "NW 150TH ST AND NICOLLET LN", "workzonenumber": "WZ-2026-01419", "Northbound": "No", "Southbound": "No", "Eastbound": "No", "Westbound": "No", "Roadclosure": "No", "LaneClosure": "No", "SideWalkClosure": "No", "RightOfWayWork": "Yes"}}, {"type": "Feature", "id": 2353891, "geometry": {"type": "Point", "coordinates": [-97.4072307278999, 35.58039566949667]}, "properties": {"OBJECTID": 2353891, "Worktype": "Street Repair", "Startdate": "07/27/2026", "Enddate": "08/03/2026", "Worklocation": "N Air Depot Blvd from N Hefner Rd to NW 122nd St", "workzonenumber": "WZ-2026-01421", "Northbound": "NB: 1", "Southbound": "SB: 1", "Eastbound": "No", "Westbound": "No", "Roadclosure": "No", "LaneClosure": "Yes", "SideWalkClosure": "No", "RightOfWayWork": "No"}}, {"type": "Feature", "id": 2353892, "geometry": {"type": "Point", "coordinates": [-97.40720656461578, 35.594262715528735]}, "properties": {"OBJECTID": 2353892, "Worktype": "Street Repair", "Startdate": "07/27/2026", "Enddate": "08/03/2026", "Worklocation": "N Air Depot Blvd from N Hefner Rd to NW 122nd St", "workzonenumber": "WZ-2026-01421", "Northbound": "NB: 1", "Southbound": "SB: 1", "Eastbound": "No", "Westbound": "No", "Roadclosure": "No", "LaneClosure": "Yes", "SideWalkClosure": "No", "RightOfWayWork": "No"}}, {"type": "Feature", "id": 2353895, "geometry": {"type": "Point", "coordinates": [-97.42345859008181, 35.37271785872536]}, "properties": {"OBJECTID": 2353895, "Worktype": "Utility Maintenance and Repair", "Startdate": "07/29/2026", "Enddate": "08/03/2026", "Worklocation": "BLUEWATER RD & S SOONER RD", "workzonenumber": "WZ-2026-01424", "Northbound": "No", "Southbound": "No", "Eastbound": "No", "Westbound": "No", "Roadclosure": "No", "LaneClosure": "No", "SideWalkClosure": "No", "RightOfWayWork": "Yes"}}, {"type": "Feature", "id": 2354681, "geometry": {"type": "Point", "coordinates": [-97.54350394567362, 35.64951931101432]}, "properties": {"OBJECTID": 2354681, "Worktype": "Street Repair", "Startdate": "07/28/2026", "Enddate": "08/04/2026", "Worklocation": "1805 NW 176TH ST", "workzonenumber": "WZ-2026-01441", "Northbound": "No", "Southbound": "No", "Eastbound": "No", "Westbound": "No", "Roadclosure": "Yes", "LaneClosure": "No", "SideWalkClosure": "No", "RightOfWayWork": "No"}}, {"type": "Feature", "id": 2354683, "geometry": {"type": "Point", "coordinates": [-97.53175545105586, 35.50296416890949]}, "properties": {"OBJECTID": 2354683, "Worktype": "Utility Maintenance and Repair", "Startdate": "07/29/2026", "Enddate": "08/12/2026", "Worklocation": "1137 NW 32ND ST", "workzonenumber": "WZ-2026-01439", "Northbound": "No", "Southbound": "No", "Eastbound": "No", "Westbound": "WB: 1", "Roadclosure": "No", "LaneClosure": "Yes", "SideWalkClosure": "No", "RightOfWayWork": "No"}}, {"type": "Feature", "id": 2354685, "geometry": {"type": "Point", "coordinates": [-97.54342141683705, 35.50895181692249]}, "properties": {"OBJECTID": 2354685, "Worktype": "Utility Maintenance and Repair", "Startdate": "07/29/2026", "Enddate": "08/05/2026", "Worklocation": "1828 NW 37TH ST", "workzonenumber": "WZ-2026-01437", "Northbound": "No", "Southbound": "No", "Eastbound": "EB: 1", "Westbound": "No", "Roadclosure": "No", "LaneClosure": "Yes", "SideWalkClosure": "No", "RightOfWayWork": "No"}}, {"type": "Feature", "id": 2354688, "geometry": {"type": "Point", "coordinates": [-97.64929855687711, 35.47145355983508]}, "properties": {"OBJECTID": 2354688, "Worktype": "Utility Maintenance and Repair", "Startdate": "07/28/2026", "Enddate": "08/27/2026", "Worklocation": "TOMPKINS DR & MELROSE LN", "workzonenumber": "WZ-2026-01433", "Northbound": "No", "Southbound": "No", "Eastbound": "No", "Westbound": "No", "Roadclosure": "No", "LaneClosure": "No", "SideWalkClosure": "No", "RightOfWayWork": "Yes"}}, {"type": "Feature", "id": 2354692, "geometry": {"type": "Point", "coordinates": [-97.56581826705373, 35.631320155852826]}, "properties": {"OBJECTID": 2354692, "Worktype": "Street Repair", "Startdate": "07/27/2026", "Enddate": "08/03/2026", "Worklocation": "2832 NW 159TH ST", "workzonenumber": "WZ-2026-01444", "Northbound": "No", "Southbound": "No", "Eastbound": "EB: 1", "Westbound": "No", "Roadclosure": "No", "LaneClosure": "Yes", "SideWalkClosure": "Yes", "RightOfWayWork": "No"}}, {"type": "Feature", "id": 2354693, "geometry": {"type": "Point", "coordinates": [-97.56708101145027, 35.66745454407016]}, "properties": {"OBJECTID": 2354693, "Worktype": "Sidewalk Repair", "Startdate": "07/29/2026", "Enddate": "08/07/2026", "Worklocation": "NW 192ND ST & N MAY AVE", "workzonenumber": "WZ-2026-01428", "Northbound": "NB: 1", "Southbound": "No", "Eastbound": "EB: 1", "Westbound": "No", "Roadclosure": "No", "LaneClosure": "Yes", "SideWalkClosure": "No", "RightOfWayWork": "Yes"}}, {"type": "Feature", "id": 2354694, "geometry": {"type": "Point", "coordinates": [-97.52927334611681, 35.488014636638525]}, "properties": {"OBJECTID": 2354694, "Worktype": "Dumpster/Storage", "Startdate": "07/29/2026", "Enddate": "08/12/2026", "Worklocation": "1006 NW 18TH ST", "workzonenumber": "WZ-2026-01452", "Northbound": "No", "Southbound": "No", "Eastbound": "EB: 1", "Westbound": "No", "Roadclosure": "No", "LaneClosure": "Yes", "SideWalkClosure": "No", "RightOfWayWork": "No"}}, {"type": "Feature", "id": 2354695, "geometry": {"type": "Point", "coordinates": [-97.55698437971508, 35.62106258130463]}, "properties": {"OBJECTID": 2354695, "Worktype": "Building Construction", "Startdate": "07/28/2026", "Enddate": "08/07/2026", "Worklocation": "14800 GAMBELS TRAIL DR", "workzonenumber": "WZ-2026-01451", "Northbound": "No", "Southbound": "No", "Eastbound": "No", "Westbound": "No", "Roadclosure": "No", "LaneClosure": "No", "SideWalkClosure": "Yes", "RightOfWayWork": "Yes"}}, {"type": "Feature", "id": 2354696, "geometry": {"type": "Point", "coordinates": [-97.5104157027353, 35.4711628931956]}, "properties": {"OBJECTID": 2354696, "Worktype": "Dumpster/Storage", "Startdate": "07/28/2026", "Enddate": "08/11/2026", "Worklocation": "100 NE 4TH ST", "workzonenumber": "WZ-2026-01449", "Northbound": "No", "Southbound": "No", "Eastbound": "No", "Westbound": "No", "Roadclosure": "No", "LaneClosure": "No", "SideWalkClosure": "No", "RightOfWayWork": "Yes"}}, {"type": "Feature", "id": 2354698, "geometry": {"type": "Point", "coordinates": [-97.72760104569873, 35.43537929438973]}, "properties": {"OBJECTID": 2354698, "Worktype": "Utility Maintenance and Repair", "Startdate": "07/27/2026", "Enddate": "08/31/2026", "Worklocation": "GUERERO ST & SW 29TH ST", "workzonenumber": "WZ-2026-01446", "Northbound": "No", "Southbound": "No", "Eastbound": "No", "Westbound": "WB: 1", "Roadclosure": "No", "LaneClosure": "Yes", "SideWalkClosure": "No", "RightOfWayWork": "No"}}, {"type": "Feature", "id": 2354700, "geometry": {"type": "Point", "coordinates": [-97.53255401921862, 35.46203510947779]}, "properties": {"OBJECTID": 2354700, "Worktype": "Utility Maintenance and Repair", "Startdate": "07/29/2026", "Enddate": "08/31/2026", "Worklocation": "EXCHANGE AVE & SW 3RD ST", "workzonenumber": "WZ-2026-01448", "Northbound": "No", "Southbound": "No", "Eastbound": "No", "Westbound": "No", "Roadclosure": "No", "LaneClosure": "No", "SideWalkClosure": "No", "RightOfWayWork": "Yes"}}, {"type": "Feature", "id": 2355081, "geometry": {"type": "Point", "coordinates": [-97.52855420424208, 35.47534815284112]}, "properties": {"OBJECTID": 2355081, "Worktype": "Road Construction", "Startdate": "07/29/2026", "Enddate": "08/10/2026", "Worklocation": "N CLASSEN BLVD & NW 7TH ST", "workzonenumber": "WZ-2026-01457", "Northbound": "No", "Southbound": "No", "Eastbound": "No", "Westbound": "No", "Roadclosure": "Yes", "LaneClosure": "No", "SideWalkClosure": "Yes", "RightOfWayWork": "No"}}, {"type": "Feature", "id": 2355082, "geometry": {"type": "Point", "coordinates": [-97.53198874715238, 35.49534483383419]}, "properties": {"OBJECTID": 2355082, "Worktype": "Street Repair", "Startdate": "07/28/2026", "Enddate": "08/04/2026", "Worklocation": "NW 25TH ST & N MILITARY AVE", "workzonenumber": "WZ-2026-01456", "Northbound": "No", "Southbound": "No", "Eastbound": "No", "Westbound": "No", "Roadclosure": "Yes", "LaneClosure": "No", "SideWalkClosure": "No", "RightOfWayWork": "No"}}, {"type": "Feature", "id": 2355083, "geometry": {"type": "Point", "coordinates": [-97.67269814602665, 35.58350081176607]}, "properties": {"OBJECTID": 2355083, "Worktype": "Dumpster/Storage", "Startdate": "07/30/2026", "Enddate": "08/13/2026", "Worklocation": "8908 NW 110TH ST", "workzonenumber": "WZ-2026-01458", "Northbound": "No", "Southbound": "No", "Eastbound": "EB: 1", "Westbound": "No", "Roadclosure": "No", "LaneClosure": "Yes", "SideWalkClosure": "No", "RightOfWayWork": "No"}}, {"type": "Feature", "id": 2355084, "geometry": {"type": "Point", "coordinates": [-97.61894617121939, 35.49739196940617]}, "properties": {"OBJECTID": 2355084, "Worktype": "Utility Maintenance and Repair", "Startdate": "07/29/2026", "Enddate": "08/04/2026", "Worklocation": "2700 N MACARTHUR BLVD", "workzonenumber": "WZ-2026-01460", "Northbound": "NB: 1", "Southbound": "No", "Eastbound": "No", "Westbound": "No", "Roadclosure": "No", "LaneClosure": "Yes", "SideWalkClosure": "No", "RightOfWayWork": "No"}}, {"type": "Feature", "id": 2355085, "geometry": {"type": "Point", "coordinates": [-97.60110395174702, 35.50644328354427]}, "properties": {"OBJECTID": 2355085, "Worktype": "Utility Maintenance and Repair", "Startdate": "07/30/2026", "Enddate": "08/07/2026", "Worklocation": "3500 N MERIDIAN AVE", "workzonenumber": "WZ-2026-01459", "Northbound": "NB: 1", "Southbound": "No", "Eastbound": "No", "Westbound": "No", "Roadclosure": "No", "LaneClosure": "Yes", "SideWalkClosure": "No", "RightOfWayWork": "No"}}, {"type": "Feature", "id": 2355088, "geometry": {"type": "Point", "coordinates": [-97.59760558641564, 35.49171410216316]}, "properties": {"OBJECTID": 2355088, "Worktype": "Street Repair", "Startdate": "07/29/2026", "Enddate": "08/07/2026", "Worklocation": "4324 NW 21ST ST", "workzonenumber": "WZ-2026-01465", "Northbound": "No", "Southbound": "No", "Eastbound": "EB: 1", "Westbound": "No", "Roadclosure": "No", "LaneClosure": "Yes", "SideWalkClosure": "No", "RightOfWayWork": "No"}}, {"type": "Feature", "id": 2355089, "geometry": {"type": "Point", "coordinates": [-97.53652460507035, 35.48592310053431]}, "properties": {"OBJECTID": 2355089, "Worktype": "Utility Maintenance and Repair", "Startdate": "07/31/2026", "Enddate": "08/31/2026", "Worklocation": "NW 16TH ST & N MCKINLEY AVE", "workzonenumber": "WZ-2026-01464", "Northbound": "No", "Southbound": "No", "Eastbound": "No", "Westbound": "No", "Roadclosure": "No", "LaneClosure": "No", "SideWalkClosure": "No", "RightOfWayWork": "Yes"}}, {"type": "Feature", "id": 2355487, "geometry": {"type": "Point", "coordinates": [-97.79827352470434, 35.58015170881735]}, "properties": {"OBJECTID": 2355487, "Worktype": "Road Construction", "Startdate": "07/30/2026", "Enddate": "08/17/2026", "Worklocation": "W HEFNER RD & N CEMETERY RD", "workzonenumber": "WZ-2026-01471", "Northbound": "No", "Southbound": "No", "Eastbound": "EB: 1", "Westbound": "WB: 1", "Roadclosure": "No", "LaneClosure": "Yes", "SideWalkClosure": "No", "RightOfWayWork": "No"}}, {"type": "Feature", "id": 2355488, "geometry": {"type": "Point", "coordinates": [-97.76318173901235, 35.58009452437756]}, "properties": {"OBJECTID": 2355488, "Worktype": "Road Construction", "Startdate": "07/30/2026", "Enddate": "08/17/2026", "Worklocation": "W HEFNER RD & N CEMETERY RD", "workzonenumber": "WZ-2026-01471", "Northbound": "No", "Southbound": "No", "Eastbound": "EB: 1", "Westbound": "WB: 1", "Roadclosure": "No", "LaneClosure": "Yes", "SideWalkClosure": "No", "RightOfWayWork": "No"}}, {"type": "Feature", "id": 2355489, "geometry": {"type": "Point", "coordinates": [-97.53012308754653, 35.40791113997028]}, "properties": {"OBJECTID": 2355489, "Worktype": "Utility Maintenance and Repair", "Startdate": "07/29/2026", "Enddate": "08/07/2026", "Worklocation": "5810 S WESTERN AVE", "workzonenumber": "WZ-2026-01470", "Northbound": "NB: 1", "Southbound": "No", "Eastbound": "No", "Westbound": "No", "Roadclosure": "No", "LaneClosure": "Yes", "SideWalkClosure": "Yes", "RightOfWayWork": "No"}}, {"type": "Feature", "id": 2355492, "geometry": {"type": "Point", "coordinates": [-97.51456662981798, 35.46787606843421]}, "properties": {"OBJECTID": 2355492, "Worktype": "Street Repair", "Startdate": "07/31/2026", "Enddate": "08/03/2026", "Worklocation": "101 N BROADWAY AVE", "workzonenumber": "WZ-2026-01468", "Northbound": "No", "Southbound": "SB: 1", "Eastbound": "No", "Westbound": "No", "Roadclosure": "No", "LaneClosure": "Yes", "SideWalkClosure": "No", "RightOfWayWork": "No"}}, {"type": "Feature", "id": 2355494, "geometry": {"type": "Point", "coordinates": [-97.62736833006804, 35.546511857141525]}, "properties": {"OBJECTID": 2355494, "Worktype": "Street Repair", "Startdate": "07/29/2026", "Enddate": "08/04/2026", "Worklocation": "7311 EDENBOROUGH DR", "workzonenumber": "WZ-2026-01473", "Northbound": "No", "Southbound": "SB: 1", "Eastbound": "No", "Westbound": "No", "Roadclosure": "No", "LaneClosure": "Yes", "SideWalkClosure": "No", "RightOfWayWork": "No"}}, {"type": "Feature", "id": 2355886, "geometry": {"type": "Point", "coordinates": [-97.67415848347832, 35.62402431421309]}, "properties": {"OBJECTID": 2355886, "Worktype": "Utility Maintenance and Repair", "Startdate": "08/01/2026", "Enddate": "09/01/2026", "Worklocation": "NW 150TH ST & N COUNTY LINE RD", "workzonenumber": "WZ-2026-01475", "Northbound": "No", "Southbound": "No", "Eastbound": "No", "Westbound": "No", "Roadclosure": "No", "LaneClosure": "No", "SideWalkClosure": "No", "RightOfWayWork": "Yes"}}, {"type": "Feature", "id": 2355887, "geometry": {"type": "Point", "coordinates": [-97.50115242196895, 35.51322648900933]}, "properties": {"OBJECTID": 2355887, "Worktype": "Street Repair", "Startdate": "07/30/2026", "Enddate": "08/06/2026", "Worklocation": "N LINDSAY AVE & NE 41ST ST", "workzonenumber": "WZ-2026-01476", "Northbound": "No", "Southbound": "SB: 1", "Eastbound": "No", "Westbound": "WB: 1", "Roadclosure": "No", "LaneClosure": "Yes", "SideWalkClosure": "No", "RightOfWayWork": "No"}}, {"type": "Feature", "id": 2355890, "geometry": {"type": "Point", "coordinates": [-97.50374273765975, 35.48227793905945]}, "properties": {"OBJECTID": 2355890, "Worktype": "Street Repair", "Startdate": "07/30/2026", "Enddate": "08/04/2026", "Worklocation": "N LINCOLN BLVD & NE 13TH ST", "workzonenumber": "WZ-2026-01478", "Northbound": "No", "Southbound": "No", "Eastbound": "EB: 1", "Westbound": "No", "Roadclosure": "No", "LaneClosure": "Yes", "SideWalkClosure": "No", "RightOfWayWork": "No"}}, {"type": "Feature", "id": 2356287, "geometry": {"type": "Point", "coordinates": [-97.52087960171126, 35.48597343944809]}, "properties": {"OBJECTID": 2356287, "Worktype": "Dumpster/Storage", "Startdate": "07/30/2026", "Enddate": "08/13/2026", "Worklocation": "440 NW 16TH ST", "workzonenumber": "WZ-2026-01479", "Northbound": "No", "Southbound": "No", "Eastbound": "EB: 1", "Westbound": "No", "Roadclosure": "No", "LaneClosure": "Yes", "SideWalkClosure": "No", "RightOfWayWork": "Yes"}}]}