{"type": "FeatureCollection", "features": [{"type": "Feature", "geometry": {"type": "Point", "coordinates": [-9.13509005314991, 38.7122596690752]}, "properties": {"id": 567, "localizacao": "Largo do Chão do Loureiro; Calçada do Marquês de Tancos", "contacto": "351 252 637 619", "horario": "", "dataEdicao": "2022-07-12T12:43:00", "freguesia": "Santa Maria Maior", "cP7": "1100-340"}}, {"type": "Feature", "geometry": {"type": "Point", "coordinates": [-9.14508334104639, 38.7449236214217]}, "properties": {"id": 568, "localizacao": "Rua de Entrecampos", "contacto": "351 252 637 619", "horario": "", "dataEdicao": "2022-07-12T12:40:00", "freguesia": "Areeiro", "cP7": "1000-152"}}, {"type": "Feature", "geometry": {"type": "Point", "coordinates": [-9.14510221295695, 38.7451712483781]}, "properties": {"id": 569, "localizacao": "Rua Infante Dom Pedro", "contacto": "351 252 637 619", "horario": "", "dataEdicao": "2022-07-12T12:40:00", "freguesia": "Alvalade", "cP7": "1749-076"}}, {"type": "Feature", "geometry": {"type": "Point", "coordinates": [-9.13523962936202, 38.715380342325]}, "properties": {"id": 570, "localizacao": "Escadinhas da Saúde", "contacto": "351 808 212 005", "horario": "Das 8:00 às 23:00 horas", "dataEdicao": "2022-07-12T12:42:00", "freguesia": "Santa Maria Maior", "cP7": "1100-584"}}, {"type": "Feature", "geometry": {"type": "Point", "coordinates": [-9.13308549444214, 38.7095451798187]}, "properties": {"id": 571, "localizacao": "Rua Afonso de Albuquerque; Rua Cruzes da Sé", "contacto": "351 229 432 834", "horario": "Das 8:00 às 21:00 horas", "dataEdicao": "2022-07-12T12:43:00", "freguesia": "Santa Maria Maior", "cP7": "1100-192"}}]}