{"type": "FeatureCollection", "features": [{"type": "Feature", "geometry": {"type": "Point", "coordinates": [-9.158412, 38.7246857]}, "properties": {"tunelID": 1, "localizacao": "Túnel do Marquês (debaixo da Avenida Eng.º Duarte Pacheco)", "condicaoAcesso": "||> Vel. Máx. 50 Km/h ||> Alt. Máx. 3.8m ||> Trânsito Proibido a Pesados, viaturas que transportem matérias perigosas, bicicletas e peões.", "pertubacoes": "||> https://condicionamentos-transito.cm-lisboa.pt/ para maiores informações.", "cP7": "1250-096", "freguesia": "Campo de Ourique", "cadastradoEm": "2022-08-17T19:14:00"}}, {"type": "Feature", "geometry": {"type": "Point", "coordinates": [-9.158412, 38.74224]}, "properties": {"tunelID": 2, "localizacao": "Túnel João XXI (debaixo da Avenida João XXI)", "condicaoAcesso": "||> Vel. Máx. 50 Km/h ||> Alt. Máx. 4.0m ||> Trânsito Proibido a Pesados, viaturas que transportem matérias perigosas, bicicletas e peões.", "pertubacoes": "||> https://condicionamentos-transito.cm-lisboa.pt/ para maiores informações.", "cP7": "1000-159", "freguesia": "Areeiro", "cadastradoEm": "2022-08-17T19:14:00"}}]}