{"type": "FeatureCollection", "features": [{"type": "Feature", "id": 1, "geometry": {"type": "Point", "coordinates": [-89.7794470003788, 35.1425360002362]}, "properties": {"FID": 1, "community_": "Bert Ferguson Community Center", "street": "8505 Trinity Road", "zip": 38018, "phone": "901-636-0705", "website": "https://memphisparks.com/park/bert-ferguson-park-community-center/", "council_di": 2}}, {"type": "Feature", "id": 2, "geometry": {"type": "Point", "coordinates": [-90.0162589996531, 35.1675340000941]}, "properties": {"FID": 2, "community_": "Kate Sexton Community Center", "street": "1235 Brown Avenue", "zip": 38107, "phone": "901-636-0750", "website": "https://memphisparks.com/park/klondike-park-katie-sexton-community-center/", "council_di": 7}}, {"type": "Feature", "id": 3, "geometry": {"type": "Point", "coordinates": [-89.9991989998339, 35.1146680002281]}, "properties": {"FID": 3, "community_": "Glenview Community Center", "street": "1141 S. Barksdale Street", "zip": 38114, "phone": "901-636-7080", "website": "https://memphisparks.com/park/glenview-park-community-center/", "council_di": 4}}, {"type": "Feature", "id": 4, "geometry": {"type": "Point", "coordinates": [-89.9026469998591, 35.085647000109]}, "properties": {"FID": 4, "community_": "Marion Hale Community Center", "street": "4791 Willow Road", "zip": 38117, "phone": "901-636-0789", "website": "https://memphisparks.com/park/willow-park-marion-hale-community-center/", "council_di": 5}}, {"type": "Feature", "id": 5, "geometry": {"type": "Point", "coordinates": [-89.8564710000366, 35.0439639997388]}, "properties": {"FID": 5, "community_": "Hickory Hill Community Center", "street": "3910 Ridgeway Road", "zip": 38115, "phone": "901-636-0780", "website": "https://memphisparks.com/park/hickory-hill-park-community-center/", "council_di": 3}}, {"type": "Feature", "id": 6, "geometry": {"type": "Point", "coordinates": [-89.9498500002773, 35.2268990001888]}, "properties": {"FID": 6, "community_": "Cunningham Community Center", "street": "3773 Old Allen Road", "zip": 38128, "phone": "901-636-3037", "website": "https://memphisparks.com/park/j-t-willingham-park-cunningham-community-center/", "council_di": 1}}, {"type": "Feature", "id": 7, "geometry": {"type": "Point", "coordinates": [-90.0667790001507, 35.0959359997466]}, "properties": {"FID": 7, "community_": "Riverview Community Center", "street": "1891 Kansas Street", "zip": 38109, "phone": "901-636-0795", "website": "https://memphisparks.com/park/riverview-park-and-community-center/", "council_di": 6}}, {"type": "Feature", "id": 8, "geometry": {"type": "Point", "coordinates": [-90.0307630003122, 35.0940910000996]}, "properties": {"FID": 8, "community_": "Pine Hill Community Center", "street": "1005 Alice Ave", "zip": 38106, "phone": "901-636-0793", "website": "https://memphisparks.com/park/pine-hill-park-community-center/", "council_di": 6}}, {"type": "Feature", "id": 9, "geometry": {"type": "Point", "coordinates": [-89.9194820000942, 35.162073000069]}, "properties": {"FID": 9, "community_": "Gaisman Community Center", "street": "4223 Macon Road", "zip": 38122, "phone": "901-636-0761", "website": "https://memphisparks.com/park/gaisman-park-community-center/", "council_di": 5}}, {"type": "Feature", "id": 10, "geometry": {"type": "Point", "coordinates": [-89.9784950001441, 35.2326469999591]}, "properties": {"FID": 10, "community_": "North Frayser Community Center", "street": "2555 St. Elmo Avenue", "zip": 38127, "phone": "901-636-0792", "website": "https://memphisparks.com/park/pickett-park-north-frayser-community-center/", "council_di": 7}}, {"type": "Feature", "id": 11, "geometry": {"type": "Point", "coordinates": [-90.0149579999118, 35.0308120002737]}, "properties": {"FID": 11, "community_": "Whitehaven Community Center", "street": "4318 Graceland Drive", "zip": 38116, "phone": "901-636-0796", "website": "https://memphisparks.com/park/raines-finley-park-whitehaven-community-center/", "council_di": 3}}, {"type": "Feature", "id": 12, "geometry": {"type": "Point", "coordinates": [-90.0215039996099, 35.118081000238]}, "properties": {"FID": 12, "community_": "Gaston Community Center", "street": "1048 S. Third Street", "zip": 38106, "phone": "901-636-0703", "website": "https://memphisparks.com/park/gaston-park-community-center/", "council_di": 4}}, {"type": "Feature", "id": 13, "geometry": {"type": "Point", "coordinates": [-90.0912530001258, 35.0311489996267]}, "properties": {"FID": 13, "community_": "Charles Powell - Westwood Community Center", "street": "810 Western Park Drive", "zip": 38109, "phone": "901-636-0775", "website": "https://memphisparks.com/park/westwood-park-charles-e-powell-westood-community-center/", "council_di": 6}}, {"type": "Feature", "id": 14, "geometry": {"type": "Point", "coordinates": [-89.9758939998082, 35.1082560004141]}, "properties": {"FID": 14, "community_": "Orange Mound Community Center", "street": "2590 Park Ave", "zip": 38114, "phone": "901-636-6622", "website": "https://memphisparks.com/park/orange-mound-park-community-center-senior-center/", "council_di": 4}}, {"type": "Feature", "id": 15, "geometry": {"type": "Point", "coordinates": [-89.9503210004138, 35.1131559997497]}, "properties": {"FID": 15, "community_": "Davis Community Center", "street": "3371 Spottswood Avenue", "zip": 38111, "phone": "901-636-0728", "website": "https://memphisparks.com/park/charles-w-davis-park-and-community-center/", "council_di": 5}}, {"type": "Feature", "id": 16, "geometry": {"type": "Point", "coordinates": [-89.9616510003933, 35.1408869997353]}, "properties": {"FID": 16, "community_": "Lester Community Center", "street": "2980 Mimosa Avenue", "zip": 38112, "phone": "901-636-0788", "website": "https://memphisparks.com/park/robert-howze-park-lester-community-center/", "council_di": 5}}, {"type": "Feature", "id": 17, "geometry": {"type": "Point", "coordinates": [-89.9536720002625, 35.1766099995519]}, "properties": {"FID": 17, "community_": "Douglass Community Center", "street": "1616 Ash Street", "zip": 38108, "phone": "901-636-0778", "website": "https://memphisparks.com/park/douglass-park-and-community-center/", "council_di": 7}}, {"type": "Feature", "id": 18, "geometry": {"type": "Point", "coordinates": [-89.9126570001204, 35.2256490001013]}, "properties": {"FID": 18, "community_": "Raleigh Community Center", "street": "3678 Powers Road", "zip": 38128, "phone": "901-636-0794", "website": "https://memphisparks.com/park/harry-c-pierotti-park-raleigh-community-center/", "council_di": 1}}, {"type": "Feature", "id": 19, "geometry": {"type": "Point", "coordinates": [-89.8982349996455, 35.0691609997804]}, "properties": {"FID": 19, "community_": "McFarland Community Center", "street": "4955 Cottonwood Road", "zip": 38118, "phone": "901-636-0787", "website": "https://memphisparks.com/park/mcfarland-park-community-center/", "council_di": 4}}, {"type": "Feature", "id": 20, "geometry": {"type": "Point", "coordinates": [-90.0040640002534, 35.2048990000889]}, "properties": {"FID": 20, "community_": "Ed Rice Community Center", "street": "2907 N. Watkins Street", "zip": 38127, "phone": "901-636-0750", "website": "https://memphisparks.com/park/frayser-park-ed-rice-community-center/", "council_di": 7}}, {"type": "Feature", "id": 21, "geometry": {"type": "Point", "coordinates": [-89.975244999557, 35.1788830000505]}, "properties": {"FID": 21, "community_": "Hollywood Community Center", "street": "1560 N. Hollywood Street", "zip": 38108, "phone": "901-636-0784", "website": "https://memphisparks.com/park/hollywood-park-community-center/", "council_di": 7}}, {"type": "Feature", "id": 22, "geometry": {"type": "Point", "coordinates": [-90.0851940004027, 35.055917999716]}, "properties": {"FID": 22, "community_": "Mitchell Community Center", "street": "602 West Mitchell Road", "zip": 38109, "phone": "901-636-0791", "website": "https://memphisparks.com/park/roosevelt-park-mitchell-community-center/", "council_di": 6}}, {"type": "Feature", "id": 23, "geometry": {"type": "Point", "coordinates": [-90.026325999845, 35.1675459997481]}, "properties": {"FID": 23, "community_": "Dave Wells Community Center", "street": "915 Chelsea Avenue", "zip": 38107, "phone": "901-636-0717", "website": "https://memphisparks.com/park/dave-wells-park-community-center/", "council_di": 7}}, {"type": "Feature", "id": 24, "geometry": {"type": "Point", "coordinates": [-90.0440367347075, 35.1590857139346]}, "properties": {"FID": 24, "community_": "Greenlaw Community Center", "street": "190 Mill Ave", "zip": 38105, "phone": "(901) 569-2504", "website": "https://memphisparks.com/park/greenlaw-park-and-community-center/", "council_di": 7}}, {"type": "Feature", "id": 25, "geometry": {"type": "Point", "coordinates": [-89.9728285715813, 35.0976163263325]}, "properties": {"FID": 25, "community_": "Bethel LaBelle Community Center", "street": "2698 LaRose", "zip": 38114, "phone": "(901) 302-7354", "website": "https://memphisparks.com/park/bethel-labelle-community-center/", "council_di": 4}}]}