{"type": "FeatureCollection", "features": [{"type": "Feature", "id": 1, "geometry": {"type": "Point", "coordinates": [-89.8565320001517, 35.0455770003783]}, "properties": {"FID": 1, "police_sta": "Ridgeway Station", "street_add": "3840 Ridgeway Road", "zip_code": 38115, "phone": "901-636-4531", "police_dis": 1, "precinct_a": 21.71, "precinct_w": 9.21922923924926e+17}}, {"type": "Feature", "id": 2, "geometry": {"type": "Point", "coordinates": [-89.9613110000026, 35.1440869998152]}, "properties": {"FID": 2, "police_sta": "Tillman Station", "street_add": "426 Tillman Street", "zip_code": 38112, "phone": "901-636-3000", "police_dis": 2, "precinct_a": 25.99, "precinct_w": 5.215225235245255e+17}}, {"type": "Feature", "id": 3, "geometry": {"type": "Point", "coordinates": [-89.9895690000093, 35.0858010000162]}, "properties": {"FID": 3, "police_sta": "Airways Station", "street_add": "2234 Truitt Street", "zip_code": 38114, "phone": "901-636-4800", "police_dis": 1, "precinct_a": 19, "precinct_w": 7.217227237247258e+17}}, {"type": "Feature", "id": 4, "geometry": {"type": "Point", "coordinates": [-89.9498660001158, 35.2248209996894]}, "properties": {"FID": 4, "police_sta": "Old Allen Station", "street_add": "3633  Old Allen Road", "zip_code": 38128, "phone": "901-636-4399", "police_dis": 2, "precinct_a": 50.98, "precinct_w": 1.2112212312412512e+17}}, {"type": "Feature", "id": 5, "geometry": {"type": "Point", "coordinates": [-89.882417999591, 35.0768619996816]}, "properties": {"FID": 5, "police_sta": "Mt. Moriah Station", "street_add": "2602 Mt. Moriah Road", "zip_code": 38115, "phone": "901-636-4199", "police_dis": 1, "precinct_a": 42.71, "precinct_w": 3.213223233243253e+17}}, {"type": "Feature", "id": 6, "geometry": {"type": "Point", "coordinates": [-90.0299919998309, 35.1318050000008]}, "properties": {"FID": 6, "police_sta": "Crump Station", "street_add": "949 E. H. Crump Boulevard", "zip_code": 38104, "phone": "901-636-4600", "police_dis": 2, "precinct_a": 35.8, "precinct_w": 4.214224234244254e+17}}, {"type": "Feature", "id": 7, "geometry": {"type": "Point", "coordinates": [-90.0374369996178, 35.0352980003025]}, "properties": {"FID": 7, "police_sta": "Raines Station", "street_add": "791 E. Raines Road", "zip_code": 38116, "phone": "901-636-4599", "police_dis": 1, "precinct_a": 78.4, "precinct_w": 2.212222232242252e+17}}, {"type": "Feature", "id": 8, "geometry": {"type": "Point", "coordinates": [-90.0481560001992, 35.156694000228]}, "properties": {"FID": 8, "police_sta": "North Main Station", "street_add": "444 N. Main Street", "zip_code": 38103, "phone": "901-636-4099", "police_dis": 2, "precinct_a": 5.01, "precinct_w": 6.216226236246257e+17}}, {"type": "Feature", "id": 9, "geometry": {"type": "Point", "coordinates": [-89.8350499996577, 35.1785689999595]}, "properties": {"FID": 9, "police_sta": "Appling Farms Station", "street_add": "6850 Appling Farms Parkway", "zip_code": 38133, "phone": "901-636-4400", "police_dis": 2, "precinct_a": 44.58, "precinct_w": 8.218228238248259e+17}}]}